KMBS 160243Z 02018G27KT 1/2SM R23/4000V4500FT SN VV009 M12/M15 A3006 RMK AO2 PK WND 01031/0220 P0000 T11221150,KMBS,2021-02-16T02:43:00Z,43.53,-84.08,-12.2,-15.0,20,18,27,0.5,30.059055,,,,TRUE,,,,,,SN,OVX,0,,,,,,,LIFR,,,,,,0.005,,,,,900,SPECI,201.0
KMTC 160242Z AUTO 04021G29KT 1 1/4SM -SN BR OVC005 M08/M08 A2990 RMK AO2 SLP141 $,KMTC,2021-02-16T02:42:00Z,42.62,-82.83,-8.0,-8.0,40,21,29,1.25,29.899607,1014.1,,TRUE,TRUE,TRUE,,,,,-SN BR,OVC,500,,,,,,,IFR,,,,,,,,,,,,SPECI,177.0
KFNT 160241Z 02012G22KT 1SM R09/P6000FT -SN VV010 M10/M13 A2997 RMK AO2 P0004 T11001133,KFNT,2021-02-16T02:41:00Z,42.97,-83.75,-10.0,-13.3,20,12,22,1.0,29.970472,,,,TRUE,,,,,,-SN,OVX,0,,,,,,,LIFR,,,,,,0.04,,,,,1000,SPECI,235.0
KDET 160240Z 04019G30KT 3/4SM -SN BR VV010 M08/M11 A2989 RMK AO2 PK WND 02032/0220 PRESFR P0001 T10831106,KDET,2021-02-16T02:40:00Z,42.4,-83.02,-8.3,-10.6,40,19,30,0.75,29.890747,,,,TRUE,,,,,,-SN BR,OVX,0,,,,,,,LIFR,,,,,,0.01,,,,,1000,SPECI,190.0
KFFX 160238Z AUTO 04014G19KT 4SM -SN BKN022 OVC028 M12/M18 A3006 RMK AO2 T11221185,KFFX,2021-02-16T02:38:00Z,43.43,-86.0,-12.2,-18.5,40,14,19,4.0,30.059055,,,TRUE,TRUE,,,,,,-SN,BKN,2200,OVC,2800,,,,,MVFR,,,,,,,,,,,,SPECI,234.0
KTTF 160235Z AUTO 04011G17KT 1 1/2SM -SN OVC013 M08/M09 A2984 RMK AO2 P0001 T10851094,KTTF,2021-02-16T02:35:00Z,41.93,-83.42,-8.5,-9.4,40,11,17,1.5,29.840551,,,TRUE,TRUE,,,,,,-SN,OVC,1300,,,,,,,IFR,,,,,,0.01,,,,,,SPECI,186.0
KPHN 160235Z AUTO 03015G23KT 1 1/2SM -SN OVC004 M09/M10 A2997 RMK AO2,KPHN,2021-02-16T02:35:00Z,42.92,-82.52,-9.0,-10.0,30,15,23,1.5,29.970472,,,TRUE,TRUE,,,,,,-SN,OVC,400,,,,,,,LIFR,,,,,,,,,,,,SPECI,195.0
KMCD 160235Z AUTO 02010KT 10SM CLR M15/M20 A3023 RMK AO2 T11491205,KMCD,2021-02-16T02:35:00Z,45.85,-84.63,-14.9,-20.5,20,10,,10.0,30.230314,,,TRUE,TRUE,,,,,,,CLR,,,,,,,,VFR,,,,,,,,,,,,SPECI,228.0
KLDM 160235Z AUTO 03007KT 10SM OVC110 M12/M19 A3012 RMK AO2 T11201191,KLDM,2021-02-16T02:35:00Z,43.97,-86.4,-12.0,-19.1,30,7,,10.0,30.121063,,,TRUE,TRUE,,,,,,,OVC,11000,,,,,,,VFR,,,,,,,,,,,,METAR,194.0
KCVX 160235Z AUTO 04008KT 10SM CLR M13/M19 A3021 RMK AO2 T11351191,KCVX,2021-02-16T02:35:00Z,45.3,-85.27,-13.5,-19.1,40,8,,10.0,30.209646,,,TRUE,TRUE,,,,,,,CLR,,,,,,,,VFR,,,,,,,,,,,,METAR,196.0
KBAX 160235Z AUTO 04015G18KT 1 3/4SM -SN OVC012 M10/M11 A3004 RMK AO2 T11001115,KBAX,2021-02-16T02:35:00Z,43.78,-82.98,-10.0,-11.5,40,15,18,1.75,30.041338,,,TRUE,TRUE,,,,,,-SN,OVC,1200,,,,,,,IFR,,,,,,,,,,,,METAR,229.0
KACB 160235Z AUTO 03010G16KT 10SM CLR M14/M20 A3022 RMK AO2 T11361198,KACB,2021-02-16T02:35:00Z,44.98,-85.2,-13.6,-19.8,30,10,16,10.0,30.221457,,,TRUE,TRUE,,,,,,,CLR,,,,,,,,VFR,,,,,,,,,,,,METAR,189.0
KJXN 160231Z AUTO 01012G21KT 3/4SM -SN VV012 M12/M14 A2990 RMK AO2 PK WND 01026/0206 P0001 T11171144,KJXN,2021-02-16T02:31:00Z,42.27,-84.47,-11.7,-14.4,10,12,21,0.75,29.899607,,,TRUE,TRUE,,,,,,-SN,OVX,0,,,,,,,LIFR,,,,,,0.01,,,,,1200,SPECI,303.0
KMKG 160227Z 03012G19KT 1 3/4SM -SN BLSN OVC022 M12/M18 A3009 RMK AO2 SNB05 P0000 T11171183,KMKG,2021-02-16T02:27:00Z,43.17,-86.23,-11.7,-18.3,30,12,19,1.75,30.088583,,,,TRUE,,,,,,-SN BLSN,OVC,2200,,,,,,,IFR,,,,,,0.005,,,,,,SPECI,190.0
KYIP 160220Z 03016KT 1SM R05R/6000VP6000FT -SN VV015 M07/M12 A2988 RMK AO2 PRESFR P0000 T10721117,KYIP,2021-02-16T02:20:00Z,42.23,-83.53,-7.2,-11.7,30,16,,1.0,29.878937,,,,TRUE,,,,,,-SN,OVX,0,,,,,,,LIFR,,,,,,0.005,,,,,1500,SPECI,215.0
KDTW 160212Z 04015G20KT 1/2SM R03R/4500VP6000FT SN BLSN VV011 M09/M11 A2992 RMK AO2 P0002 T10891111,KDTW,2021-02-16T02:12:00Z,42.23,-83.33,-8.9,-11.1,40,15,20,0.5,29.920275,,,,TRUE,,,,,,SN BLSN,OVX,0,,,,,,,LIFR,,,,,,0.02,,,,,1100,SPECI,192.0
KMBL 160156Z AUTO 04008KT 10SM SCT033 OVC120 M13/M18 A3018 RMK AO2 SLP235 T11281183 FZRANO,KMBL,2021-02-16T01:56:00Z,44.27,-86.25,-12.8,-18.3,40,8,,10.0,30.180119,1023.5,,TRUE,TRUE,,,,TRUE,,,SCT,3300,OVC,12000,,,,,VFR,,,,,,,,,,,,SPECI,187.0
KCIU 160156Z AUTO 36004KT 10SM CLR M18/M22 A3025 RMK AO2 SLP267 T11781217 FZRANO,KCIU,2021-02-16T01:56:00Z,46.25,-84.47,-17.8,-21.7,360,4,,10.0,30.250984,1026.7,,TRUE,TRUE,,,,TRUE,,,CLR,,,,,,,,VFR,,,,,,,,,,,,METAR,242.0
KSBN 160154Z 02012KT 1SM R27L/P6000FT -SN VV010 M12/M16 A2999 RMK AO2 SLP174 P0006 T11221156,KSBN,2021-02-16T01:54:00Z,41.7,-86.32,-12.2,-15.6,20,12,,1.0,29.991142,1017.4,,,TRUE,,,,,,-SN,OVX,0,,,,,,,LIFR,,,,,,0.06,,,,,1000,SPECI,236.0
KPLN 160154Z AUTO 03009KT 10SM CLR M15/M20 A3025 RMK AO2 SLP263 T11501200,KPLN,2021-02-16T01:54:00Z,45.57,-84.8,-15.0,-20.0,30,9,,10.0,30.250984,1026.3,,TRUE,TRUE,,,,,,,CLR,,,,,,,,VFR,,,,,,,,,,,,METAR,215.0
KTVC 160153Z 06012G20KT 10SM OVC150 M12/M19 A3020 RMK AO2 SLP241 LAST T11171189,KTVC,2021-02-16T01:53:00Z,44.73,-85.58,-11.7,-18.9,60,12,20,10.0,30.200787,1024.1,,,TRUE,,,,,,,OVC,15000,,,,,,,VFR,,,,,,,,,,,,METAR,188.0
KPTK 160153Z 03012KT 1/2SM R09R/4000V4500FT SN FZFG VV006 M09/M12 A2995 RMK AO2 PRESFR SLP161 P0002 T10941117 $,KPTK,2021-02-16T01:53:00Z,42.67,-83.42,-9.4,-11.7,30,12,,0.5,29.949802,1016.1,,,TRUE,TRUE,,,,,SN FZFG,OVX,0,,,,,,,LIFR,,,,,,0.02,,,,,600,METAR,295.0
KLAN 160153Z 03014KT 1/2SM R28L/5000V5500FT SN FZFG VV008 M12/M14 A3001 RMK AO2 PRESFR SLP181 P0006 T11171139 $,KLAN,2021-02-16T01:53:00Z,42.78,-84.58,-11.7,-13.9,30,14,,0.5,30.008858,1018.1,,,TRUE,TRUE,,,,,SN FZFG,OVX,0,,,,,,,LIFR,,,,,,0.06,,,,,800,SPECI,261.0
KGRR 160153Z 03010KT 1/2SM R26L/5500VP6000FT SN FZFG VV008 M12/M14 A3004 RMK AO2 SLP190 P0005 T11171139 $,KGRR,2021-02-16T01:53:00Z,42.88,-85.52,-11.7,-13.9,30,10,,0.5,30.041338,1019.0,,,TRUE,TRUE,,,,,SN FZFG,OVX,0,,,,,,,LIFR,,,,,,0.05,,,,,800,METAR,239.0
KGLR 160153Z AUTO 04012G18KT 10SM CLR M14/M21 A3013 RMK AO2 SLP235 T11391211,KGLR,2021-02-16T01:53:00Z,45.02,-84.68,-13.9,-21.1,40,12,18,10.0,30.129921,1023.5,,TRUE,TRUE,,,,,,,CLR,,,,,,,,VFR,,,,,,,,,,,,SPECI,403.0
KBTL 160153Z 02012G21KT 3/4SM R23/P6000FT -SN VV009 M12/M15 A2997 RMK AO2 SLP167 P0001 T11221150,KBTL,2021-02-16T01:53:00Z,42.32,-85.25,-12.2,-15.0,20,12,21,0.75,29.970472,1016.7,,,TRUE,,,,,,-SN,OVX,0,,,,,,,LIFR,,,,,,0.01,,,,,900,SPECI,282.0
KAZO 160153Z 02011G17KT 1/2SM R35/5500FT SN VV008 M12/M16 A2999 RMK AO2 SLP174 P0001 T11221156,KAZO,2021-02-16T01:53:00Z,42.23,-85.55,-12.2,-15.6,20,11,17,0.5,29.991142,1017.4,,,TRUE,,,,,,SN,OVX,0,,,,,,,LIFR,,,,,,0.01,,,,,800,METAR,264.0
