KTTF 281015Z AUTO 05011G23KT 10SM BKN011 OVC036 09/08 A2995 RMK AO2 T00850075,KTTF,2021-05-28T10:15:00Z,41.93,-83.42,8.5,7.5,50,11,23,10.0,29.949802,,,TRUE,TRUE,,,,,,,BKN,1100,OVC,3600,,,,,MVFR,,,,,,,,,,,,SPECI,186.0
KPHN 281015Z AUTO 04014G17KT 10SM -RA SCT020 OVC027 06/03 A3007 RMK AO,KPHN,2021-05-28T10:15:00Z,42.92,-82.52,6.0,3.0,40,14,17,10.0,30.070866,,,TRUE,,,,,,,-RA,SCT,2000,OVC,2700,,,,,MVFR,,,,,,,,,,,,SPECI,195.0
KMCD 281015Z AUTO 07015G22KT 050V110 10SM CLR 06/M03 A3023 RMK AO2 T00571031,KMCD,2021-05-28T10:15:00Z,45.85,-84.63,5.7,-3.1,70,15,22,10.0,30.230314,,,TRUE,TRUE,,,,,,,CLR,,,,,,,,VFR,,,,,,,,,,,,SPECI,228.0
KLDM 281015Z AUTO 07011G16KT 10SM BKN012 BKN018 OVC080 05/04 A3008 RMK AO2 T00480036,KLDM,2021-05-28T10:15:00Z,43.97,-86.4,4.8,3.6,70,11,16,10.0,30.079725,,,TRUE,TRUE,,,,,,,BKN,1200,BKN,1800,OVC,8000,,,MVFR,,,,,,,,,,,,SPECI,194.0
KFFX 281015Z AUTO 07012G19KT 10SM OVC010 05/04 A3004 RMK AO2 T00500037,KFFX,2021-05-28T10:15:00Z,43.43,-86.0,5.0,3.7,70,12,19,10.0,30.041338,,,TRUE,TRUE,,,,,,,OVC,1000,,,,,,,MVFR,,,,,,,,,,,,SPECI,234.0
KCVX 281015Z AUTO 07013G18KT 10SM CLR 07/M01 A3019 RMK AO2 T00681009,KCVX,2021-05-28T10:15:00Z,45.3,-85.27,6.8,-0.9,70,13,18,10.0,30.188976,,,TRUE,TRUE,,,,,,,CLR,,,,,,,,VFR,,,,,,,,,,,,SPECI,196.0
KBAX 281015Z AUTO 07013G18KT 5SM -SN BKN009 BKN012 OVC020 04/04 A3012 RMK AO2 T00370035,KBAX,2021-05-28T10:15:00Z,43.78,-82.98,3.7,3.5,70,13,18,5.0,30.121063,,,TRUE,TRUE,,,,,,-SN,BKN,900,BKN,1200,OVC,2000,,,IFR,,,,,,,,,,,,SPECI,229.0
KACB 281015Z AUTO 00000KT 10SM CLR 05/02 A3018 RMK AO2 T00460024,KACB,2021-05-28T10:15:00Z,44.98,-85.2,4.6,2.4,0,0,,10.0,30.180119,,,TRUE,TRUE,,,,,,,CLR,,,,,,,,VFR,,,,,,,,,,,,SPECI,189.0
KMTC 281013Z AUTO 06021G29KT 10SM OVC012 07/07 A3002 RMK AO2 RAE05DZB05E13 OVC V BKN SLP173,KMTC,2021-05-28T10:13:00Z,42.62,-82.83,7.0,7.0,60,21,29,10.0,30.02067,1017.3,,TRUE,TRUE,,,,,,,OVC,1200,,,,,,,MVFR,,,,,,,,,,,,SPECI,177.0
KMBS 281013Z 06016G23KT 5SM -RA BR FEW009 SCT033 OVC060 06/04 A3010 RMK AO2 PK WND 06026/0955 P0003 T00610044,KMBS,2021-05-28T10:13:00Z,43.53,-84.08,6.1,4.4,60,16,23,5.0,30.100393,,,,TRUE,,,,,,-RA BR,FEW,900,SCT,3300,OVC,6000,,,MVFR,,,,,,0.03,,,,,,METAR,201.0
KMBL 281008Z AUTO 05007KT 10SM FEW009 BKN015 OVC060 04/04 A3012 RMK AO2,KMBL,2021-05-28T10:08:00Z,44.27,-86.25,4.0,4.0,50,7,,10.0,30.121063,,,TRUE,TRUE,,,,,,,FEW,900,BKN,1500,OVC,6000,,,MVFR,,,,,,,,,,,,SPECI,187.0
KJXN 280956Z AUTO 03011G20KT 10SM OVC010 06/04 A2998 RMK AO2 RAE17 SLP153 P0000 T00560044,KJXN,2021-05-28T09:56:00Z,42.27,-84.47,5.6,4.4,30,11,20,10.0,29.97933,1015.3,,TRUE,TRUE,,,,,,,OVC,1000,,,,,,,MVFR,,,,,,0.005,,,,,,METAR,303.0
KCIU 280956Z AUTO 07010KT 10SM CLR 03/M04 A3024 RMK AO2 SLP249 T00331044,KCIU,2021-05-28T09:56:00Z,46.25,-84.47,3.3,-4.4,70,10,,10.0,30.239174,1024.9,,TRUE,TRUE,,,,,,,CLR,,,,,,,,VFR,,,,,,,,,,,,METAR,242.0
KMKG 280955Z 07015G22KT 8SM -RA OVC038 06/03 A3004 RMK AO2 PK WND 06027/0908 RAE19B52 SLP174 P0000 T00560028,KMKG,2021-05-28T09:55:00Z,43.17,-86.23,5.6,2.8,70,15,22,8.0,30.041338,1017.4,,,TRUE,,,,,,-RA,OVC,3800,,,,,,,VFR,,,,,,0.005,,,,,,METAR,190.0
KSBN 280954Z 05010G17KT 6SM RA BR BKN010 BKN014 OVC022 08/06 A2992 RMK AO2 CIG 005V011 SLP130 P0024 T00780056,KSBN,2021-05-28T09:54:00Z,41.7,-86.32,7.8,5.6,50,10,17,6.0,29.920275,1013.0,,,TRUE,,,,,,RA BR,BKN,1000,BKN,1400,OVC,2200,,,MVFR,,,,,,0.24,,,,,,METAR,236.0
KPLN 280954Z AUTO 08016G24KT 10SM CLR 07/M02 A3022 RMK AO2 PK WND 08027/0933 SLP237 T00671022 TSNO,KPLN,2021-05-28T09:54:00Z,45.57,-84.8,6.7,-2.2,80,16,24,10.0,30.221457,1023.7,,TRUE,TRUE,,,TRUE,,,,CLR,,,,,,,,VFR,,,,,,,,,,,,METAR,215.0
KYIP 280953Z 05014KT 10SM BKN011 OVC042 08/06 A2998 RMK AO2 RAB0856E44 SLP152 P0001 T00830056,KYIP,2021-05-28T09:53:00Z,42.23,-83.53,8.3,5.6,50,14,,10.0,29.97933,1015.2,,,TRUE,,,,,,,BKN,1100,OVC,4200,,,,,MVFR,,,,,,0.01,,,,,,METAR,215.0
KTVC 280953Z AUTO 07005KT 10SM BKN028 OVC060 05/03 A3015 RMK AO2 SLP215 T00500033,KTVC,2021-05-28T09:53:00Z,44.73,-85.58,5.0,3.3,70,5,,10.0,30.15059,1021.5,,TRUE,TRUE,,,,,,,BKN,2800,OVC,6000,,,,,MVFR,,,,,,,,,,,,METAR,188.0
KPTK 280953Z 05018G26KT 10SM -RA BKN011 BKN030 OVC042 06/04 A3001 RMK AO2 PK WND 06027/0934 SLP163 CIG 010V015 P0001 T00610044,KPTK,2021-05-28T09:53:00Z,42.67,-83.42,6.1,4.4,50,18,26,10.0,30.008858,1016.3,,,TRUE,,,,,,-RA,BKN,1100,BKN,3000,OVC,4200,,,MVFR,,,,,,0.01,,,,,,METAR,295.0
KLAN 280953Z 05015G28KT 3SM RA BR SCT013 OVC029 05/03 A3002 RMK AO2 PK WND 05028/0945 RAB05 SLP170 P0004 T00500033,KLAN,2021-05-28T09:53:00Z,42.78,-84.58,5.0,3.3,50,15,28,3.0,30.02067,1017.0,,,TRUE,,,,,,RA BR,SCT,1300,OVC,2900,,,,,MVFR,,,,,,0.04,,,,,,METAR,261.0
KGRR 280953Z 07015G23KT 6SM +RA BR SCT024 OVC033 06/04 A3002 RMK AO2 PK WND 08027/0918 SLP170 P0001 T00560039,KGRR,2021-05-28T09:53:00Z,42.88,-85.52,5.6,3.9,70,15,23,6.0,30.02067,1017.0,,,TRUE,,,,,,+RA BR,SCT,2400,OVC,3300,,,,,VFR,,,,,,0.01,,,,,,METAR,239.0
KGLR 280953Z AUTO 06007KT 10SM SCT110 05/01 A3015 RMK AO2 SLP217 T00500006,KGLR,2021-05-28T09:53:00Z,45.02,-84.68,5.0,0.6,60,7,,10.0,30.15059,1021.7,,TRUE,TRUE,,,,,,,SCT,11000,,,,,,,VFR,,,,,,,,,,,,METAR,403.0
KFNT 280953Z 06020G28KT 10SM OVC035 06/03 A3004 RMK AO2 PK WND 07028/0952 RAE27 SLP177 P0000 T00610033,KFNT,2021-05-28T09:53:00Z,42.97,-83.75,6.1,3.3,60,20,28,10.0,30.041338,1017.7,,,TRUE,,,,,,,OVC,3500,,,,,,,VFR,,,,,,0.005,,,,,,METAR,235.0
KDTW 280953Z 05013G22KT 6SM -RA BR OVC012 08/06 A2998 RMK PK WND 02027/0908 RAB03 SLP153 P0000 T00780061,KDTW,2021-05-28T09:53:00Z,42.23,-83.33,7.8,6.1,50,13,22,6.0,29.97933,1015.3,,,,,,,,,-RA BR,OVC,1200,,,,,,,MVFR,,,,,,0.005,,,,,,METAR,192.0
KDET 280953Z 06015G27KT 7SM -RA OVC045 08/06 A3001 RMK AO2 PK WND 05027/0950 SLP163 P0000 T00830061 $,KDET,2021-05-28T09:53:00Z,42.4,-83.02,8.3,6.1,60,15,27,7.0,30.008858,1016.3,,,TRUE,TRUE,,,,,-RA,OVC,4500,,,,,,,VFR,,,,,,0.005,,,,,,METAR,190.0
KBTL 280953Z AUTO 05011G22KT 10SM -RA OVC016 06/03 A2997 RMK AO2 RAB0854 SLP152 P0000 T00560028,KBTL,2021-05-28T09:53:00Z,42.32,-85.25,5.6,2.8,50,11,22,10.0,29.970472,1015.2,,TRUE,TRUE,,,,,,-RA,OVC,1600,,,,,,,MVFR,,,,,,0.005,,,,,,METAR,282.0
KAZO 280953Z 05010G19KT 10SM -RA OVC015 06/02 A2998 RMK AO2 RAE0854B16E26B48 SLP154 P0000 T00610022,KAZO,2021-05-28T09:53:00Z,42.23,-85.55,6.1,2.2,50,10,19,10.0,29.97933,1015.4,,,TRUE,,,,,,-RA,OVC,1500,,,,,,,MVFR,,,,,,0.005,,,,,,METAR,264.0
