KJXN 171136Z 00000KT 1/4SM FG OVC002 18/17 A3010 RMK AO2 T01780167,KJXN,2021-08-17T11:36:00Z,42.27,-84.47,17.8,16.7,0,0,,0.25,30.100393,,,,TRUE,,,,,,FG,OVC,200,,,,,,,LIFR,,,,,,,,,,,,SPECI,303.0
KTTF 171135Z AUTO 30004KT 1/4SM FG OVC002 18/18 A3008 RMK AO2 T01780175,KTTF,2021-08-17T11:35:00Z,41.93,-83.42,17.8,17.5,300,4,,0.25,30.079725,,,TRUE,TRUE,,,,,,FG,OVC,200,,,,,,,LIFR,,,,,,,,,,,,METAR,186.0
KPHN 171135Z AUTO 00000KT 4SM BR SCT003 OVC011 19/18 A3010 RMK AO2,KPHN,2021-08-17T11:35:00Z,42.92,-82.52,19.0,18.0,0,0,,4.0,30.100393,,,TRUE,TRUE,,,,,,BR,SCT,300,OVC,1100,,,,,MVFR,,,,,,,,,,,,METAR,195.0
KPCW 171135Z AUTO 04005KT 10SM BKN014 21/20 A3008 RMK AO2,KPCW,2021-08-17T11:35:00Z,41.52,-82.87,21.0,20.0,40,5,,10.0,30.079725,,,TRUE,TRUE,,,,,,,BKN,1400,,,,,,,MVFR,,,,,,,,,,,,METAR,179.0
KOSC 171135Z AUTO 00000KT 3/4SM BR OVC003 13/13 A3009 RMK AO2 T01300130,KOSC,2021-08-17T11:35:00Z,44.45,-83.4,13.0,13.0,0,0,,0.75,30.088583,,,TRUE,TRUE,,,,,,BR,OVC,300,,,,,,,LIFR,,,,,,,,,,,,METAR,191.0
KMOP 171135Z AUTO 00000KT 2SM BR OVC002 13/13 A3009 RMK AO2 VIS 3/4V5 T01260126,KMOP,2021-08-17T11:35:00Z,43.62,-84.73,12.6,12.6,0,0,,2.0,30.088583,,,TRUE,TRUE,,,,,,BR,OVC,200,,,,,,,LIFR,,,,,,,,,,,,METAR,229.0
KMCD 171135Z AUTO 19004KT 10SM CLR 17/14 A3006 RMK AO2 T01720141,KMCD,2021-08-17T11:35:00Z,45.85,-84.63,17.2,14.1,190,4,,10.0,30.059055,,,TRUE,TRUE,,,,,,,CLR,,,,,,,,VFR,,,,,,,,,,,,METAR,228.0
KLDM 171135Z AUTO 00000KT 1 3/4SM BR VV007 12/11 A3007 RMK AO2 T01160111,KLDM,2021-08-17T11:35:00Z,43.97,-86.4,11.6,11.1,0,0,,1.75,30.070866,,,TRUE,TRUE,,,,,,BR,OVX,0,,,,,,,LIFR,,,,,,,,,,,700,METAR,194.0
KFKS 171135Z AUTO 00000KT 10SM CLR 12/11 A3007 RMK AO2 T01210113,KFKS,2021-08-17T11:35:00Z,44.63,-86.2,12.1,11.3,0,0,,10.0,30.070866,,,TRUE,TRUE,,,,,,,CLR,,,,,,,,VFR,,,,,,,,,,,,METAR,189.0
KCVX 171135Z AUTO 00000KT 10SM CLR 16/14 A3007 RMK AO2 T01600140,KCVX,2021-08-17T11:35:00Z,45.3,-85.27,16.0,14.0,0,0,,10.0,30.070866,,,TRUE,TRUE,,,,,,,CLR,,,,,,,,VFR,,,,,,,,,,,,METAR,196.0
KCLE 171135Z 00000KT 5SM BR SCT010 BKN017 BKN250 21/19 A3007 RMK AO2 T02060194,KCLE,2021-08-17T11:35:00Z,41.42,-81.85,20.6,19.4,0,0,,5.0,30.070866,,,,TRUE,,,,,,BR,SCT,1000,BKN,1700,BKN,25000,,,MVFR,,,,,,,,,,,,SPECI,237.0
KBAX 171135Z AUTO 1/2SM FG OVC002 13/13 A3009 RMK AO2 T01300130,KBAX,2021-08-17T11:35:00Z,43.78,-82.98,13.0,13.0,,,,0.5,30.088583,,,TRUE,TRUE,,,,,,FG,OVC,200,,,,,,,LIFR,,,,,,,,,,,,METAR,229.0
KBTL 171127Z 07003KT 1 3/4SM R23/3000VP6000FT BR BKN002 18/17 A3009 RMK AO2 T01780167,KBTL,2021-08-17T11:27:00Z,42.32,-85.25,17.8,16.7,70,3,,1.75,30.088583,,,,TRUE,,,,,,BR,BKN,200,,,,,,,LIFR,,,,,,,,,,,,SPECI,282.0
KMBS 171126Z 00000KT 1SM R23/1800V2600FT BR VV004 15/14 A3010 RMK AO2 T01500144,KMBS,2021-08-17T11:26:00Z,43.53,-84.08,15.0,14.4,0,0,,1.0,30.100393,,,,TRUE,,,,,,BR,OVX,0,,,,,,,LIFR,,,,,,,,,,,400,SPECI,201.0
KAZO 171126Z 00000KT 1SM R35/2400VP6000FT BR VV002 17/16 A3008 RMK AO2 T01670156,KAZO,2021-08-17T11:26:00Z,42.23,-85.55,16.7,15.6,0,0,,1.0,30.079725,,,,TRUE,,,,,,BR,OVX,0,,,,,,,LIFR,,,,,,,,,,,200,SPECI,264.0
KMTC 171125Z 35004KT 3/8SM R01/4000FT FG VV001 18/18 A3008 RMK AO2A SLP189,KMTC,2021-08-17T11:25:00Z,42.62,-82.83,18.0,18.0,350,4,,0.38,30.079725,1018.9,,,TRUE,,,,,,FG,OVX,0,,,,,,,LIFR,,,,,,,,,,,100,SPECI,177.0
KDTW 171124Z 00000KT 2 1/2SM MIFG BR SCT006 BKN065 BKN200 17/17 A3010 RMK AO2 TWR VIS 3 MIFG AT AP T01720167,KDTW,2021-08-17T11:24:00Z,42.23,-83.33,17.2,16.7,0,0,,2.5,30.100393,,,,TRUE,,,,,,MIFG BR,SCT,600,BKN,6500,BKN,20000,,,IFR,,,,,,,,,,,,SPECI,192.0
KYIP 171122Z 00000KT 3SM FG SCT005 17/15 A3010 RMK AO2 T01720150,KYIP,2021-08-17T11:22:00Z,42.23,-83.53,17.2,15.0,0,0,,3.0,30.100393,,,,TRUE,,,,,,FG,SCT,500,,,,,,,MVFR,,,,,,,,,,,,SPECI,215.0
KLAN 171118Z 00000KT 2 1/2SM R28L/1400V6000FT BR CLR 17/15 A3010 RMK AO2 T01670150,KLAN,2021-08-17T11:18:00Z,42.78,-84.58,16.7,15.0,0,0,,2.5,30.100393,,,,TRUE,,,,,,BR,CLR,,,,,,,,IFR,,,,,,,,,,,,METAR,261.0
KFFX 171115Z AUTO 10003KT 7SM CLR 16/15 A3007 RMK AO2 T01550149,KFFX,2021-08-17T11:15:00Z,43.43,-86.0,15.5,14.9,100,3,,7.0,30.070866,,,TRUE,TRUE,,,,,,,CLR,,,,,,,,VFR,,,,,,,,,,,,SPECI,234.0
KACB 171115Z AUTO 00000KT 7SM CLR 12/12 A3008 RMK AO2 T01210119,KACB,2021-08-17T11:15:00Z,44.98,-85.2,12.1,11.9,0,0,,7.0,30.079725,,,TRUE,TRUE,,,,,,,CLR,,,,,,,,VFR,,,,,,,,,,,,SPECI,189.0
KGOV 171113Z AUTO 00000KT 4SM BR OVC001 08/08 A3009 RMK AO2 SLP196 $,KGOV,2021-08-17T11:13:00Z,44.68,-84.73,8.0,8.0,0,0,,4.0,30.088583,1019.6,,TRUE,TRUE,TRUE,,,,,BR,OVC,100,,,,,,,LIFR,,,,,,,,,,,,METAR,350.0
KSBN 171104Z 00000KT 3SM BR SCT004 19/17 A3007 RMK AO2 T01890172,KSBN,2021-08-17T11:04:00Z,41.7,-86.32,18.9,17.2,0,0,,3.0,30.070866,,,,TRUE,,,,,,BR,SCT,400,,,,,,,MVFR,,,,,,,,,,,,SPECI,236.0
CYXU 171100Z 09005KT 2 1/4SM MIFG BR OVC002 20/19 A3007 RMK ST8 VIS HIER SE SLP181 DENSITY ALT 1600FT,CYXU,2021-08-17T11:00:00Z,43.03,-81.15,20.0,19.0,90,5,,2.25,30.070866,1018.1,,,,,,,,,MIFG BR,OVC,200,,,,,,,LIFR,,,,,,,,,,,,SPECI,278.0
CYHM 171100Z 09003KT 15SM FEW005 OVC015 20/20 A3007 RMK SC2ST6 SLP184 DENSITY ALT 1400FT,CYHM,2021-08-17T11:00:00Z,43.17,-79.93,20.0,20.0,90,3,,15.0,30.070866,1018.4,,,,,,,,,,FEW,500,OVC,1500,,,,,MVFR,,,,,,,,,,,,METAR,237.0
KMBL 171056Z AUTO 10005KT 10SM CLR 12/12 A3007 RMK AO2 SLP181 T01170117,KMBL,2021-08-17T10:56:00Z,44.27,-86.25,11.7,11.7,100,5,,10.0,30.070866,1018.1,,TRUE,TRUE,,,,,,,CLR,,,,,,,,VFR,,,,,,,,,,,,METAR,187.0
KCIU 171056Z AUTO 14003KT 9SM CLR 14/14 A3007 RMK AO2 SLP178 T01440144,KCIU,2021-08-17T10:56:00Z,46.25,-84.47,14.4,14.4,140,3,,9.0,30.070866,1017.8,,TRUE,TRUE,,,,,,,CLR,,,,,,,,VFR,,,,,,,,,,,,METAR,242.0
KMKG 171055Z 00000KT 7SM SCT250 16/14 A3006 RMK AO2 SLP178 T01610144,KMKG,2021-08-17T10:55:00Z,43.17,-86.23,16.1,14.4,0,0,,7.0,30.059055,1017.8,,,TRUE,,,,,,,SCT,25000,,,,,,,VFR,,,,,,,,,,,,METAR,190.0
KPLN 171054Z AUTO 00000KT 10SM CLR 12/11 A3007 RMK AO2 SLP182 T01170111,KPLN,2021-08-17T10:54:00Z,45.57,-84.8,11.7,11.1,0,0,,10.0,30.070866,1018.2,,TRUE,TRUE,,,,,,,CLR,,,,,,,,VFR,,,,,,,,,,,,METAR,215.0
KAPN 171054Z AUTO 00000KT 10SM SCT002 09/09 A3009 RMK AO2 SLP191 T00940089,KAPN,2021-08-17T10:54:00Z,45.07,-83.57,9.4,8.9,0,0,,10.0,30.088583,1019.1,,TRUE,TRUE,,,,,,,SCT,200,,,,,,,VFR,,,,,,,,,,,,SPECI,208.0
KTVC 171053Z 00000KT 10SM FEW140 FEW250 14/13 A3006 RMK AO2 SLP179 T01440128,KTVC,2021-08-17T10:53:00Z,44.73,-85.58,14.4,12.8,0,0,,10.0,30.059055,1017.9,,,TRUE,,,,,,,FEW,14000,FEW,25000,,,,,VFR,,,,,,,,,,,,METAR,188.0
KPTK 171053Z 00000KT 4SM BCFG BR FEW004 SCT020 SCT200 17/16 A3008 RMK AO2 SLP181 T01670161,KPTK,2021-08-17T10:53:00Z,42.67,-83.42,16.7,16.1,0,0,,4.0,30.079725,1018.1,,,TRUE,,,,,,BCFG BR,FEW,400,SCT,2000,SCT,20000,,,MVFR,,,,,,,,,,,,METAR,295.0
KGRR 171053Z 15004KT 6SM BR FEW031 FEW250 17/17 A3009 RMK AO2 SLP185 T01720167,KGRR,2021-08-17T10:53:00Z,42.88,-85.52,17.2,16.7,150,4,,6.0,30.088583,1018.5,,,TRUE,,,,,,BR,FEW,3100,FEW,25000,,,,,VFR,,,,,,,,,,,,METAR,239.0
KGLR 171053Z AUTO 00000KT 10SM CLR 14/10 A3009 RMK AO2 SLP187 T01390100,KGLR,2021-08-17T10:53:00Z,45.02,-84.68,13.9,10.0,0,0,,10.0,30.088583,1018.7,,TRUE,TRUE,,,,,,,CLR,,,,,,,,VFR,,,,,,,,,,,,METAR,403.0
KFNT 171053Z 00000KT 10SM CLR 14/13 A3009 RMK AO2 SLP188 T01440133,KFNT,2021-08-17T10:53:00Z,42.97,-83.75,14.4,13.3,0,0,,10.0,30.088583,1018.8,,,TRUE,,,,,,,CLR,,,,,,,,VFR,,,,,,,,,,,,METAR,235.0
KDET 171053Z 00000KT 5SM BR CLR 19/17 A3008 RMK AO2 SLP184 T01890172,KDET,2021-08-17T10:53:00Z,42.4,-83.02,18.9,17.2,0,0,,5.0,30.079725,1018.4,,,TRUE,,,,,,BR,CLR,,,,,,,,MVFR,,,,,,,,,,,,METAR,190.0
KBEH 171053Z AUTO 00000KT 6SM BR SCT010 16/15 A3007 RMK AO2 SLP178 T01610150,KBEH,2021-08-17T10:53:00Z,42.13,-86.42,16.1,15.0,0,0,,6.0,30.070866,1017.8,,TRUE,TRUE,,,,,,BR,SCT,1000,,,,,,,VFR,,,,,,,,,,,,METAR,196.0
KERI 171051Z 17006KT 4SM HZ CLR 23/20 A3007 RMK AO2 SLP180 T02280200,KERI,2021-08-17T10:51:00Z,42.08,-80.18,22.8,20.0,170,6,,4.0,30.070866,1018.0,,,TRUE,,,,,,HZ,CLR,,,,,,,,MVFR,,,,,,,,,,,,METAR,222.0
