KGRR 101253Z 16008KT 8SM FEW090 BKN140 BKN200 19/18 A2984 RMK AO2 RAB00E51 SLP103 P0000 T01940183,KGRR,2021-10-10T12:53:00Z,42.88,-85.52,19.4,18.3,160,8,,8.0,29.840551,1010.3,,,TRUE,,,,,,,FEW,9000,BKN,14000,BKN,20000,,,VFR,,,,,,0.005,,,,,,METAR,239.0
KAZO 101253Z VRB05KT 6SM BR CLR 20/18 A2985 RMK AO2 SLP106 T02000178,KAZO,2021-10-10T12:53:00Z,42.23,-85.55,20.0,17.8,0,5,,6.0,29.84941,1010.6,,,TRUE,,,,,,BR,CLR,,,,,,,,VFR,,,,,,,,,,,,METAR,264.0
KARB 101253Z 17006KT 6SM -RA BR FEW075 SCT090 OVC110 18/17 A2993 RMK AO2 SLP133 P0000 T01780167,KARB,2021-10-10T12:53:00Z,42.22,-83.73,17.8,16.7,170,6,,6.0,29.929134,1013.3,,,TRUE,,,,,,-RA BR,FEW,7500,SCT,9000,OVC,11000,,,VFR,,,,,,0.005,,,,,,METAR,251.0
