KYIP 021708Z 29013KT 3SM -RA BR SCT009 BKN028 OVC055 22/19 A2977 RMK AO2 P0002 T02170194,KYIP,2020-08-02T17:08:00Z,42.23,-83.53,21.7,19.4,290,13,,3.0,29.769686,,,,TRUE,,,,,,-RA BR,SCT,900,BKN,2800,OVC,5500,,,MVFR,,,,,,0.02,,,,,,SPECI,215.0
KJXN 021707Z 30008KT 10SM FEW009 OVC014 19/17 A2983 RMK AO2 T01890167,KJXN,2020-08-02T17:07:00Z,42.27,-84.47,18.9,16.7,300,8,,10.0,29.828741,,,,TRUE,,,,,,,FEW,900,OVC,1400,,,,,MVFR,,,,,,,,,,,,SPECI,305.0
KDET 021706Z 31010G17KT 10SM FEW011 BKN037 OVC046 21/19 A2971 RMK AO2 RAE06 P0000 T02110194,KDET,2020-08-02T17:06:00Z,42.4,-83.02,21.1,19.4,310,10,17,10.0,29.71063,,,,TRUE,,,,,,,FEW,1100,BKN,3700,OVC,4600,,,VFR,,,,,,0.005,,,,,,SPECI,190.0
KAZO 021701Z 33008KT 10SM FEW020 BKN026 BKN033 23/17 A2986 RMK AO2 T02330167,KAZO,2020-08-02T17:01:00Z,42.23,-85.55,23.3,16.7,330,8,,10.0,29.861221,,,,TRUE,,,,,,,FEW,2000,BKN,2600,BKN,3300,,,MVFR,,,,,,,,,,,,SPECI,272.0
KBTL 021700Z 32006KT 10SM -RA BKN050 OVC075 20/17 A2986 RMK AO2 P0001 T02000172,KBTL,2020-08-02T17:00:00Z,42.32,-85.23,20.0,17.2,320,6,,10.0,29.861221,,,,TRUE,,,,,,-RA,BKN,5000,OVC,7500,,,,,VFR,,,,,,0.01,,,,,,SPECI,290.0
KMTC 021656Z 32008G17KT 10SM -RA OVC010 21/21 A2968 RMK AO2A SLP053 P0014 T02050205 $,KMTC,2020-08-02T16:56:00Z,42.62,-82.82,20.5,20.5,320,8,17,10.0,29.681103,1005.3,,,TRUE,TRUE,,,,,-RA,OVC,1000,,,,,,,MVFR,,,,,,0.14,,,,,,SPECI,177.0
KMBL 021656Z AUTO 31008KT 10SM BKN070 24/19 A2982 RMK AO2 SLP096 T02440194,KMBL,2020-08-02T16:56:00Z,44.27,-86.25,24.4,19.4,310,8,,10.0,29.819881,1009.6,,TRUE,TRUE,,,,,,,BKN,7000,,,,,,,VFR,,,,,,,,,,,,METAR,189.0
KTTF 021655Z AUTO 29012G18KT 2SM RA OVC006 20/19 A2976 RMK AO2 P0001 T01950185,KTTF,2020-08-02T16:55:00Z,41.93,-83.42,19.5,18.5,290,12,18,2.0,29.760826,,,TRUE,TRUE,,,,,,RA,OVC,600,,,,,,,IFR,,,,,,0.01,,,,,,METAR,188.0
KPHN 021655Z AUTO 32006G18KT 10SM -RA SCT008 BKN014 OVC025 20/19 A2967 RMK AO2,KPHN,2020-08-02T16:55:00Z,42.92,-82.52,20.0,19.0,320,6,18,10.0,29.66929,,,TRUE,TRUE,,,,,,-RA,SCT,800,BKN,1400,OVC,2500,,,MVFR,,,,,,,,,,,,METAR,198.0
KMKG 021655Z 25005KT 10SM FEW012 BKN030 OVC100 23/18 A2984 RMK AO2 SLP102 T02330178,KMKG,2020-08-02T16:55:00Z,43.17,-86.23,23.3,17.8,250,5,,10.0,29.840551,1010.2,,,TRUE,,,,,,,FEW,1200,BKN,3000,OVC,10000,,,MVFR,,,,,,,,,,,,METAR,191.0
KMCD 021655Z AUTO 01006KT 10SM SCT080 23/16 A2980 RMK AO2 T02250159,KMCD,2020-08-02T16:55:00Z,45.85,-84.63,22.5,15.9,10,6,,10.0,29.799213,,,TRUE,TRUE,,,,,,,SCT,8000,,,,,,,VFR,,,,,,,,,,,,METAR,226.0
KLDM 021655Z AUTO 31004KT 10SM SCT090 A2982 RMK AO2,KLDM,2020-08-02T16:55:00Z,43.97,-86.4,,,310,4,,10.0,29.819881,,,TRUE,TRUE,,,,,,,SCT,9000,,,,,,,VFR,,,,,,,,,,,,METAR,197.0
KFFX 021655Z AUTO 28005KT 10SM SCT110 24/19 A2983 RMK AO2 T02420186,KFFX,2020-08-02T16:55:00Z,43.43,-86.0,24.2,18.6,280,5,,10.0,29.828741,,,TRUE,TRUE,,,,,,,SCT,11000,,,,,,,VFR,,,,,,,,,,,,METAR,236.0
KCVX 021655Z AUTO 35007KT 10SM CLR 23/19 A2981 RMK AO2 T02330187,KCVX,2020-08-02T16:55:00Z,45.3,-85.27,23.3,18.7,350,7,,10.0,29.811024,,,TRUE,TRUE,,,,,,,CLR,,,,,,,,VFR,,,,,,,,,,,,METAR,204.0
KBAX 021655Z AUTO 35010KT 10SM -RA BKN009 BKN033 OVC060 20/19 A2972 RMK AO2 T02010193,KBAX,2020-08-02T16:55:00Z,43.78,-82.98,20.1,19.3,350,10,,10.0,29.719488,,,TRUE,TRUE,,,,,,-RA,BKN,900,BKN,3300,OVC,6000,,,IFR,,,,,,,,,,,,METAR,234.0
KACB 021655Z AUTO 30005KT 10SM SCT075 SCT090 25/15 A2980 RMK AO2 T02510153,KACB,2020-08-02T16:55:00Z,44.98,-85.2,25.1,15.3,300,5,,10.0,29.799213,,,TRUE,TRUE,,,,,,,SCT,7500,SCT,9000,,,,,VFR,,,,,,,,,,,,METAR,190.0
KSBN 021654Z 25008KT 10SM BKN010 22/20 A2988 RMK AO2 CIG 008V014 SLP115 T02170200 $,KSBN,2020-08-02T16:54:00Z,41.7,-86.32,21.7,20.0,250,8,,10.0,29.878937,1011.5,,,TRUE,TRUE,,,,,,BKN,1000,,,,,,,MVFR,,,,,,,,,,,,METAR,237.0
KPLN 021654Z AUTO 34007KT 10SM CLR 25/14 A2981 RMK AO2 SLP091 T02500144,KPLN,2020-08-02T16:54:00Z,45.57,-84.8,25.0,14.4,340,7,,10.0,29.811024,1009.1,,TRUE,TRUE,,,,,,,CLR,,,,,,,,VFR,,,,,,,,,,,,METAR,217.0
KTVC 021653Z 04006KT 10SM FEW065 SCT120 BKN200 26/16 A2979 RMK AO2 SLP086 T02610161,KTVC,2020-08-02T16:53:00Z,44.73,-85.57,26.1,16.1,40,6,,10.0,29.790354,1008.6,,,TRUE,,,,,,,FEW,6500,SCT,12000,BKN,20000,,,VFR,,,,,,,,,,,,METAR,190.0
KPTK 021653Z 31012KT 10SM BKN015 BKN065 OVC080 21/18 A2973 RMK AO2 RAE41 SLP063 P0000 T02060183 $,KPTK,2020-08-02T16:53:00Z,42.67,-83.42,20.6,18.3,310,12,,10.0,29.731298,1006.3,,,TRUE,TRUE,,,,,,BKN,1500,BKN,6500,OVC,8000,,,MVFR,,,,,,0.005,,,,,,METAR,299.0
KMBS 021653Z 33008KT 10SM -RA FEW075 OVC100 22/16 A2978 RMK AO2 SLP080 P0002 T02170156,KMBS,2020-08-02T16:53:00Z,43.53,-84.08,21.7,15.6,330,8,,10.0,29.778543,1008.0,,,TRUE,,,,,,-RA,FEW,7500,OVC,10000,,,,,VFR,,,,,,0.02,,,,,,METAR,202.0
KLAN 021653Z 31009KT 10SM FEW048 BKN055 OVC110 19/17 A2982 RMK AO2 RAE39 SLP096 P0001 T01890172,KLAN,2020-08-02T16:53:00Z,42.78,-84.58,18.9,17.2,310,9,,10.0,29.819881,1009.6,,,TRUE,,,,,,,FEW,4800,BKN,5500,OVC,11000,,,VFR,,,,,,0.01,,,,,,METAR,264.0
KGRR 021653Z 33005KT 10SM FEW015 FEW070 BKN150 OVC210 22/18 A2985 RMK AO2 SLP103 T02220178,KGRR,2020-08-02T16:53:00Z,42.88,-85.52,22.2,17.8,330,5,,10.0,29.84941,1010.3,,,TRUE,,,,,,,FEW,1500,FEW,7000,BKN,15000,OVC,21000,VFR,,,,,,,,,,,,METAR,237.0
KGLR 021653Z AUTO VRB05KT 10SM CLR 24/16 A2981 RMK AO2 SLP089 T02440156,KGLR,2020-08-02T16:53:00Z,45.02,-84.68,24.4,15.6,0,5,,10.0,29.811024,1008.9,,TRUE,TRUE,,,,,,,CLR,,,,,,,,VFR,,,,,,,,,,,,METAR,407.0
KFNT 021653Z 31007KT 3SM BR OVC009 20/18 A2977 RMK AO2 RAE41 CIG 006V016 SLP078 P0003 T02000183,KFNT,2020-08-02T16:53:00Z,42.97,-83.75,20.0,18.3,310,7,,3.0,29.769686,1007.8,,,TRUE,,,,,,BR,OVC,900,,,,,,,IFR,,,,,,0.03,,,,,,METAR,233.0
KDTW 021653Z 30013G21KT 2SM -RA BR BKN008 BKN015 OVC030 21/21 A2975 RMK AO2 SLP071 VIS 1 1/2V2 1/2 T02060206,KDTW,2020-08-02T16:53:00Z,42.23,-83.33,20.6,20.6,300,13,21,2.0,29.749016,1007.1,,,TRUE,,,,,,-RA BR,BKN,800,BKN,1500,OVC,3000,,,IFR,,,,,,,,,,,,METAR,195.0
