KARB 050821Z AUTO 18003KT 7SM -RA SCT032 BKN055 OVC110 19/18 A2991 RMK AO2 LTG DSNT ALQDS TSE01 P0012 T01940178,KARB,2022-07-05T08:21:00Z,42.22,-83.73,19.4,17.8,180,3,,7.0,29.911417,,,TRUE,TRUE,,,,,,-RA,SCT,3200,BKN,5500,OVC,11000,,,VFR,,,,,,0.12,,,,,,SPECI,251.0
KAZO 050817Z AUTO 23007KT 10SM FEW055 SCT075 BKN090 22/19 A2990 RMK AO2 LTG DSNT S-W RAE08 TSE02 P0000 T02170194 $,KAZO,2022-07-05T08:17:00Z,42.23,-85.55,21.7,19.4,230,7,,10.0,29.899607,,,TRUE,TRUE,TRUE,,,,,,FEW,5500,SCT,7500,BKN,9000,,,VFR,,,,,,0.005,,,,,,SPECI,264.0
KPHN 050815Z AUTO 20007G14KT 10SM SCT075 SCT100 BKN120 22/16 A2991 RMK AO2,KPHN,2022-07-05T08:15:00Z,42.92,-82.52,22.0,16.0,200,7,14,10.0,29.911417,,,TRUE,TRUE,,,,,,,SCT,7500,SCT,10000,BKN,12000,,,VFR,,,,,,,,,,,,METAR,195.0
KPTK 050813Z AUTO 24003KT 3SM +TSRA BR SCT055 BKN085 OVC110 20/18 A2991 RMK AO2 LTG DSNT SE AND S TSB07 P0004 T02000183,KPTK,2022-07-05T08:13:00Z,42.67,-83.42,20.0,18.3,240,3,,3.0,29.911417,,,TRUE,TRUE,,,,,,+TSRA BR,SCT,5500,BKN,8500,OVC,11000,,,MVFR,,,,,,0.04,,,,,,METAR,295.0
KLAN 050753Z 18008KT 8SM -RA OVC046 21/19 A2989 RMK AO2 LTG DSNT E RAE12B45 TSE0659 SLP115 P0008 T02060189,KLAN,2022-07-05T07:53:00Z,42.78,-84.58,20.6,18.9,180,8,,8.0,29.890747,1011.5,,,TRUE,,,,,,-RA,OVC,4600,,,,,,,VFR,,,,,,0.08,,,,,,METAR,261.0
KGRR 050753Z AUTO 20007KT 10SM BKN026 OVC032 22/21 A2987 RMK AO2 SLP108 T02170211 $,KGRR,2022-07-05T07:53:00Z,42.88,-85.52,21.7,21.1,200,7,,10.0,29.870079,1010.8,,TRUE,TRUE,TRUE,,,,,,BKN,2600,OVC,3200,,,,,MVFR,,,,,,,,,,,,METAR,239.0
KDTW 050753Z 13008KT 4SM TSRA BR SCT012 BKN045CB OVC075 21/19 A2992 RMK AO2 LTG DSNT NE AND SW AND W SLP124 FRQ LTGICCCCG ALQDS AND OHD TS ALQDS AND OHD MOV E P0020 T02110189 $,KDTW,2022-07-05T07:53:00Z,42.23,-83.33,21.1,18.9,130,8,,4.0,29.920275,1012.4,,,TRUE,TRUE,,,,,TSRA BR,SCT,1200,BKN,4500,OVC,7500,,,MVFR,,,,,,0.2,,,,,,METAR,192.0
