KBAX 052236Z AUTO 02008KT 10SM SCT120 04/M06 A3001 RMK AO2 T00441057,KBAX,2020-05-05T22:36:00Z,43.78,-82.98,4.4,-5.7,20,8,,10.0,30.008858,,,TRUE,TRUE,,,,,,,SCT,12000,,,,,,,VFR,,,,,,,,,,,,METAR,234.0
KTTF 052235Z 36010KT 2SM -RA BKN010 OVC014 08/06 A3002 RMK AO2 CIG 006V012 P0000 T00780061,KTTF,2020-05-05T22:35:00Z,41.93,-83.42,7.8,6.1,360,10,,2.0,30.02067,,,,TRUE,,,,,,+RA,BKN,1000,OVC,1400,,,,,MVFR,,,,,,0.005,,,,,,SPECI,295.0
KPHN 052235Z AUTO 36009KT 10SM CLR 05/M02 A2998 RMK AO2,KPHN,2020-05-05T22:35:00Z,42.92,-82.52,5.0,-2.0,360,9,,10.0,29.97933,,,TRUE,TRUE,,,,,,,CLR,,,,,,,,VFR,,,,,,,,,,,,METAR,198.0
KCIU 052156Z AUTO 36011KT 10SM CLR 09/M07 A3004 RMK AO2 SLP177 T00941072,KCIU,2020-05-05T21:56:00Z,46.25,-84.47,9.4,-7.2,360,11,,10.0,30.041338,1017.7,,TRUE,TRUE,,,,,,,CLR,,,,,,,,VFR,,,,,,,,,,,,METAR,244.0
KMBL 052156Z AUTO VRB05KT 10SM CLR 11/M01 A2999 RMK AO2 SLP160 T01061006,KMBL,2020-05-05T21:56:00Z,44.27,-86.25,10.6,-0.6,0,5,,10.0,29.991142,1016.0,,TRUE,TRUE,,,,,,,CLR,,,,,,,,VFR,,,,,,,,,,,,METAR,189.0
KJXN 052156Z 36006KT 10SM OVC070 10/M06 A2994 RMK AO2 SLP142 T01001061,KJXN,2020-05-05T21:56:00Z,42.27,-84.47,10.0,-6.1,360,6,,10.0,29.940945,1014.2,,,TRUE,,,,,,,OVC,7000,,,,,,,VFR,,,,,,,,,,,,METAR,305.0
KMKG 052155Z VRB06KT 10SM BKN150 14/M05 A2997 RMK AO2 SLP150 T01391050,KMKG,2020-05-05T21:55:00Z,43.17,-86.23,13.9,-5.0,0,6,,10.0,29.970472,1015.0,,,TRUE,,,,,,,BKN,15000,,,,,,,VFR,,,,,,,,,,,,METAR,191.0
KMTC 052155Z 04012KT 10SM BKN120 OVC230 09/M03 A2994 RMK AO2A SLP150 SLP ESTMD T00911028 $,KMTC,2020-05-05T21:55:00Z,42.62,-82.82,9.1,-2.8,40,12,,10.0,29.940945,1015.0,,,TRUE,TRUE,,,,,,BKN,12000,OVC,23000,,,,,VFR,,,,,,,,,,,,METAR,177.0
KSBN 052154Z 03008KT 10SM OVC080 09/M02 A2996 RMK AO2 SLP147 T00891017,KSBN,2020-05-05T21:54:00Z,41.7,-86.32,8.9,-1.7,30,8,,10.0,29.958662,1014.7,,,TRUE,,,,,,,OVC,8000,,,,,,,VFR,,,,,,,,,,,,METAR,237.0
KPLN 052154Z AUTO 10004KT 10SM CLR 09/M15 A3005 RMK AO2 SLP184 T00891150,KPLN,2020-05-05T21:54:00Z,45.57,-84.8,8.9,-15.0,100,4,,10.0,30.050198,1018.4,,TRUE,TRUE,,,,,,,CLR,,,,,,,,VFR,,,,,,,,,,,,METAR,217.0
KBTL 052153Z 06005KT 10SM OVC080 10/M03 A2995 RMK AO2 SLP146 T01001028,KBTL,2020-05-05T21:53:00Z,42.32,-85.23,10.0,-2.8,60,5,,10.0,29.949802,1014.6,,,TRUE,,,,,,,OVC,8000,,,,,,,VFR,,,,,,,,,,,,METAR,290.0
KGRR 052153Z 05011KT 10SM BKN120 OVC250 12/M03 A2996 RMK AO2 SLP147 T01171033,KGRR,2020-05-05T21:53:00Z,42.88,-85.52,11.7,-3.3,50,11,,10.0,29.958662,1014.7,,,TRUE,,,,,,,BKN,12000,OVC,25000,,,,,VFR,,,,,,,,,,,,METAR,237.0
KLAN 052153Z 04010KT 10SM CLR 11/M02 A2996 RMK AO2 SLP151 T01061017,KLAN,2020-05-05T21:53:00Z,42.78,-84.58,10.6,-1.7,40,10,,10.0,29.958662,1015.1,,,TRUE,,,,,,,CLR,,,,,,,,VFR,,,,,,,,,,,,METAR,264.0
KAZO 052153Z 04004KT 10SM OVC070 10/M05 A2996 RMK AO2 SLP150 T01001050,KAZO,2020-05-05T21:53:00Z,42.23,-85.55,10.0,-5.0,40,4,,10.0,29.958662,1015.0,,,TRUE,,,,,,,OVC,7000,,,,,,,VFR,,,,,,,,,,,,METAR,272.0
KDTW 052153Z 02009KT 10SM OVC110 11/M06 A2993 RMK AO2 SLP137 T01061061,KDTW,2020-05-05T21:53:00Z,42.23,-83.33,10.6,-6.1,20,9,,10.0,29.929134,1013.7,,,TRUE,,,,,,,OVC,11000,,,,,,,VFR,,,,,,,,,,,,METAR,195.0
KYIP 052153Z 03011KT 10SM OVC090 12/M06 A2993 RMK AO2 SLP134 T01171061,KYIP,2020-05-05T21:53:00Z,42.23,-83.53,11.7,-6.1,30,11,,10.0,29.929134,1013.4,,,TRUE,,,,,,,OVC,9000,,,,,,,VFR,,,,,,,,,,,,METAR,215.0
KFNT 052153Z 04012KT 10SM CLR 12/M05 A2996 RMK AO2 SLP148 T01171050,KFNT,2020-05-05T21:53:00Z,42.97,-83.75,11.7,-5.0,40,12,,10.0,29.958662,1014.8,,,TRUE,,,,,,,CLR,,,,,,,,VFR,,,,,,,,,,,,METAR,233.0
KMBS 052153Z AUTO 04014KT 10SM CLR 07/M06 A3002 RMK AO2 SLP172 T00721061,KMBS,2020-05-05T21:53:00Z,43.53,-84.08,7.2,-6.1,40,14,,10.0,30.02067,1017.2,,TRUE,TRUE,,,,,,,CLR,,,,,,,,VFR,,,,,,,,,,,,METAR,202.0
KDEN 052153Z 06012G17KT 10SM FEW090 FEW140 BKN220 21/M06 A3017 RMK AO2 SLP184 T02061056,KDEN,2020-05-05T21:53:00Z,39.85,-104.65,20.6,-5.6,60,12,17,10.0,30.171259,1018.4,,,TRUE,,,,,,,FEW,9000,FEW,14000,BKN,22000,,,VFR,,,,,,,,,,,,METAR,1640.0
KTVC 052153Z 01008KT 10SM OVC250 09/M04 A3002 RMK AO2 SLP169 T00941039,KTVC,2020-05-05T21:53:00Z,44.73,-85.57,9.4,-3.9,10,8,,10.0,30.02067,1016.9,,,TRUE,,,,,,,OVC,25000,,,,,,,VFR,,,,,,,,,,,,METAR,190.0
KGLR 052153Z AUTO 02008KT 10SM CLR 10/M11 A3001 RMK AO2 SLP173 T01001111,KGLR,2020-05-05T21:53:00Z,45.02,-84.68,10.0,-11.1,20,8,,10.0,30.008858,1017.3,,TRUE,TRUE,,,,,,,CLR,,,,,,,,VFR,,,,,,,,,,,,METAR,407.0
KCID 052152Z 09011KT 10SM -RA FEW015 BKN041 OVC060 08/07 A2995 RMK AO2 SLP148 P0001 T00830067,KCID,2020-05-05T21:52:00Z,41.88,-91.72,8.3,6.7,90,11,,10.0,29.949802,1014.8,,,TRUE,,,,,,-RA,FEW,1500,BKN,4100,OVC,6000,,,VFR,,,,,,0.01,,,,,,METAR,264.0
KORD 052151Z 04010KT 10SM FEW020 BKN055 OVC070 08/00 A2998 RMK AO2 SLP154 T00830000,KORD,2020-05-05T21:51:00Z,41.98,-87.93,8.3,0.0,40,10,,10.0,29.97933,1015.4,,,TRUE,,,,,,,FEW,2000,BKN,5500,OVC,7000,,,VFR,,,,,,,,,,,,METAR,200.0
