No errors
No warnings
526 ms
data source=metars
4688 results
raw_text,station_id,observation_time,latitude,longitude,temp_c,dewpoint_c,wind_dir_degrees,wind_speed_kt,wind_gust_kt,visibility_statute_mi,altim_in_hg,sea_level_pressure_mb,corrected,auto,auto_station,maintenance_indicator_on,no_signal,lightning_sensor_off,freezing_rain_sensor_off,present_weather_sensor_off,wx_string,sky_cover,cloud_base_ft_agl,sky_cover,cloud_base_ft_agl,sky_cover,cloud_base_ft_agl,sky_cover,cloud_base_ft_agl,flight_category,three_hr_pressure_tendency_mb,maxT_c,minT_c,maxT24hr_c,minT24hr_c,precip_in,pcp3hr_in,pcp6hr_in,pcp24hr_in,snow_in,vert_vis_ft,metar_type,elevation_m
KMYP 052237Z AUTO 26038G45KT 10SM CLR 08/M18 A3055 RMK AO2 LTG DSNT N,KMYP,2020-05-05T22:37:00Z,38.48,-106.32,8.0,-18.0,260,38,45,10.0,30.549213,,,TRUE,TRUE,,,,,,,CLR,,,,,,,,VFR,,,,,,,,,,,,METAR,3667.0
KJMR 052236Z AUTO 35003KT 10SM BKN070 13/M01 A3006 RMK AO2 LTG DSNT W,KJMR,2020-05-05T22:36:00Z,45.88,-93.27,13.0,-1.0,350,3,,10.0,30.059055,,,TRUE,TRUE,,,,,,,BKN,7000,,,,,,,VFR,,,,,,,,,,,,METAR,309.0
KFSO 052236Z AUTO 36004KT 10SM OVC060 11/M02 A2992 RMK AO2 T01081023,KFSO,2020-05-05T22:36:00Z,44.93,-73.1,10.8,-2.3,360,4,,10.0,29.920275,,,TRUE,TRUE,,,,,,,OVC,6000,,,,,,,VFR,,,,,,,,,,,,METAR,70.0
KMQJ 052236Z AUTO 05008KT 10SM OVC044 07/04 A2989 RMK AO1,KMQJ,2020-05-05T22:36:00Z,39.85,-85.9,7.0,4.0,50,8,,10.0,29.890747,,,TRUE,TRUE,,,,,,,OVC,4400,,,,,,,VFR,,,,,,,,,,,,METAR,263.0
KMOP 052236Z AUTO 06007KT 10SM CLR 09/M04 A2999 RMK AO2 T00941045,KMOP,2020-05-05T22:36:00Z,43.62,-84.73,9.4,-4.5,60,7,,10.0,29.991142,,,TRUE,TRUE,,,,,,,CLR,,,,,,,,VFR,,,,,,,,,,,,METAR,230.0
KHNB 052236Z AUTO 29011KT 10SM OVC015 12/11 A2990 RMK AO2,KHNB,2020-05-05T22:36:00Z,38.25,-86.95,12.0,11.0,290,11,,10.0,29.899607,,,TRUE,TRUE,,,,,,,OVC,1500,,,,,,,MVFR,,,,,,,,,,,,SPECI,161.0
K4BM 052236Z AUTO 30005KT 10SM CLR 10/M21 A3046 RMK AO2,K4BM,2020-05-05T22:36:00Z,39.05,-105.52,10.0,-21.0,300,5,,10.0,30.46063,,,TRUE,TRUE,,,,,,,CLR,,,,,,,,VFR,,,,,,,,,,,,METAR,3438.0
KC07 052236Z AUTO 29006G16KT 10SM CLR 06/M08 A3043 RMK AO2,KC07,2020-05-05T22:36:00Z,40.35,-106.7,6.0,-8.0,290,6,16,10.0,30.431103,,,TRUE,TRUE,,,,,,,CLR,,,,,,,,VFR,,,,,,,,,,,,METAR,3224.0
KONA 052236Z AUTO 00000KT 10SM BKN120 12/02 A3003 RMK AO2 LTG DSNT W,KONA,2020-05-05T22:36:00Z,44.07,-91.7,12.0,2.0,0,0,,10.0,30.029528,,,TRUE,TRUE,,,,,,,BKN,12000,,,,,,,VFR,,,,,,,,,,,,METAR,200.0
KCCU 052236Z AUTO 28015KT 10SM CLR 07/M13 A3048 RMK AO2 LTG DSNT E,KCCU,2020-05-05T22:36:00Z,39.48,-106.15,7.0,-13.0,280,15,,10.0,30.481298,,,TRUE,TRUE,,,,,,,CLR,,,,,,,,VFR,,,,,,,,,,,,METAR,3680.0
KOSC 052236Z AUTO 05008KT 10SM CLR 04/M08 A3004 RMK AO2 T00391084,KOSC,2020-05-05T22:36:00Z,44.45,-83.4,3.9,-8.4,50,8,,10.0,30.041338,,,TRUE,TRUE,,,,,,,CLR,,,,,,,,VFR,,,,,,,,,,,,METAR,193.0
KOWX 052236Z AUTO 05010KT 10SM OVC038 07/M03 A2992 RMK AO1,KOWX,2020-05-05T22:36:00Z,41.03,-83.98,7.0,-3.0,50,10,,10.0,29.920275,,,TRUE,TRUE,,,,,,,OVC,3800,,,,,,,VFR,,,,,,,,,,,,METAR,233.0
KPOV 052236Z AUTO 04009G14KT 10SM BKN080 BKN100 09/M02 A2983 RMK AO2 T00891019 PWINO,KPOV,2020-05-05T22:36:00Z,41.22,-81.25,8.9,-1.9,40,9,14,10.0,29.828741,,,TRUE,TRUE,,,,,TRUE,,BKN,8000,BKN,10000,,,,,VFR,,,,,,,,,,,,METAR,365.0
KRGK 052236Z AUTO 00000KT 10SM SCT120 14/M11 A3003 RMK AO2 LTG DSNT W,KRGK,2020-05-05T22:36:00Z,44.58,-92.48,14.0,-11.0,0,0,,10.0,30.029528,,,TRUE,TRUE,,,,,,,SCT,12000,,,,,,,VFR,,,,,,,,,,,,METAR,239.0
KROX 052236Z AUTO 28008KT 10SM SCT075 15/02 A3010 RMK AO2 TSNO,KROX,2020-05-05T22:36:00Z,48.85,-95.7,15.0,2.0,280,8,,10.0,30.100393,,,TRUE,TRUE,,,TRUE,,,,SCT,7500,,,,,,,VFR,,,,,,,,,,,,METAR,323.0
KRQB 052236Z AUTO 07008KT 10SM SCT120 10/M11 A2998 RMK AO2 T01011110,KRQB,2020-05-05T22:36:00Z,43.72,-85.5,10.1,-11.0,70,8,,10.0,29.97933,,,TRUE,TRUE,,,,,,,SCT,12000,,,,,,,VFR,,,,,,,,,,,,METAR,302.0
KRZT 052236Z AUTO 02006KT 10SM SCT007 OVC037 06/05 A2983 RMK AO2 PWINO,KRZT,2020-05-05T22:36:00Z,39.43,-83.02,6.0,5.0,20,6,,10.0,29.828741,,,TRUE,TRUE,,,,,TRUE,,SCT,700,OVC,3700,,,,,VFR,,,,,,,,,,,,METAR,221.0
KSLH 052236Z AUTO 00000KT 10SM CLR 09/M12 A3003 RMK AO2 T00881123,KSLH,2020-05-05T22:36:00Z,45.65,-84.52,8.8,-12.3,0,0,,10.0,30.029528,,,TRUE,TRUE,,,,,,,CLR,,,,,,,,VFR,,,,,,,,,,,,METAR,195.0
KSJX 052236Z AUTO 00000KT 10SM CLR 10/M14 A3005 RMK AO2 T00981141,KSJX,2020-05-05T22:36:00Z,45.7,-85.57,9.8,-14.1,0,0,,10.0,30.050198,,,TRUE,TRUE,,,,,,,CLR,,,,,,,,VFR,,,,,,,,,,,,METAR,204.0
KSQI 052236Z 06014KT 10SM -RA BKN017 BKN022 OVC032 08/06 A2999 RMK AO2 P0000,KSQI,2020-05-05T22:36:00Z,41.75,-89.67,8.0,6.0,60,14,,10.0,29.991142,,,,TRUE,,,,,,-RA,BKN,1700,BKN,2200,OVC,3200,,,MVFR,,,,,,0.005,,,,,,SPECI,197.0
KTEW 052236Z AUTO 06007KT 10SM OVC100 10/M07 A2994 RMK AO2 T00971071,KTEW,2020-05-05T22:36:00Z,42.57,-84.42,9.7,-7.1,60,7,,10.0,29.940945,,,TRUE,TRUE,,,,,,,OVC,10000,,,,,,,VFR,,,,,,,,,,,,METAR,280.0
KVLL 052236Z AUTO 02008G16KT 350V050 10SM OVC120 10/M07 A2995 RMK AO2 T01001066,KVLL,2020-05-05T22:36:00Z,42.55,-83.18,10.0,-6.6,20,8,16,10.0,29.949802,,,TRUE,TRUE,,,,,,,OVC,12000,,,,,,,VFR,,,,,,,,,,,,METAR,222.0
KVVV 052236Z AUTO 33007KT 10SM VCTSDZ OVC040 07/06 A3012 RMK AO2 LTG DSNT W,KVVV,2020-05-05T22:36:00Z,45.3,-96.42,7.0,6.0,330,7,,10.0,30.121063,,,TRUE,TRUE,,,,,,VCTSDZ,OVC,4000,,,,,,,VFR,,,,,,,,,,,,METAR,335.0
KJYG 052236Z 31011KT 10SM 10/07 A3007 RMK AO2 LTG DSNT W PWINO,KJYG,2020-05-05T22:36:00Z,43.98,-94.55,10.0,7.0,310,11,,10.0,30.070866,,,,TRUE,,,,,TRUE,,,,,,,,,,,,,,,,,,,,,,METAR,325.0
KY31 052236Z AUTO 14004KT 10SM CLR 08/M04 A3000 RMK AO2 T00801044,KY31,2020-05-05T22:36:00Z,44.25,-84.18,8.0,-4.4,140,4,,10.0,30.0,,,TRUE,TRUE,,,,,,,CLR,,,,,,,,VFR,,,,,,,,,,,,METAR,269.0
K4I3 052236Z AUTO 03004KT 10SM OVC065 09/M00 A2984 RMK AO2,K4I3,2020-05-05T22:36:00Z,40.33,-82.53,9.0,0.0,30,4,,10.0,29.840551,,,TRUE,TRUE,,,,,,,OVC,6500,,,,,,,VFR,,,,,,,,,,,,METAR,363.0
KAXV 052236Z AUTO 03012G17KT 10SM -DZ SCT029 BKN041 OVC060 05/01 A2988 RMK AO2,KAXV,2020-05-05T22:36:00Z,40.5,-84.3,5.0,1.0,30,12,17,10.0,29.878937,,,TRUE,TRUE,,,,,,-DZ,SCT,2900,BKN,4100,OVC,6000,,,VFR,,,,,,,,,,,,METAR,279.0
KAUM 052236Z AUTO 06005KT 10SM -DZ SCT038 OVC045 11/05 A3005 RMK AO2 LTG DSNT W,KAUM,2020-05-05T22:36:00Z,43.67,-92.92,11.0,5.0,60,5,,10.0,30.050198,,,TRUE,TRUE,,,,,,-DZ,SCT,3800,OVC,4500,,,,,VFR,,,,,,,,,,,,METAR,375.0
KBAX 052236Z AUTO 02008KT 10SM SCT120 04/M06 A3001 RMK AO2 T00441057,KBAX,2020-05-05T22:36:00Z,43.78,-82.98,4.4,-5.7,20,8,,10.0,30.008858,,,TRUE,TRUE,,,,,,,SCT,12000,,,,,,,VFR,,,,,,,,,,,,METAR,234.0
KBJI 052236Z AUTO 33009KT 10SM SCT065 SCT095 14/M02 A3007 RMK AO2 LTG DSNT SW T01431019,KBJI,2020-05-05T22:36:00Z,47.5,-94.92,14.3,-1.9,330,9,,10.0,30.070866,,,TRUE,TRUE,,,,,,,SCT,6500,SCT,9500,,,,,VFR,,,,,,,,,,,,METAR,420.0
KI23 052236Z AUTO 11006KT 10SM BKN037 08/03 A2982 RMK AO1,KI23,2020-05-05T22:36:00Z,39.57,-83.42,8.0,3.0,110,6,,10.0,29.819881,,,TRUE,TRUE,,,,,,,BKN,3700,,,,,,,VFR,,,,,,,,,,,,METAR,299.0
KCKC 052236Z AUTO 15003KT 10SM OVC110 09/M18 A3004 RMK AO2 LTG DSNT SW,KCKC,2020-05-05T22:36:00Z,47.83,-90.37,9.0,-18.0,150,3,,10.0,30.041338,,,TRUE,TRUE,,,,,,,OVC,11000,,,,,,,VFR,,,,,,,,,,,,METAR,548.0
KCFE 052236Z 10SM SCT120 15/M06 A3005 RMK AO2 LTG DSNT W T01471064,KCFE,2020-05-05T22:36:00Z,45.17,-93.85,14.7,-6.4,,,,10.0,30.050198,,,,TRUE,,,,,,,SCT,12000,,,,,,,VFR,,,,,,,,,,,,METAR,295.0
KCOQ 052236Z AUTO 10007KT 10SM BKN095 10/M04 A3007 RMK AO2 TSNO,KCOQ,2020-05-05T22:36:00Z,46.7,-92.5,10.0,-4.0,100,7,,10.0,30.070866,,,TRUE,TRUE,,,TRUE,,,,BKN,9500,,,,,,,VFR,,,,,,,,,,,,METAR,390.0
KCNB 052236Z AUTO 28007KT 10SM SCT011 BKN030 OVC035 08/06 A3013 RMK AO2 LTG DSNT W T00830063,KCNB,2020-05-05T22:36:00Z,44.73,-96.27,8.3,6.3,280,7,,10.0,30.129921,,,TRUE,TRUE,,,,,,,SCT,1100,BKN,3000,OVC,3500,,,MVFR,,,,,,,,,,,,METAR,364.0
KDTL 052236Z AUTO 32006KT 10SM CLR 10/05 A3011 RMK AO2 LTG DSNT SW,KDTL,2020-05-05T22:36:00Z,46.82,-95.87,10.0,5.0,320,6,,10.0,30.109253,,,TRUE,TRUE,,,,,,,CLR,,,,,,,,VFR,,,,,,,,,,,,METAR,426.0
KDUH 052236Z AUTO 09004KT 10SM OVC100 09/00 A2992 RMK AO2 T00850002,KDUH,2020-05-05T22:36:00Z,41.73,-83.65,8.5,0.2,90,4,,10.0,29.920275,,,TRUE,TRUE,,,,,,,OVC,10000,,,,,,,VFR,,,,,,,,,,,,METAR,204.0
KDYT 052236Z AUTO 01003KT 10SM 04/01 A3010 RMK AO2 LTG DSNT SW,KDYT,2020-05-05T22:36:00Z,46.72,-92.03,4.0,1.0,10,3,,10.0,30.100393,,,TRUE,TRUE,,,,,,,,,,,,,,,,,,,,,,,,,,,METAR,186.0
KFFM 052236Z AUTO 33009KT 10SM SCT014 BKN019 10/07 A3010 RMK AO2 LTG DSNT SW,KFFM,2020-05-05T22:36:00Z,46.28,-96.15,10.0,7.0,330,9,,10.0,30.100393,,,TRUE,TRUE,,,,,,,SCT,1400,BKN,1900,,,,,MVFR,,,,,,,,,,,,METAR,361.0
KFKA 052236Z AUTO 07004KT 10SM SCT009 SCT012 08/03 A3005 RMK AO2 LTG DSNT W T00810031,KFKA,2020-05-05T22:36:00Z,43.68,-92.17,8.1,3.1,70,4,,10.0,30.050198,,,TRUE,TRUE,,,,,,,SCT,900,SCT,1200,,,,,VFR,,,,,,,,,,,,METAR,389.0
KJKJ 052236Z AUTO 32006KT 5SM DZ BKN010 BKN015 OVC021 09/06 A3014 RMK AO2 LTG DSNT SW,KJKJ,2020-05-05T22:36:00Z,46.83,-96.67,9.0,6.0,320,6,,5.0,30.138779,,,TRUE,TRUE,,,,,,DZ,BKN,1000,BKN,1500,OVC,2100,,,MVFR,,,,,,,,,,,,METAR,280.0
KFSE 052236Z AUTO 00000KT 10SM SCT050 SCT055 BKN070 10/M03 A3012 RMK AO2 LTG DSNT SW,KFSE,2020-05-05T22:36:00Z,47.58,-95.77,10.0,-3.0,0,0,,10.0,30.121063,,,TRUE,TRUE,,,,,,,SCT,5000,SCT,5500,BKN,7000,,,VFR,,,,,,,,,,,,METAR,389.0
KPSK 052235Z AUTO 11004KT 10SM OVC010 11/10 A2984 RMK AO2 T01060096,KPSK,2020-05-05T22:35:00Z,37.12,-80.67,10.6,9.6,110,4,,10.0,29.840551,,,TRUE,TRUE,,,,,,,OVC,1000,,,,,,,MVFR,,,,,,,,,,,,METAR,642.0
KPGV 052235Z AUTO 08008KT 10SM SCT043 SCT048 18/12 A2987 RMK AO2,KPGV,2020-05-05T22:35:00Z,35.62,-77.4,18.0,12.0,80,8,,10.0,29.870079,,,TRUE,TRUE,,,,,,,SCT,4300,SCT,4800,,,,,VFR,,,,,,,,,,,,METAR,8.0
KPDC 052235Z AUTO 01004KT 10SM -DZ OVC043 10/04 A3002 RMK AO2 T00960037,KPDC,2020-05-05T22:35:00Z,43.02,-91.12,9.6,3.7,10,4,,10.0,30.02067,,,TRUE,TRUE,,,,,,-DZ,OVC,4300,,,,,,,VFR,,,,,,,,,,,,METAR,201.0
KPCZ 052235Z AUTO 10SM CLR 13/M05 A3003 RMK AO2 T01301050,KPCZ,2020-05-05T22:35:00Z,44.33,-89.02,13.0,-5.0,,,,10.0,30.029528,,,TRUE,TRUE,,,,,,,CLR,,,,,,,,VFR,,,,,,,,,,,,METAR,252.0
KMBO 052235Z AUTO 34008KT 10SM SCT034 SCT060 25/18 A2993 RMK AO2 PWINO,KMBO,2020-05-05T22:35:00Z,32.43,-90.1,25.0,18.0,340,8,,10.0,29.929134,,,TRUE,TRUE,,,,,TRUE,,SCT,3400,SCT,6000,,,,,VFR,,,,,,,,,,,,METAR,99.0
KLUA 052235Z AUTO 00000KT 10SM RA SCT007 SCT010 OVC045 10/09 A2985 RMK AO2,KLUA,2020-05-05T22:35:00Z,38.67,-78.5,10.0,9.0,0,0,,10.0,29.84941,,,TRUE,TRUE,,,,,,RA,SCT,700,SCT,1000,OVC,4500,,,VFR,,,,,,,,,,,,METAR,275.0
KLDJ 052235Z AUTO 00000KT 10SM CLR 16/M08 A2985 RMK AO2 T01621082,KLDJ,2020-05-05T22:35:00Z,40.62,-74.25,16.2,-8.2,0,0,,10.0,29.84941,,,TRUE,TRUE,,,,,,,CLR,,,,,,,,VFR,,,,,,,,,,,,METAR,7.0
KJFZ 052235Z AUTO 25007KT 10SM OVC012 A2977 RMK AO2,KJFZ,2020-05-05T22:35:00Z,37.07,-81.8,,,250,7,,10.0,29.769686,,,TRUE,TRUE,,,,,,,OVC,1200,,,,,,,MVFR,,,,,,,,,,,,METAR,809.0
KIPJ 052235Z AUTO 00000KT 10SM -RA OVC015 16/13 A2982 RMK AO2 T01610125,KIPJ,2020-05-05T22:35:00Z,35.48,-81.17,16.1,12.5,0,0,,10.0,29.819881,,,TRUE,TRUE,,,,,,-RA,OVC,1500,,,,,,,MVFR,,,,,,,,,,,,SPECI,267.0
KI68 052235Z AUTO 01006KT 10SM OVC045 11/03 A2984 RMK AO1 T01060030,KI68,2020-05-05T22:35:00Z,39.47,-84.25,10.6,3.0,10,6,,10.0,29.840551,,,TRUE,TRUE,,,,,,,OVC,4500,,,,,,,VFR,,,,,,,,,,,,SPECI,274.0
KHRJ 052235Z AUTO 00000KT 10SM CLR 23/15 A2980 RMK AO2 T02300151,KHRJ,2020-05-05T22:35:00Z,35.38,-78.73,23.0,15.1,0,0,,10.0,29.799213,,,TRUE,TRUE,,,,,,,CLR,,,,,,,,VFR,,,,,,,,,,,,SPECI,60.0
KHNR 052235Z AUTO 35015KT 10SM SCT021 OVC026 10/06 A3008 RMK AO2 PWINO,KHNR,2020-05-05T22:35:00Z,41.58,-95.33,10.0,6.0,350,15,,10.0,30.079725,,,TRUE,TRUE,,,,,TRUE,,SCT,2100,OVC,2600,,,,,MVFR,,,,,,,,,,,,SPECI,375.0
KHAE 052235Z AUTO 35006KT 10SM SCT055 BKN075 OVC090 15/07 A2992 RMK AO2 LTG DSNT NW,KHAE,2020-05-05T22:35:00Z,39.73,-91.45,15.0,7.0,350,6,,10.0,29.920275,,,TRUE,TRUE,,,,,,,SCT,5500,BKN,7500,OVC,9000,,,VFR,,,,,,,,,,,,SPECI,234.0
KGWW 052235Z AUTO 03005KT 10SM BKN050 21/15 A2982 RMK AO2 T02140153,KGWW,2020-05-05T22:35:00Z,35.47,-77.97,21.4,15.3,30,5,,10.0,29.819881,,,TRUE,TRUE,,,,,,,BKN,5000,,,,,,,VFR,,,,,,,,,,,,SPECI,41.0
KGEV 052235Z AUTO 13003KT 10SM SCT034 BKN041 BKN050 14/12 A2982 RMK AO2 T01380123,KGEV,2020-05-05T22:35:00Z,36.43,-81.42,13.8,12.3,130,3,,10.0,29.819881,,,TRUE,TRUE,,,,,,,SCT,3400,BKN,4100,BKN,5000,,,VFR,,,,,,,,,,,,SPECI,969.0
KD25 052235Z AUTO 35003KT 10SM CLR 12/M10 A3003 RMK AO2 LTG DSNT W T01201096,KD25,2020-05-05T22:35:00Z,46.12,-89.88,12.0,-9.6,350,3,,10.0,30.029528,,,TRUE,TRUE,,,,,,,CLR,,,,,,,,VFR,,,,,,,,,,,,SPECI,491.0
KCFJ 052235Z AUTO 06008KT 10SM OVC031 06/02 A2992 RMK AO2 LTG DSNT W T00610019,KCFJ,2020-05-05T22:35:00Z,39.98,-86.92,6.1,1.9,60,8,,10.0,29.920275,,,TRUE,TRUE,,,,,,,OVC,3100,,,,,,,VFR,,,,,,,,,,,,SPECI,244.0
KCCY 052235Z AUTO 02008KT 10SM OVC050 08/06 A3004 RMK AO2,KCCY,2020-05-05T22:35:00Z,43.07,-92.62,8.0,6.0,20,8,,10.0,30.041338,,,TRUE,TRUE,,,,,,,OVC,5000,,,,,,,VFR,,,,,,,,,,,,SPECI,343.0
KCCA 052235Z AUTO 30012G18KT 10SM CLR 25/02 A2998 RMK AO2,KCCA,2020-05-05T22:35:00Z,35.6,-92.45,25.0,2.0,300,12,18,10.0,29.97933,,,TRUE,TRUE,,,,,,,CLR,,,,,,,,VFR,,,,,,,,,,,,SPECI,157.0
KBCB 052235Z AUTO 11004KT 10SM OVC005 10/10 A2987 RMK AO2 T00960096,KBCB,2020-05-05T22:35:00Z,37.22,-80.42,9.6,9.6,110,4,,10.0,29.870079,,,TRUE,TRUE,,,,,,,OVC,500,,,,,,,IFR,,,,,,,,,,,,METAR,650.0
KASJ 052235Z AUTO 09003KT 10SM SCT036 OVC044 15/09 A2988 RMK AO2 T01520091,KASJ,2020-05-05T22:35:00Z,36.28,-77.17,15.2,9.1,90,3,,10.0,29.878937,,,TRUE,TRUE,,,,,,,SCT,3600,OVC,4400,,,,,VFR,,,,,,,,,,,,SPECI,21.0
KALM 052235Z AUTO 21013G18KT 10SM CLR 28/02 A3012 RMK AO2,KALM,2020-05-05T22:35:00Z,32.82,-105.97,28.0,2.0,210,13,18,10.0,30.121063,,,TRUE,TRUE,,,,,,,CLR,,,,,,,,VFR,,,,,,,,,,,,SPECI,1279.0
KAFP 052235Z AUTO 00000KT 10SM CLR 23/18 A2978 RMK AO2 T02310183,KAFP,2020-05-05T22:35:00Z,35.02,-80.08,23.1,18.3,0,0,,10.0,29.778543,,,TRUE,TRUE,,,,,,,CLR,,,,,,,,VFR,,,,,,,,,,,,SPECI,92.0
K24A 052235Z AUTO 13008KT 7SM TSBR SCT001 SCT050 OVC110 16/16 A2987 RMK AO2 LTG DSNT ALQDS P0003 T01620157,K24A,2020-05-05T22:35:00Z,35.32,-83.2,16.2,15.7,130,8,,7.0,29.870079,,,TRUE,TRUE,,,,,,TS BR,SCT,100,SCT,5000,OVC,11000,,,VFR,,,,,,0.03,,,,,,SPECI,871.0
K1P1 052235Z AUTO 35008G17KT 10SM BKN048 BKN055 08/M02 A2991 RMK AO2 T00821022,K1P1,2020-05-05T22:35:00Z,43.78,-71.75,8.2,-2.2,350,8,17,10.0,29.911417,,,TRUE,TRUE,,,,,,,BKN,4800,BKN,5500,,,,,VFR,,,,,,,,,,,,SPECI,154.0
KRVL 052235Z AUTO 00000KT 10SM FEW120 14/M05 A2985 RMK AO2,KRVL,2020-05-05T22:35:00Z,40.68,-77.63,14.0,-5.0,0,0,,10.0,29.84941,,,TRUE,TRUE,,,,,,,FEW,12000,,,,,,,VFR,,,,,,,,,,,,METAR,250.0
KRUG 052235Z AUTO 06004KT 10SM SCT047 BKN055 BKN070 13/03 A3017 RMK AO2 LTG DSNT S,KRUG,2020-05-05T22:35:00Z,48.38,-100.02,13.0,3.0,60,4,,10.0,30.171259,,,TRUE,TRUE,,,,,,,SCT,4700,BKN,5500,BKN,7000,,,VFR,,,,,,,,,,,,METAR,472.0
KPTS 052235Z AUTO 33007G15KT 10SM CLR 21/06 A3003 RMK AO2 LTG DSNT NW T02130062,KPTS,2020-05-05T22:35:00Z,37.45,-94.73,21.3,6.2,330,7,15,10.0,30.029528,,,TRUE,TRUE,,,,,,,CLR,,,,,,,,VFR,,,,,,,,,,,,SPECI,290.0
K46D 052235Z AUTO 05014KT 9SM FEW017 BKN047 OVC055 08/06 A3020 RMK AO2 LTG DSNT S,K46D,2020-05-05T22:35:00Z,47.45,-99.15,8.0,6.0,50,14,,9.0,30.200787,,,TRUE,TRUE,,,,,,,FEW,1700,BKN,4700,OVC,5500,,,VFR,,,,,,,,,,,,METAR,490.0
KW63 052235Z AUTO 09004KT 10SM OVC036 15/09 A2984 RMK AO1,KW63,2020-05-05T22:35:00Z,36.6,-78.55,15.0,9.0,90,4,,10.0,29.840551,,,TRUE,TRUE,,,,,,,OVC,3600,,,,,,,VFR,,,,,,,,,,,,SPECI,129.0
KSDC 052235Z AUTO 00000KT 10SM CLR 07/M11 A2998 RMK AO2,KSDC,2020-05-05T22:35:00Z,43.23,-77.12,7.0,-11.0,0,0,,10.0,29.97933,,,TRUE,TRUE,,,,,,,CLR,,,,,,,,VFR,,,,,,,,,,,,METAR,129.0
KRID 052235Z AUTO 02009KT 10SM OVC044 07/01 A2986 RMK AO2,KRID,2020-05-05T22:35:00Z,39.75,-84.85,7.0,1.0,20,9,,10.0,29.861221,,,TRUE,TRUE,,,,,,,OVC,4400,,,,,,,VFR,,,,,,,,,,,,METAR,348.0
KSAR 052235Z AUTO 31004KT 10SM SCT060 SCT080 18/10 A2991 RMK AO2 T01840103,KSAR,2020-05-05T22:35:00Z,38.15,-89.7,18.4,10.3,310,4,,10.0,29.911417,,,TRUE,TRUE,,,,,,,SCT,6000,SCT,8000,,,,,VFR,,,,,,,,,,,,METAR,164.0
KJYM 052235Z AUTO 00000KT 10SM OVC095 08/M04 A2992 RMK AO2 T00841039,KJYM,2020-05-05T22:35:00Z,41.92,-84.58,8.4,-3.9,0,0,,10.0,29.920275,,,TRUE,TRUE,,,,,,,OVC,9500,,,,,,,VFR,,,,,,,,,,,,METAR,360.0
KLDM 052235Z AUTO 34009KT 10SM CLR 08/00 A2999 RMK AO2 T00760000,KLDM,2020-05-05T22:35:00Z,43.97,-86.4,7.6,0.0,340,9,,10.0,29.991142,,,TRUE,TRUE,,,,,,,CLR,,,,,,,,VFR,,,,,,,,,,,,METAR,197.0
KLJF 052235Z AUTO 00000KT 10SM 14/M01 A3006 RMK AO2 LTG DSNT W,KLJF,2020-05-05T22:35:00Z,45.1,-94.52,14.0,-1.0,0,0,,10.0,30.059055,,,TRUE,TRUE,,,,,,,,,,,,,,,,,,,,,,,,,,,METAR,348.0
KS25 052235Z AUTO 01009KT 10SM FEW060 14/M01 A3021 RMK AO2 LTG DSNT SE,KS25,2020-05-05T22:35:00Z,47.8,-103.25,14.0,-1.0,10,9,,10.0,30.209646,,,TRUE,TRUE,,,,,,,FEW,6000,,,,,,,VFR,,,,,,,,,,,,METAR,644.0
KRYW 052235Z AUTO 05007KT 10SM SCT037 OVC048 24/13 A3004 RMK AO2 T02350128,KRYW,2020-05-05T22:35:00Z,30.5,-97.97,23.5,12.8,50,7,,10.0,30.041338,,,TRUE,TRUE,,,,,,,SCT,3700,OVC,4800,,,,,VFR,,,,,,,,,,,,METAR,376.0
KBKS 052235Z AUTO 08011KT 10SM SCT039 SCT047 35/23 A2985 RMK AO1 T03540225,KBKS,2020-05-05T22:35:00Z,27.2,-98.12,35.4,22.5,80,11,,10.0,29.84941,,,TRUE,TRUE,,,,,,,SCT,3900,SCT,4700,,,,,VFR,,,,,,,,,,,,METAR,34.0
K6A2 052235Z AUTO 24005G14KT 10SM CLR 26/16 A2985 RMK AO2 LTG DSNT NE AND NW,K6A2,2020-05-05T22:35:00Z,33.23,-84.27,26.0,16.0,240,5,14,10.0,29.84941,,,TRUE,TRUE,,,,,,,CLR,,,,,,,,VFR,,,,,,,,,,,,METAR,292.0
K6B0 052235Z AUTO 35010G18KT 10SM CLR 10/M02 A2989 RMK AO2 T00961022,K6B0,2020-05-05T22:35:00Z,43.98,-73.1,9.6,-2.2,350,10,18,10.0,29.890747,,,TRUE,TRUE,,,,,,,CLR,,,,,,,,VFR,,,,,,,,,,,,METAR,149.0
K6B9 052235Z AUTO VRB05KT 10SM CLR 07/M12 A2995 RMK AO2,K6B9,2020-05-05T22:35:00Z,42.92,-76.43,7.0,-12.0,0,5,,10.0,29.949802,,,TRUE,TRUE,,,,,,,CLR,,,,,,,,VFR,,,,,,,,,,,,METAR,316.0
KAID 052235Z AUTO 03008KT 10SM BKN027 OVC050 08/03 A2990 RMK AO2 T00750030,KAID,2020-05-05T22:35:00Z,40.12,-85.62,7.5,3.0,30,8,,10.0,29.899607,,,TRUE,TRUE,,,,,,,BKN,2700,OVC,5000,,,,,MVFR,,,,,,,,,,,,SPECI,280.0
KEHO 052235Z AUTO 05006KT 10SM -RA SCT019 SCT038 BKN120 16/14 A2980 RMK AO2 T01550138,KEHO,2020-05-05T22:35:00Z,35.25,-81.6,15.5,13.8,50,6,,10.0,29.799213,,,TRUE,TRUE,,,,,,-RA,SCT,1900,SCT,3800,BKN,12000,,,VFR,,,,,,,,,,,,SPECI,258.0
K6S2 052235Z AUTO 19008KT 10SM BKN010 BKN015 OVC023 14/12 A3014 RMK AO2 T01420118,K6S2,2020-05-05T22:35:00Z,43.98,-124.12,14.2,11.8,190,8,,10.0,30.138779,,,TRUE,TRUE,,,,,,,BKN,1000,BKN,1500,OVC,2300,,,MVFR,,,,,,,,,,,,METAR,16.0
K6L4 052235Z AUTO 25009G15KT 230V290 10SM BKN008 OVC011 15/15 A2974 RMK AO2,K6L4,2020-05-05T22:35:00Z,37.85,-81.92,15.0,15.0,250,9,15,10.0,29.740158,,,TRUE,TRUE,,,,,,,BKN,800,OVC,1100,,,,,IFR,,,,,,,,,,,,METAR,508.0
KTVY 052235Z AUTO 36011KT 10SM CLR 22/00 A3019 RMK AO2,KTVY,2020-05-05T22:35:00Z,40.62,-112.35,22.0,0.0,360,11,,10.0,30.188976,,,TRUE,TRUE,,,,,,,CLR,,,,,,,,VFR,,,,,,,,,,,,METAR,1317.0
KTTA 052235Z AUTO 00000KT 10SM OVC040 21/15 A2979 RMK AO2 T02090150,KTTA,2020-05-05T22:35:00Z,35.58,-79.1,20.9,15.0,0,0,,10.0,29.790354,,,TRUE,TRUE,,,,,,,OVC,4000,,,,,,,VFR,,,,,,,,,,,,METAR,75.0
KSVC 052235Z AUTO 00000KT 10SM CLR 26/03 A3018 RMK AO2 T02600025,KSVC,2020-05-05T22:35:00Z,32.63,-108.15,26.0,2.5,0,0,,10.0,30.180119,,,TRUE,TRUE,,,,,,,CLR,,,,,,,,VFR,,,,,,,,,,,,METAR,1659.0
K04W 052235Z AUTO 05006KT 10SM OVC095 13/00 A3006 RMK AO2 LTG DSNT W,K04W,2020-05-05T22:35:00Z,46.02,-92.9,13.0,0.0,50,6,,10.0,30.059055,,,TRUE,TRUE,,,,,,,OVC,9500,,,,,,,VFR,,,,,,,,,,,,METAR,311.0
KBKT 052235Z AUTO 07003KT 10SM BKN032 OVC037 13/10 A2986 RMK AO1 T01300102,KBKT,2020-05-05T22:35:00Z,37.07,-77.95,13.0,10.2,70,3,,10.0,29.861221,,,TRUE,TRUE,,,,,,,BKN,3200,OVC,3700,,,,,VFR,,,,,,,,,,,,METAR,134.0
KTYL 052235Z AUTO 31008G15KT 10SM CLR 28/M05 A3017 RMK AO2,KTYL,2020-05-05T22:35:00Z,34.45,-110.12,28.0,-5.0,310,8,15,10.0,30.171259,,,TRUE,TRUE,,,,,,,CLR,,,,,,,,VFR,,,,,,,,,,,,METAR,1745.0
KX07 052235Z AUTO 30008KT 10SM CLR 30/18 A2994 RMK A01,KX07,2020-05-05T22:35:00Z,27.9,-81.62,30.0,18.0,300,8,,10.0,29.940945,,,TRUE,TRUE,,,,,,,CLR,,,,,,,,VFR,,,,,,,,,,,,METAR,39.0
K06D 052235Z AUTO 33007KT 10SM SCT045 OVC055 13/02 A3017 RMK AO2 LTG DSNT S,K06D,2020-05-05T22:35:00Z,48.88,-99.62,13.0,2.0,330,7,,10.0,30.171259,,,TRUE,TRUE,,,,,,,SCT,4500,OVC,5500,,,,,VFR,,,,,,,,,,,,METAR,556.0
K08D 052235Z AUTO 36013KT 10SM SCT050 BKN060 OVC075 13/01 A3020 RMK AO2 LTG DSNT S,K08D,2020-05-05T22:35:00Z,48.3,-102.4,13.0,1.0,360,13,,10.0,30.200787,,,TRUE,TRUE,,,,,,,SCT,5000,BKN,6000,OVC,7500,,,VFR,,,,,,,,,,,,METAR,684.0
KS33 052235Z AUTO 00000KT 10SM CLR 23/01 A3003 RMK AO2,KS33,2020-05-05T22:35:00Z,44.67,-121.15,23.0,1.0,0,0,,10.0,30.029528,,,TRUE,TRUE,,,,,,,CLR,,,,,,,,VFR,,,,,,,,,,,,METAR,743.0
CYYT 052235Z 17014G22KT 4SM RA BR OVC003 05/05 A2934 RMK SF8 SLP941,CYYT,2020-05-05T22:35:00Z,47.62,-52.72,5.0,5.0,170,14,22,4.0,29.338583,994.1,,,,,,,,,RA BR,OVC,300,,,,,,,LIFR,,,,,,,,,,,,SPECI,140.0
KLVN 052235Z AUTO 00000KT 10SM CLR 16/M04 A3004 RMK AO2 LTG DSNT W,KLVN,2020-05-05T22:35:00Z,44.63,-93.23,16.0,-4.0,0,0,,10.0,30.041338,,,TRUE,TRUE,,,,,,,CLR,,,,,,,,VFR,,,,,,,,,,,,METAR,293.0
K18A 052235Z AUTO 28008KT 240V310 10SM SCT043 SCT050 SCT070 27/18 A2980 RMK AO2 LTG DSNT SE THRU SW T02690178,K18A,2020-05-05T22:35:00Z,34.35,-83.13,26.9,17.8,280,8,,10.0,29.799213,,,TRUE,TRUE,,,,,,,SCT,4300,SCT,5000,SCT,7000,,,VFR,,,,,,,,,,,,METAR,271.0
KBKN 052235Z AUTO VRB06G13KT 10SM CLR 25/03 A3010 RMK AO2 LTG DSNT N,KBKN,2020-05-05T22:35:00Z,36.75,-97.35,25.0,3.0,0,6,13,10.0,30.100393,,,TRUE,TRUE,,,,,,,CLR,,,,,,,,VFR,,,,,,,,,,,,METAR,314.0
K20U 052235Z AUTO 36012G18KT 10SM BKN070 OVC090 12/02 A3024 RMK AO2 LTG DSNT SE,K20U,2020-05-05T22:35:00Z,46.93,-103.98,12.0,2.0,360,12,18,10.0,30.239174,,,TRUE,TRUE,,,,,,,BKN,7000,OVC,9000,,,,,VFR,,,,,,,,,,,,METAR,840.0
K4A6 052235Z AUTO 28007KT 10SM VCTS FEW027 23/21 A2984 RMK AO2 LTG DSNT SE,K4A6,2020-05-05T22:35:00Z,34.68,-86.0,23.0,21.0,280,7,,10.0,29.840551,,,TRUE,TRUE,,,,,,VCTS,FEW,2700,,,,,,,VFR,,,,,,,,,,,,METAR,198.0
KHAI 052235Z AUTO 05008KT 10SM SCT070 OVC095 10/M06 A2995 RMK AO2 T00971060,KHAI,2020-05-05T22:35:00Z,41.97,-85.6,9.7,-6.0,50,8,,10.0,29.949802,,,TRUE,TRUE,,,,,,,SCT,7000,OVC,9500,,,,,VFR,,,,,,,,,,,,METAR,251.0
KMGG 052235Z AUTO 08005KT 10SM 16/M02 A3005 RMK AO2 LTG DSNT W T01551023,KMGG,2020-05-05T22:35:00Z,45.23,-93.98,15.5,-2.3,80,5,,10.0,30.050198,,,TRUE,TRUE,,,,,,,,,,,,,,,,,,,,,,,,,,,METAR,313.0
KLWA 052235Z AUTO 09003KT 10SM SCT075 OVC085 10/M07 A2997 RMK AO2 T01001072,KLWA,2020-05-05T22:35:00Z,42.35,-86.25,10.0,-7.2,90,3,,10.0,29.970472,,,TRUE,TRUE,,,,,,,SCT,7500,OVC,8500,,,,,VFR,,,,,,,,,,,,METAR,203.0
KMGN 052235Z AUTO 07005KT 10SM CLR 10/M13 A3004 RMK AO2 T01001136,KMGN,2020-05-05T22:35:00Z,45.43,-84.92,10.0,-13.6,70,5,,10.0,30.041338,,,TRUE,TRUE,,,,,,,CLR,,,,,,,,VFR,,,,,,,,,,,,METAR,209.0
KMRT 052235Z AUTO 02013KT 10SM OVC060 07/01 A2985 RMK AO2 T00710005,KMRT,2020-05-05T22:35:00Z,40.22,-83.35,7.1,0.5,20,13,,10.0,29.84941,,,TRUE,TRUE,,,,,,,OVC,6000,,,,,,,VFR,,,,,,,,,,,,METAR,312.0
KMVE 052235Z AUTO 35008KT 10SM CLR 10/06 A3011 RMK AO2 LTG DSNT W,KMVE,2020-05-05T22:35:00Z,44.97,-95.72,10.0,6.0,350,8,,10.0,30.109253,,,TRUE,TRUE,,,,,,,CLR,,,,,,,,VFR,,,,,,,,,,,,METAR,315.0
K24J 052235Z AUTO 21007G13KT 160V220 10SM CLR 28/17 A2989 RMK A01,K24J,2020-05-05T22:35:00Z,30.3,-83.03,28.0,17.0,210,7,13,10.0,29.890747,,,TRUE,TRUE,,,,,,,CLR,,,,,,,,VFR,,,,,,,,,,,,METAR,32.0
K22N 052235Z AUTO 26004KT 10SM CLR 16/M04 A2986 RMK AO2,K22N,2020-05-05T22:35:00Z,40.8,-75.77,16.0,-4.0,260,4,,10.0,29.861221,,,TRUE,TRUE,,,,,,,CLR,,,,,,,,VFR,,,,,,,,,,,,METAR,163.0
KBNW 052235Z AUTO 36010KT 9SM -DZ BKN014 BKN024 OVC029 08/08 A3002 RMK AO2,KBNW,2020-05-05T22:35:00Z,42.03,-93.83,8.0,8.0,360,10,,9.0,30.02067,,,TRUE,TRUE,,,,,,-DZ,BKN,1400,BKN,2400,OVC,2900,,,MVFR,,,,,,,,,,,,METAR,354.0
KBMT 052235Z AUTO 00000KT 10SM SCT048 32/22 A2989 RMK AO2 T03230224,KBMT,2020-05-05T22:35:00Z,30.07,-94.22,32.3,22.4,0,0,,10.0,29.890747,,,TRUE,TRUE,,,,,,,SCT,4800,,,,,,,VFR,,,,,,,,,,,,METAR,10.0
KBPC 052235Z AUTO 09005KT 10SM CLR 23/M02 A3018 RMK AO2,KBPC,2020-05-05T22:35:00Z,35.88,-101.03,23.0,-2.0,90,5,,10.0,30.180119,,,TRUE,TRUE,,,,,,,CLR,,,,,,,,VFR,,,,,,,,,,,,METAR,845.0
KBRG 052235Z AUTO 11006KT 10SM CLR 26/M02 A3015 RMK AO2 T02621024,KBRG,2020-05-05T22:35:00Z,34.65,-106.83,26.2,-2.4,110,6,,10.0,30.15059,,,TRUE,TRUE,,,,,,,CLR,,,,,,,,VFR,,,,,,,,,,,,METAR,1585.0
KBXA 052235Z AUTO 29004KT 10SM OVC050 30/18 A2990 RMK AO2 T02950183,KBXA,2020-05-05T22:35:00Z,30.82,-89.87,29.5,18.3,290,4,,10.0,29.899607,,,TRUE,TRUE,,,,,,,OVC,5000,,,,,,,VFR,,,,,,,,,,,,METAR,36.0
KBXK 052235Z AUTO 19004KT 10SM CLR 38/M03 A2985 RMK A01,KBXK,2020-05-05T22:35:00Z,33.42,-112.68,38.0,-3.0,190,4,,10.0,29.84941,,,TRUE,TRUE,,,,,,,CLR,,,,,,,,VFR,,,,,,,,,,,,METAR,315.0
KBYY 052235Z AUTO 17011KT 10SM SCT023 SCT090 30/24 A2990 RMK AO2 T03080244,KBYY,2020-05-05T22:35:00Z,28.97,-95.87,30.8,24.4,170,11,,10.0,29.899607,,,TRUE,TRUE,,,,,,,SCT,2300,SCT,9000,,,,,VFR,,,,,,,,,,,,METAR,14.0
KBOW 052235Z AUTO 30011KT 10SM CLR 30/16 A2992 RMK AO2,KBOW,2020-05-05T22:35:00Z,27.93,-81.77,30.0,16.0,300,11,,10.0,29.920275,,,TRUE,TRUE,,,,,,,CLR,,,,,,,,VFR,,,,,,,,,,,,METAR,39.0
KC35 052235Z AUTO 04006KT 10SM BKN090 11/01 A3000 RMK AO2 T01120007 PWINO,KC35,2020-05-05T22:35:00Z,43.53,-89.98,11.2,0.7,40,6,,10.0,30.0,,,TRUE,TRUE,,,,,TRUE,,BKN,9000,,,,,,,VFR,,,,,,,,,,,,METAR,276.0
KCAD 052235Z AUTO 00000KT 10SM CLR 10/M11 A2997 RMK AO2,KCAD,2020-05-05T22:35:00Z,44.27,-85.42,10.0,-11.0,0,0,,10.0,29.970472,,,TRUE,TRUE,,,,,,,CLR,,,,,,,,VFR,,,,,,,,,,,,METAR,398.0
KCAV 052235Z AUTO 04011KT 10SM FEW014 OVC025 08/08 A3005 RMK A01,KCAV,2020-05-05T22:35:00Z,42.75,-93.77,8.0,8.0,40,11,,10.0,30.050198,,,TRUE,TRUE,,,,,,,FEW,1400,OVC,2500,,,,,MVFR,,,,,,,,,,,,METAR,354.0
KMWM 052235Z AUTO 30012KT 7SM -DZ SCT012 SCT019 09/07 A3008 RMK AO2 LTG DSNT W,KMWM,2020-05-05T22:35:00Z,43.9,-95.1,9.0,7.0,300,12,,7.0,30.079725,,,TRUE,TRUE,,,,,,-DZ,SCT,1200,SCT,1900,,,,,VFR,,,,,,,,,,,,METAR,430.0
KOEB 052235Z AUTO 01006KT 10SM SCT060 OVC070 08/M03 A2994 RMK AO2,KOEB,2020-05-05T22:35:00Z,41.92,-85.03,8.0,-3.0,10,6,,10.0,29.940945,,,TRUE,TRUE,,,,,,,SCT,6000,OVC,7000,,,,,VFR,,,,,,,,,,,,METAR,292.0
KCBF 052235Z AUTO 33018G28KT 10SM SCT028 BKN038 BKN043 13/06 A3006 RMK AO2,KCBF,2020-05-05T22:35:00Z,41.27,-95.77,13.0,6.0,330,18,28,10.0,30.059055,,,TRUE,TRUE,,,,,,,SCT,2800,BKN,3800,BKN,4300,,,VFR,,,,,,,,,,,,METAR,382.0
KCDA 052235Z AUTO 29008KT 10SM SCT038 05/M02 A2992 RMK AO2 T00531022,KCDA,2020-05-05T22:35:00Z,44.57,-72.02,5.3,-2.2,290,8,,10.0,29.920275,,,TRUE,TRUE,,,,,,,SCT,3800,,,,,,,VFR,,,,,,,,,,,,METAR,363.0
KI69 052235Z AUTO 01007KT 10SM OVC034 10/03 A2985 RMK AO2 T00970028,KI69,2020-05-05T22:35:00Z,39.08,-84.22,9.7,2.8,10,7,,10.0,29.84941,,,TRUE,TRUE,,,,,,,OVC,3400,,,,,,,VFR,,,,,,,,,,,,METAR,255.0
KOVL 052235Z AUTO 32009G15KT 4SM -DZ SCT034 SCT042 OVC049 10/07 A3007 RMK AO2 LTG DSNT W P0001,KOVL,2020-05-05T22:35:00Z,44.78,-95.03,10.0,7.0,320,9,15,4.0,30.070866,,,TRUE,TRUE,,,,,,-DZ,SCT,3400,SCT,4200,OVC,4900,,,MVFR,,,,,,0.01,,,,,,METAR,328.0
KOZW 052235Z AUTO 04005KT 10SM OVC110 10/M07 A2993 RMK AO2 T00991069,KOZW,2020-05-05T22:35:00Z,42.62,-83.97,9.9,-6.9,40,5,,10.0,29.929134,,,TRUE,TRUE,,,,,,,OVC,11000,,,,,,,VFR,,,,,,,,,,,,METAR,293.0
KPWC 052235Z AUTO 16004KT 10SM SCT048 BKN075 11/02 A3010 RMK AO2 LTG DSNT SW,KPWC,2020-05-05T22:35:00Z,46.72,-94.37,11.0,2.0,160,4,,10.0,30.100393,,,TRUE,TRUE,,,,,,,SCT,4800,BKN,7500,,,,,VFR,,,,,,,,,,,,METAR,395.0
KPQN 052235Z 34005KT 10SM RA 08/06 A3010 RMK AO2 LTG DSNT NW,KPQN,2020-05-05T22:35:00Z,43.97,-96.32,8.0,6.0,340,5,,10.0,30.100393,,,,TRUE,,,,,,RA,,,,,,,,,,,,,,,,,,,,,METAR,529.0
KPMH 052235Z AUTO 35004KT 2 1/2SM -DZ OVC006 08/08 A2980 RMK AO2 T00750075,KPMH,2020-05-05T22:35:00Z,38.83,-82.85,7.5,7.5,350,4,,2.5,29.799213,,,TRUE,TRUE,,,,,,-DZ,OVC,600,,,,,,,IFR,,,,,,,,,,,,METAR,202.0
KRMY 052235Z AUTO 05003KT 10SM OVC055 10/M05 A2994 RMK AO2 T00961049,KRMY,2020-05-05T22:35:00Z,42.23,-84.95,9.6,-4.9,50,3,,10.0,29.940945,,,TRUE,TRUE,,,,,,,OVC,5500,,,,,,,VFR,,,,,,,,,,,,METAR,287.0
KCDI 052235Z AUTO 05003KT 10SM OVC034 08/05 A2981 RMK AO2 T00760048,KCDI,2020-05-05T22:35:00Z,39.97,-81.58,7.6,4.8,50,3,,10.0,29.811024,,,TRUE,TRUE,,,,,,,OVC,3400,,,,,,,VFR,,,,,,,,,,,,METAR,244.0
KCDN 052235Z AUTO 00000KT 10SM SCT080 29/19 A2976 RMK AO2 LTG DSNT NW,KCDN,2020-05-05T22:35:00Z,34.28,-80.57,29.0,19.0,0,0,,10.0,29.760826,,,TRUE,TRUE,,,,,,,SCT,8000,,,,,,,VFR,,,,,,,,,,,,METAR,92.0
KCFS 052235Z AUTO 01005KT 10SM CLR 09/M06 A2999 RMK AO2 T00931059,KCFS,2020-05-05T22:35:00Z,43.47,-83.45,9.3,-5.9,10,5,,10.0,29.991142,,,TRUE,TRUE,,,,,,,CLR,,,,,,,,VFR,,,,,,,,,,,,METAR,214.0
KCIN 052235Z AUTO 36014KT 9SM SCT014 SCT019 09/08 A3006 RMK AO2,KCIN,2020-05-05T22:35:00Z,42.03,-94.77,9.0,8.0,360,14,,9.0,30.059055,,,TRUE,TRUE,,,,,,,SCT,1400,SCT,1900,,,,,VFR,,,,,,,,,,,,METAR,375.0
KCKM 052235Z AUTO 00000KT 10SM 24/10 A2997 RMK A01,KCKM,2020-05-05T22:35:00Z,34.3,-90.52,24.0,10.0,0,0,,10.0,29.970472,,,TRUE,TRUE,,,,,,,,,,,,,,,,,,,,,,,,,,,METAR,53.0
K4M9 052235Z AUTO 30013G20KT 10SM CLR 24/09 A2991 RMK AO2 LTG DSNT NW PWINO,K4M9,2020-05-05T22:35:00Z,36.4,-90.65,24.0,9.0,300,13,20,10.0,29.911417,,,TRUE,TRUE,,,,,TRUE,,CLR,,,,,,,,VFR,,,,,,,,,,,,METAR,90.0
KSAA 052235Z AUTO 27012G23KT 10SM CLR 16/M12 A3029 RMK AO2,KSAA,2020-05-05T22:35:00Z,41.45,-106.83,16.0,-12.0,270,12,23,10.0,30.28937,,,TRUE,TRUE,,,,,,,CLR,,,,,,,,VFR,,,,,,,,,,,,METAR,2138.0
KCKN 052235Z AUTO 01007KT 10SM OVC060 12/04 A3013 RMK AO2 LTG DSNT SW,KCKN,2020-05-05T22:35:00Z,47.85,-96.62,12.0,4.0,10,7,,10.0,30.129921,,,TRUE,TRUE,,,,,,,OVC,6000,,,,,,,VFR,,,,,,,,,,,,METAR,273.0
KCMD 052235Z AUTO 28004KT SCT009 BKN014 BKN020 20/18 A2989 RMK AO2 LTG DSNT E T02040175 PWINO,KCMD,2020-05-05T22:35:00Z,34.27,-86.85,20.4,17.5,280,4,,,29.890747,,,TRUE,TRUE,,,,,TRUE,,SCT,900,BKN,1400,BKN,2000,,,,,,,,,,,,,,,METAR,294.0
KCMR 052235Z AUTO 25008KT 210V280 10SM CLR 25/M06 A3025 RMK AO2,KCMR,2020-05-05T22:35:00Z,35.3,-112.2,25.0,-6.0,250,8,,10.0,30.250984,,,TRUE,TRUE,,,,,,,CLR,,,,,,,,VFR,,,,,,,,,,,,METAR,2036.0
KCNC 052235Z AUTO 36018G29KT 6SM -RA SCT007 BKN012 BKN017 10/09 A2995 RMK AO2,KCNC,2020-05-05T22:35:00Z,41.02,-93.37,10.0,9.0,360,18,29,6.0,29.949802,,,TRUE,TRUE,,,,,,-RA,SCT,700,BKN,1200,BKN,1700,,,MVFR,,,,,,,,,,,,METAR,320.0
KCPT 052235Z AUTO 03011G17KT 10SM CLR 26/09 A3009 RMK A01,KCPT,2020-05-05T22:35:00Z,32.35,-97.43,26.0,9.0,30,11,17,10.0,30.088583,,,TRUE,TRUE,,,,,,,CLR,,,,,,,,VFR,,,,,,,,,,,,METAR,260.0
KCPU 052235Z AUTO 32009KT 10SM CLR 27/00 A3010 RMK AO2 T02651003,KCPU,2020-05-05T22:35:00Z,38.15,-120.65,26.5,-0.3,320,9,,10.0,30.100393,,,TRUE,TRUE,,,,,,,CLR,,,,,,,,VFR,,,,,,,,,,,,METAR,404.0
KCQW 052235Z AUTO 08003KT 10SM CLR 25/19 A2977 RMK AO2 LTG DSNT NW,KCQW,2020-05-05T22:35:00Z,34.72,-79.95,25.0,19.0,80,3,,10.0,29.769686,,,TRUE,TRUE,,,,,,,CLR,,,,,,,,VFR,,,,,,,,,,,,METAR,73.0
KJGG 052235Z AUTO 00000KT 10SM SCT090 14/09 A2990 RMK AO1,KJGG,2020-05-05T22:35:00Z,37.23,-76.72,14.0,9.0,0,0,,10.0,29.899607,,,TRUE,TRUE,,,,,,,SCT,9000,,,,,,,VFR,,,,,,,,,,,,METAR,15.0
KJFX 052235Z AUTO VRB05KT 10SM SCT015 BKN021 BKN028 23/22 A2988 RMK AO2 PWINO,KJFX,2020-05-05T22:35:00Z,33.9,-87.32,23.0,22.0,0,5,,10.0,29.878937,,,TRUE,TRUE,,,,,TRUE,,SCT,1500,BKN,2100,BKN,2800,,,MVFR,,,,,,,,,,,,METAR,148.0
KCVX 052235Z AUTO 35004KT 10SM CLR 08/M04 A3004 RMK AO2 T00801044,KCVX,2020-05-05T22:35:00Z,45.3,-85.27,8.0,-4.4,350,4,,10.0,30.041338,,,TRUE,TRUE,,,,,,,CLR,,,,,,,,VFR,,,,,,,,,,,,METAR,204.0
KJHN 052235Z AUTO 16007KT 10SM CLR 24/M01 A3015 RMK AO2 LTG DSNT N T02391006,KJHN,2020-05-05T22:35:00Z,37.58,-101.73,23.9,-0.6,160,7,,10.0,30.15059,,,TRUE,TRUE,,,,,,,CLR,,,,,,,,VFR,,,,,,,,,,,,METAR,1013.0
KJVW 052235Z AUTO 30008KT 10SM FEW035 FEW055 27/23 A2992 RMK AO2,KJVW,2020-05-05T22:35:00Z,32.3,-90.42,27.0,23.0,300,8,,10.0,29.920275,,,TRUE,TRUE,,,,,,,FEW,3500,FEW,5500,,,,,VFR,,,,,,,,,,,,METAR,76.0
KJWY 052235Z AUTO 04007KT 10SM CLR 25/10 A3007 RMK AO2 T02500100,KJWY,2020-05-05T22:35:00Z,32.45,-96.92,25.0,10.0,40,7,,10.0,30.070866,,,TRUE,TRUE,,,,,,,CLR,,,,,,,,VFR,,,,,,,,,,,,METAR,217.0
KJYL 052235Z AUTO 27008KT 10SM CLR 31/15 A2981 RMK AO2 T03080145,KJYL,2020-05-05T22:35:00Z,32.65,-81.6,30.8,14.5,270,8,,10.0,29.811024,,,TRUE,TRUE,,,,,,,CLR,,,,,,,,VFR,,,,,,,,,,,,METAR,57.0
KJZI 052235Z AUTO 20014KT 7SM CLR 25/21 A2980 RMK AO2,KJZI,2020-05-05T22:35:00Z,32.7,-80.0,25.0,21.0,200,14,,7.0,29.799213,,,TRUE,TRUE,,,,,,,CLR,,,,,,,,VFR,,,,,,,,,,,,METAR,6.0
KL08 052235Z AUTO 00000KT 10SM CLR 39/M06 A2983 RMK AO2,KL08,2020-05-05T22:35:00Z,33.27,-116.32,39.0,-6.0,0,0,,10.0,29.828741,,,TRUE,TRUE,,,,,,,CLR,,,,,,,,VFR,,,,,,,,,,,,METAR,159.0
KL18 052235Z AUTO 21005KT 10SM CLR 28/15 A2994 RMK AO2,KL18,2020-05-05T22:35:00Z,33.35,-117.25,28.0,15.0,210,5,,10.0,29.940945,,,TRUE,TRUE,,,,,,,CLR,,,,,,,,VFR,,,,,,,,,,,,METAR,216.0
KL52 052235Z AUTO 32008G16KT 280V350 6SM HZ CLR 20/09 A3001 RMK A01,KL52,2020-05-05T22:35:00Z,35.1,-120.62,20.0,9.0,320,8,16,6.0,30.008858,,,TRUE,TRUE,,,,,,HZ,CLR,,,,,,,,VFR,,,,,,,,,,,,METAR,4.0
KLKR 052235Z AUTO 34004KT 9SM VCTS SCT040 SCT045 BKN065 25/21 A2975 RMK AO2 LTG DSNT ALQDS,KLKR,2020-05-05T22:35:00Z,34.72,-80.85,25.0,21.0,340,4,,9.0,29.749016,,,TRUE,TRUE,,,,,,VCTS,SCT,4000,SCT,4500,BKN,6500,,,VFR,,,,,,,,,,,,METAR,149.0
KLNC 052235Z AUTO 04009KT 10SM CLR 25/10 A3007 RMK AO2 T02460099,KLNC,2020-05-05T22:35:00Z,32.58,-96.72,24.6,9.9,40,9,,10.0,30.070866,,,TRUE,TRUE,,,,,,,CLR,,,,,,,,VFR,,,,,,,,,,,,METAR,153.0
KCPF 052235Z AUTO 30008G17KT 270V340 5SM DZ OVC008 15/13 A2980 RMK AO2,KCPF,2020-05-05T22:35:00Z,,,15.0,13.0,300,8,17,5.0,29.799213,,,TRUE,TRUE,,,,,,DZ,OVC,800,,,,,,,IFR,,,,,,,,,,,,SPECI,
KLRO 052235Z AUTO 18010G17KT 9SM CLR 26/21 A2978 RMK AO2,KLRO,2020-05-05T22:35:00Z,32.9,-79.78,26.0,21.0,180,10,17,9.0,29.778543,,,TRUE,TRUE,,,,,,,CLR,,,,,,,,VFR,,,,,,,,,,,,METAR,4.0
KLRJ 052235Z AUTO 34011KT 10SM FEW020 BKN034 OVC041 11/10 A3010 RMK AO2,KLRJ,2020-05-05T22:35:00Z,42.77,-96.2,11.0,10.0,340,11,,10.0,30.100393,,,TRUE,TRUE,,,,,,,FEW,2000,BKN,3400,OVC,4100,,,VFR,,,,,,,,,,,,METAR,365.0
KLUD 052235Z AUTO 36010G14KT 10SM CLR 24/05 A3009 RMK AO2 T02440045,KLUD,2020-05-05T22:35:00Z,33.25,-97.58,24.4,4.5,360,10,14,10.0,30.088583,,,TRUE,TRUE,,,,,,,CLR,,,,,,,,VFR,,,,,,,,,,,,METAR,319.0
KLXY 052235Z AUTO 31006KT 10SM -VCTSRA OVC085 23/15 A3003 RMK AO2 LTG DSNT ALQS T02250145,KLXY,2020-05-05T22:35:00Z,31.63,-96.52,22.5,14.5,310,6,,10.0,30.029528,,,TRUE,TRUE,,,,,,VCTS -RA,OVC,8500,,,,,,,VFR,,,,,,,,,,,,METAR,166.0
KLYV 052235Z AUTO 34007KT 10SM VCTS BKN030 OVC037 08/05 A3012 RMK AO2 LTG DSNT NW,KLYV,2020-05-05T22:35:00Z,43.62,-96.22,8.0,5.0,340,7,,10.0,30.121063,,,TRUE,TRUE,,,,,,VCTS,BKN,3000,OVC,3700,,,,,MVFR,,,,,,,,,,,,METAR,436.0
KM21 052235Z AUTO 31010G19KT 10SM BKN034 SCT045 15/09 A2992 RMK AO2 T01500089,KM21,2020-05-05T22:35:00Z,37.22,-87.15,15.0,8.9,310,10,19,10.0,29.920275,,,TRUE,TRUE,,,,,,,BKN,3400,SCT,4500,,,,,VFR,,,,,,,,,,,,METAR,129.0
KM40 052235Z AUTO 30005KT 10SM SCT034 SCT040 24/15 A2993 RMK AO2,KM40,2020-05-05T22:35:00Z,33.87,-88.48,24.0,15.0,300,5,,10.0,29.929134,,,TRUE,TRUE,,,,,,,SCT,3400,SCT,4000,,,,,VFR,,,,,,,,,,,,METAR,69.0
KMAO 052235Z AUTO 15005KT 10SM CLR 25/20 A2977 RMK AO2,KMAO,2020-05-05T22:35:00Z,34.18,-79.33,25.0,20.0,150,5,,10.0,29.769686,,,TRUE,TRUE,,,,,,,CLR,,,,,,,,VFR,,,,,,,,,,,,METAR,28.0
K1A5 052235Z AUTO 00000KT 10SM -RA SCT028 BKN037 OVC120 18/17 A2987 RMK AO2 T01780168,K1A5,2020-05-05T22:35:00Z,35.22,-83.42,17.8,16.8,0,0,,10.0,29.870079,,,TRUE,TRUE,,,,,,-RA,SCT,2800,BKN,3700,OVC,12000,,,VFR,,,,,,,,,,,,SPECI,616.0
KMLJ 052235Z AUTO 25005KT 10SM SCT050 28/18 A2981 RMK AO2 LTG DSNT N,KMLJ,2020-05-05T22:35:00Z,33.15,-83.23,28.0,18.0,250,5,,10.0,29.811024,,,TRUE,TRUE,,,,,,,SCT,5000,,,,,,,VFR,,,,,,,,,,,,METAR,117.0
KMAN 052235Z AUTO 13010G19KT 10SM CLR 28/M07 A3001 RMK A01,KMAN,2020-05-05T22:35:00Z,43.58,-116.52,28.0,-7.0,130,10,19,10.0,30.008858,,,TRUE,TRUE,,,,,,,CLR,,,,,,,,VFR,,,,,,,,,,,,METAR,774.0
KMKJ 052235Z AUTO 06004KT 7SM OVC013 12/11 A2983 RMK AO2 T01240112,KMKJ,2020-05-05T22:35:00Z,36.88,-81.33,12.4,11.2,60,4,,7.0,29.828741,,,TRUE,TRUE,,,,,,,OVC,1300,,,,,,,MVFR,,,,,,,,,,,,METAR,780.0
KIFA 052235Z AUTO 01009KT 10SM -RA SCT010 SCT015 OVC025 08/05 A3004 RMK AO2 T00810051,KIFA,2020-05-05T22:35:00Z,42.47,-93.27,8.1,5.1,10,9,,10.0,30.041338,,,TRUE,TRUE,,,,,,-RA,SCT,1000,SCT,1500,OVC,2500,,,MVFR,,,,,,,,,,,,SPECI,347.0
KMNE 052235Z AUTO 34008KT 10SM SCT041 BKN120 26/16 A3000 RMK AO2 T02570164,KMNE,2020-05-05T22:35:00Z,32.65,-93.3,25.7,16.4,340,8,,10.0,30.0,,,TRUE,TRUE,,,,,,,SCT,4100,BKN,12000,,,,,VFR,,,,,,,,,,,,METAR,85.0
KMNZ 052235Z AUTO 03015G18KT 10SM CLR 26/05 A3009 RMK AO2 LTG DSNT N T02610054,KMNZ,2020-05-05T22:35:00Z,31.67,-98.15,26.1,5.4,30,15,18,10.0,30.088583,,,TRUE,TRUE,,,,,,,CLR,,,,,,,,VFR,,,,,,,,,,,,METAR,396.0
KIIB 052235Z AUTO 05008KT 7SM DZ SCT008 SCT012 OVC031 08/07 A3000 RMK AO2 P0002 T00800070,KIIB,2020-05-05T22:35:00Z,42.45,-91.95,8.0,7.0,50,8,,7.0,30.0,,,TRUE,TRUE,,,,,,DZ,SCT,800,SCT,1200,OVC,3100,,,VFR,,,,,,0.02,,,,,,SPECI,298.0
KPRO 052235Z AUTO 36014KT 10SM -RA BKN014 OVC019 09/07 A3005 RMK AO2 T00850065,KPRO,2020-05-05T22:35:00Z,41.83,-94.17,8.5,6.5,360,14,,10.0,30.050198,,,TRUE,TRUE,,,,,,-RA,BKN,1400,OVC,1900,,,,,MVFR,,,,,,,,,,,,SPECI,308.0
KPLD 052235Z AUTO 04007KT 10SM OVC060 07/M01 A2989 RMK AO2,KPLD,2020-05-05T22:35:00Z,40.45,-84.98,7.0,-1.0,40,7,,10.0,29.890747,,,TRUE,TRUE,,,,,,,OVC,6000,,,,,,,VFR,,,,,,,,,,,,SPECI,282.0
KMUT 052235Z AUTO 09007KT 6SM BR SCT027 OVC036 09/08 A2997 RMK AO2,KMUT,2020-05-05T22:35:00Z,41.37,-91.15,9.0,8.0,90,7,,6.0,29.970472,,,TRUE,TRUE,,,,,,BR,SCT,2700,OVC,3600,,,,,VFR,,,,,,,,,,,,METAR,167.0
KMOX 052235Z AUTO 31007KT 10SM SCT046 10/04 A3011 RMK AO2 LTG DSNT W,KMOX,2020-05-05T22:35:00Z,45.57,-95.97,10.0,4.0,310,7,,10.0,30.109253,,,TRUE,TRUE,,,,,,,SCT,4600,,,,,,,VFR,,,,,,,,,,,,METAR,344.0
KMWK 052235Z AUTO 06003KT 10SM BKN009 OVC022 13/11 A2985 RMK AO2 T01270106,KMWK,2020-05-05T22:35:00Z,36.47,-80.55,12.7,10.6,60,3,,10.0,29.84941,,,TRUE,TRUE,,,,,,,BKN,900,OVC,2200,,,,,IFR,,,,,,,,,,,,METAR,380.0
KMXO 052235Z AUTO 08010G20KT 4SM -RA FEW016 SCT023 BKN028 08/07 A2999 RMK AO2,KMXO,2020-05-05T22:35:00Z,42.22,-91.17,8.0,7.0,80,10,20,4.0,29.991142,,,TRUE,TRUE,,,,,,-RA,FEW,1600,SCT,2300,BKN,2800,,,MVFR,,,,,,,,,,,,METAR,259.0
KCWC 052235Z AUTO 06008G21KT 360V090 10SM CLR 25/02 A3013 RMK AO2 T02530018,KCWC,2020-05-05T22:35:00Z,33.85,-98.48,25.3,1.8,60,8,21,10.0,30.129921,,,TRUE,TRUE,,,,,,,CLR,,,,,,,,VFR,,,,,,,,,,,,METAR,305.0
KCZL 052235Z AUTO 28007G27KT 2SM RA SCT014 OVC025 20/20 A2984 RMK AO2 VIS 3/4V5,KCZL,2020-05-05T22:35:00Z,34.47,-84.93,20.0,20.0,280,7,27,2.0,29.840551,,,TRUE,TRUE,,,,,,RA,SCT,1400,OVC,2500,,,,,IFR,,,,,,,,,,,,METAR,195.0
KCZT 052235Z AUTO 09009G14KT 10SM SCT050 SCT075 SCT095 34/20 A2988 RMK AO2,KCZT,2020-05-05T22:35:00Z,28.52,-99.82,34.0,20.0,90,9,14,10.0,29.878937,,,TRUE,TRUE,,,,,,,SCT,5000,SCT,7500,SCT,9500,,,VFR,,,,,,,,,,,,METAR,183.0
KD57 052235Z AUTO 36010G15KT 330V040 10SM VCTS SCT060 BKN070 14/M02 A3018 RMK AO2,KD57,2020-05-05T22:35:00Z,46.82,-101.87,14.0,-2.0,360,10,15,10.0,30.180119,,,TRUE,TRUE,,,,,,VCTS,SCT,6000,BKN,7000,,,,,VFR,,,,,,,,,,,,METAR,637.0
KY70 052235Z AUTO 10SM CLR 10/M04 A2996 RMK AO2 T01001043,KY70,2020-05-05T22:35:00Z,42.93,-85.07,10.0,-4.3,,,,10.0,29.958662,,,TRUE,TRUE,,,,,,,CLR,,,,,,,,VFR,,,,,,,,,,,,METAR,250.0
KY49 052235Z AUTO 00000KT 10SM SCT085 BKN100 12/00 A3006 RMK AO2 LTG DSNT SW T01211002,KY49,2020-05-05T22:35:00Z,47.13,-94.65,12.1,-0.2,0,0,,10.0,30.059055,,,TRUE,TRUE,,,,,,,SCT,8500,BKN,10000,,,,,VFR,,,,,,,,,,,,METAR,416.0
KAIT 052235Z AUTO 08006KT 10SM CLR 13/M01 A3004 RMK AO2 LTG DSNT W,KAIT,2020-05-05T22:35:00Z,46.53,-93.67,13.0,-1.0,80,6,,10.0,30.041338,,,TRUE,TRUE,,,,,,,CLR,,,,,,,,VFR,,,,,,,,,,,,METAR,367.0
KHYX 052235Z AUTO 02012KT 10SM CLR 07/M09 A2999 RMK AO2,KHYX,2020-05-05T22:35:00Z,43.43,-83.87,7.0,-9.0,20,12,,10.0,29.991142,,,TRUE,TRUE,,,,,,,CLR,,,,,,,,VFR,,,,,,,,,,,,METAR,183.0
KD60 052235Z AUTO 02009G14KT 10SM FEW050 FEW060 OVC075 13/01 A3022 RMK AO2 LTG DSNT SE,KD60,2020-05-05T22:35:00Z,48.38,-102.9,13.0,1.0,20,9,14,10.0,30.221457,,,TRUE,TRUE,,,,,,,FEW,5000,FEW,6000,OVC,7500,,,VFR,,,,,,,,,,,,METAR,693.0
KD95 052235Z AUTO 01008KT 10SM CLR 08/M06 A2998 RMK AO2 T00781065,KD95,2020-05-05T22:35:00Z,43.07,-83.27,7.8,-6.5,10,8,,10.0,29.97933,,,TRUE,TRUE,,,,,,,CLR,,,,,,,,VFR,,,,,,,,,,,,METAR,255.0
KDEH 052235Z AUTO 05005KT 10SM CLR 09/06 A3002 RMK AO2,KDEH,2020-05-05T22:35:00Z,43.27,-91.72,9.0,6.0,50,5,,10.0,30.02067,,,TRUE,TRUE,,,,,,,CLR,,,,,,,,VFR,,,,,,,,,,,,METAR,353.0
KBFW 052235Z AUTO 16004KT 10SM CLR 08/M11 A3007 RMK AO2 LTG DSNT W,KBFW,2020-05-05T22:35:00Z,47.25,-91.4,8.0,-11.0,160,4,,10.0,30.070866,,,TRUE,TRUE,,,,,,,CLR,,,,,,,,VFR,,,,,,,,,,,,METAR,331.0
KDNA 052235Z AUTO 13012G17KT 10SM CLR 29/01 A3012 RMK AO2,KDNA,2020-05-05T22:35:00Z,31.88,-106.7,29.0,1.0,130,12,17,10.0,30.121063,,,TRUE,TRUE,,,,,,,CLR,,,,,,,,VFR,,,,,,,,,,,,METAR,1253.0
KBVI 052235Z AUTO 09005KT 10SM OVC100 13/M05 A2980 RMK AO2 T01331047,KBVI,2020-05-05T22:35:00Z,40.77,-80.4,13.3,-4.7,90,5,,10.0,29.799213,,,TRUE,TRUE,,,,,,,OVC,10000,,,,,,,VFR,,,,,,,,,,,,METAR,382.0
KDNS 052235Z AUTO 01010KT 10SM SCT017 SCT022 BKN039 10/09 A3010 RMK AO2,KDNS,2020-05-05T22:35:00Z,41.97,-95.37,10.0,9.0,10,10,,10.0,30.100393,,,TRUE,TRUE,,,,,,,SCT,1700,SCT,2200,BKN,3900,,,VFR,,,,,,,,,,,,METAR,388.0
KDRI 052235Z AUTO 36007KT 10SM SCT034 SCT050 SCT090 28/21 A2994 RMK AO2 T02830208,KDRI,2020-05-05T22:35:00Z,30.83,-93.33,28.3,20.8,360,7,,10.0,29.940945,,,TRUE,TRUE,,,,,,,SCT,3400,SCT,5000,SCT,9000,,,VFR,,,,,,,,,,,,METAR,63.0
KDRM 052235Z AUTO 21005KT 10SM CLR 07/M06 A3003 RMK AO2 T00651064,KDRM,2020-05-05T22:35:00Z,46.0,-83.75,6.5,-6.4,210,5,,10.0,30.029528,,,TRUE,TRUE,,,,,,,CLR,,,,,,,,VFR,,,,,,,,,,,,METAR,204.0
KD39 052235Z AUTO 34008KT 10SM 13/03 A3007 RMK AO2 LTG DSNT SW T01250025,KD39,2020-05-05T22:35:00Z,45.7,-94.93,12.5,2.5,340,8,,10.0,30.070866,,,TRUE,TRUE,,,,,,,,,,,,,,,,,,,,,,,,,,,METAR,380.0
KDYB 052235Z AUTO 23003KT 10SM CLR 30/17 A2976 RMK AO2,KDYB,2020-05-05T22:35:00Z,33.07,-80.28,30.0,17.0,230,3,,10.0,29.760826,,,TRUE,TRUE,,,,,,,CLR,,,,,,,,VFR,,,,,,,,,,,,METAR,18.0
KDSM 052235Z 36010KT 10SM -RA BKN010 OVC014 08/06 A3002 RMK AO2 CIG 006V012 P0000 T00780061,KDSM,2020-05-05T22:35:00Z,41.53,-93.67,7.8,6.1,360,10,,10.0,30.02067,,,,TRUE,,,,,,-RA,BKN,1000,OVC,1400,,,,,MVFR,,,,,,0.005,,,,,,SPECI,295.0
KECU 052235Z AUTO 05011G18KT 10SM FEW033 25/09 A3009 RMK AO2,KECU,2020-05-05T22:35:00Z,29.95,-100.17,25.0,9.0,50,11,18,10.0,30.088583,,,TRUE,TRUE,,,,,,,FEW,3300,,,,,,,VFR,,,,,,,,,,,,METAR,725.0
KDXX 052235Z AUTO 32007KT 10SM -RA SCT020 BKN024 OVC031 09/08 A3012 RMK AO2 P0001 LTG DSNT W P0001,KDXX,2020-05-05T22:35:00Z,44.98,-96.18,9.0,8.0,320,7,,10.0,30.121063,,,TRUE,TRUE,,,,,,-RA,SCT,2000,BKN,2400,OVC,3100,,,MVFR,,,,,,0.01,,,,,,METAR,330.0
KEDE 052235Z AUTO 00000KT 10SM OVC027 15/12 A2990 RMK AO2 T01510117,KEDE,2020-05-05T22:35:00Z,36.02,-76.57,15.1,11.7,0,0,,10.0,29.899607,,,TRUE,TRUE,,,,,,,OVC,2700,,,,,,,MVFR,,,,,,,,,,,,METAR,6.0
KEDN 052235Z AUTO 32004KT 10SM CLR 28/16 A2988 RMK AO2 T02790160,KEDN,2020-05-05T22:35:00Z,31.3,-85.9,27.9,16.0,320,4,,10.0,29.878937,,,TRUE,TRUE,,,,,,,CLR,,,,,,,,VFR,,,,,,,,,,,,METAR,110.0
KEFK 052235Z AUTO 31007KT 10SM OVC043 06/M01 A2992 RMK AO2 T00611011,KEFK,2020-05-05T22:35:00Z,44.88,-72.23,6.1,-1.1,310,7,,10.0,29.920275,,,TRUE,TRUE,,,,,,,OVC,4300,,,,,,,VFR,,,,,,,,,,,,METAR,284.0
KEOK 052235Z AUTO 01005KT 3SM BR BKN005 OVC008 09/09 A2994 RMK AO2,KEOK,2020-05-05T22:35:00Z,40.47,-91.42,9.0,9.0,10,5,,3.0,29.940945,,,TRUE,TRUE,,,,,,BR,BKN,500,OVC,800,,,,,IFR,,,,,,,,,,,,METAR,205.0
KEQA 052235Z AUTO 32016G23KT 10SM CLR 23/00 A3009 RMK AO2,KEQA,2020-05-05T22:35:00Z,37.78,-96.82,23.0,0.0,320,16,23,10.0,30.088583,,,TRUE,TRUE,,,,,,,CLR,,,,,,,,VFR,,,,,,,,,,,,METAR,420.0
KERV 052235Z AUTO 03011G18KT 10SM OVC034 23/12 A3004 RMK AO2 T02330116,KERV,2020-05-05T22:35:00Z,29.98,-99.08,23.3,11.6,30,11,18,10.0,30.041338,,,TRUE,TRUE,,,,,,,OVC,3400,,,,,,,VFR,,,,,,,,,,,,METAR,510.0
KETC 052235Z AUTO 07006KT 7SM SCT080 18/11 A2984 RMK AO2 T01780108,KETC,2020-05-05T22:35:00Z,35.93,-77.55,17.8,10.8,70,6,,7.0,29.840551,,,TRUE,TRUE,,,,,,,SCT,8000,,,,,,,VFR,,,,,,,,,,,,METAR,17.0
KC62 052235Z AUTO 02012G16KT 10SM -DZ BKN034 OVC040 07/M03 A2993 RMK AO2 T00781034,KC62,2020-05-05T22:35:00Z,41.47,-85.25,7.8,-3.4,20,12,16,10.0,29.929134,,,TRUE,TRUE,,,,,,-DZ,BKN,3400,OVC,4000,,,,,VFR,,,,,,,,,,,,SPECI,306.0
KEDJ 052235Z AUTO 04011KT 10SM OVC060 05/02 A2987 RMK AO1,KEDJ,2020-05-05T22:35:00Z,40.37,-83.82,5.0,2.0,40,11,,10.0,29.870079,,,TRUE,TRUE,,,,,,,OVC,6000,,,,,,,VFR,,,,,,,,,,,,METAR,342.0
KELO 052235Z AUTO 29005KT 10SM CLR 14/M09 A3003 RMK AO2 LTG DSNT S,KELO,2020-05-05T22:35:00Z,47.82,-91.82,14.0,-9.0,290,5,,10.0,30.029528,,,TRUE,TRUE,,,,,,,CLR,,,,,,,,VFR,,,,,,,,,,,,METAR,443.0
KCPK 052235Z AUTO 08004KT 10SM OVC034 14/06 A2989 RMK AO2 T01350058,KCPK,2020-05-05T22:35:00Z,36.67,-76.32,13.5,5.8,80,4,,10.0,29.890747,,,TRUE,TRUE,,,,,,,OVC,3400,,,,,,,VFR,,,,,,,,,,,,SPECI,6.0
KEVM 052235Z AUTO 33006KT 280V010 10SM SCT075 SCT090 SCT120 15/M03 A3005 RMK AO2 LTG DSNT W T01451032,KEVM,2020-05-05T22:35:00Z,47.42,-92.5,14.5,-3.2,330,6,,10.0,30.050198,,,TRUE,TRUE,,,,,,,SCT,7500,SCT,9000,SCT,12000,,,VFR,,,,,,,,,,,,METAR,421.0
KERY 052235Z AUTO 35009KT 10SM CLR 11/M11 A3004 RMK AO2 T01071112,KERY,2020-05-05T22:35:00Z,46.3,-85.45,10.7,-11.2,350,9,,10.0,30.041338,,,TRUE,TRUE,,,,,,,CLR,,,,,,,,VFR,,,,,,,,,,,,METAR,265.0
KM25 052235Z AUTO 34006KT 10SM SCT041 BKN050 OVC060 18/11 A2992 RMK AO2 PWINO,KM25,2020-05-05T22:35:00Z,36.77,-88.58,18.0,11.0,340,6,,10.0,29.920275,,,TRUE,TRUE,,,,,TRUE,,SCT,4100,BKN,5000,OVC,6000,,,VFR,,,,,,,,,,,,METAR,160.0
KF46 052235Z AUTO 36011G16KT 10SM CLR 25/09 A3008 RMK AO2 LTG DSNT N T02450088,KF46,2020-05-05T22:35:00Z,32.93,-96.43,24.5,8.8,360,11,16,10.0,30.079725,,,TRUE,TRUE,,,,,,,CLR,,,,,,,,VFR,,,,,,,,,,,,METAR,176.0
KFBL 052235Z AUTO 33005KT 10SM OVC100 13/M03 A3005 RMK AO2 LTG DSNT W,KFBL,2020-05-05T22:35:00Z,44.33,-93.32,13.0,-3.0,330,5,,10.0,30.050198,,,TRUE,TRUE,,,,,,,OVC,10000,,,,,,,VFR,,,,,,,,,,,,METAR,322.0
KFFL 052235Z AUTO 06005KT 7SM BKN005 BKN015 BKN041 07/07 A2995 RMK A01,KFFL,2020-05-05T22:35:00Z,41.03,-91.97,7.0,7.0,60,5,,7.0,29.949802,,,TRUE,TRUE,,,,,,,BKN,500,BKN,1500,BKN,4100,,,IFR,,,,,,,,,,,,METAR,244.0
KOMH 052235Z AUTO 06003KT 10SM -RA OVC050 09/07 A2988 RMK AO2,KOMH,2020-05-05T22:35:00Z,38.25,-78.05,9.0,7.0,60,3,,10.0,29.878937,,,TRUE,TRUE,,,,,,-RA,OVC,5000,,,,,,,VFR,,,,,,,,,,,,SPECI,142.0
KRCM 052235Z AUTO 30016G25KT 10SM 21/00 A2997 RMK AO2,KRCM,2020-05-05T22:35:00Z,38.78,-93.8,21.0,0.0,300,16,25,10.0,29.970472,,,TRUE,TRUE,,,,,,,,,,,,,,,,,,,,,,,,,,,SPECI,244.0
KRCX 052235Z AUTO 00000KT 10SM CLR 14/M07 A3004 RMK AO2 T01401069,KRCX,2020-05-05T22:35:00Z,45.5,-91.0,14.0,-6.9,0,0,,10.0,30.041338,,,TRUE,TRUE,,,,,,,CLR,,,,,,,,VFR,,,,,,,,,,,,SPECI,377.0
KSUW 052235Z AUTO 05004KT 10SM BKN090 06/M01 A3010 RMK AO2 T00591009,KSUW,2020-05-05T22:35:00Z,46.68,-92.1,5.9,-0.9,50,4,,10.0,30.100393,,,TRUE,TRUE,,,,,,,BKN,9000,,,,,,,VFR,,,,,,,,,,,,SPECI,206.0
KGAF 052235Z AUTO 33007KT 10SM CLR 13/04 A3016 RMK AO2,KGAF,2020-05-05T22:35:00Z,48.4,-97.37,13.0,4.0,330,7,,10.0,30.159449,,,TRUE,TRUE,,,,,,,CLR,,,,,,,,VFR,,,,,,,,,,,,SPECI,252.0
KANQ 052235Z AUTO 06008KT 10SM FEW060 09/M05 A2992 RMK AO2,KANQ,2020-05-05T22:35:00Z,41.63,-85.08,9.0,-5.0,60,8,,10.0,29.920275,,,TRUE,TRUE,,,,,,,FEW,6000,,,,,,,VFR,,,,,,,,,,,,SPECI,303.0
KO22 052235Z AUTO VRB06KT 10SM CLR 27/00 A3012 RMK A01,KO22,2020-05-05T22:35:00Z,38.03,-120.42,27.0,0.0,0,6,,10.0,30.121063,,,TRUE,TRUE,,,,,,,CLR,,,,,,,,VFR,,,,,,,,,,,,SPECI,646.0
KVNC 052235Z AUTO 31013KT 9SM CLR 27/20 A2996 RMK AO2,KVNC,2020-05-05T22:35:00Z,27.07,-82.43,27.0,20.0,310,13,,9.0,29.958662,,,TRUE,TRUE,,,,,,,CLR,,,,,,,,VFR,,,,,,,,,,,,SPECI,6.0
KD50 052235Z AUTO 30005KT 10SM FEW028 BKN065 BKN075 10/08 A3024 RMK AO2,KD50,2020-05-05T22:35:00Z,48.93,-103.3,10.0,8.0,300,5,,10.0,30.239174,,,TRUE,TRUE,,,,,,,FEW,2800,BKN,6500,BKN,7500,,,VFR,,,,,,,,,,,,SPECI,595.0
KFDW 052235Z AUTO 21006KT 10SM SCT060 BKN075 27/17 A2976 RMK AO1 LTG DSNT N AND NW,KFDW,2020-05-05T22:35:00Z,34.32,-81.12,27.0,17.0,210,6,,10.0,29.760826,,,TRUE,TRUE,,,,,,,SCT,6000,BKN,7500,,,,,VFR,,,,,,,,,,,,SPECI,176.0
KHBI 052235Z AUTO 00000KT 10SM OVC028 20/14 A2983 RMK AO2 T01950144,KHBI,2020-05-05T22:35:00Z,35.65,-79.9,19.5,14.4,0,0,,10.0,29.828741,,,TRUE,TRUE,,,,,,,OVC,2800,,,,,,,MVFR,,,,,,,,,,,,SPECI,205.0
KINF 052235Z AUTO 22004KT 7SM CLR 27/17 A2995 RMK AO2,KINF,2020-05-05T22:35:00Z,28.8,-82.32,27.0,17.0,220,4,,7.0,29.949802,,,TRUE,TRUE,,,,,,,CLR,,,,,,,,VFR,,,,,,,,,,,,SPECI,15.0
KS32 052235Z AUTO 02017KT 6SM BR SCT019 BKN026 BKN032 08/08 A3017 RMK AO2,KS32,2020-05-05T22:35:00Z,47.42,-98.1,8.0,8.0,20,17,,6.0,30.171259,,,TRUE,TRUE,,,,,,BR,SCT,1900,BKN,2600,BKN,3200,,,MVFR,,,,,,,,,,,,SPECI,684.0
KJYO 052235Z AUTO 05003KT 10SM OVC075 13/03 A2987 RMK AO2,KJYO,2020-05-05T22:35:00Z,39.07,-77.57,13.0,3.0,50,3,,10.0,29.870079,,,TRUE,TRUE,,,,,,,OVC,7500,,,,,,,VFR,,,,,,,,,,,,SPECI,119.0
KXSA 052235Z AUTO 00000KT 10SM SCT065 13/11 A2990 RMK AO2 T01260111,KXSA,2020-05-05T22:35:00Z,37.87,-76.9,12.6,11.1,0,0,,10.0,29.899607,,,TRUE,TRUE,,,,,,,SCT,6500,,,,,,,VFR,,,,,,,,,,,,SPECI,42.0
KW75 052235Z AUTO 17003KT 10SM SCT043 OVC060 12/08 A2989 RMK AO1 T01230080,KW75,2020-05-05T22:35:00Z,37.6,-76.45,12.3,8.0,170,3,,10.0,29.890747,,,TRUE,TRUE,,,,,,,SCT,4300,OVC,6000,,,,,VFR,,,,,,,,,,,,SPECI,9.0
KRPD 052235Z AUTO 00000KT 10SM CLR 14/M11 A3004 RMK AO2 T01361107,KRPD,2020-05-05T22:35:00Z,45.42,-91.77,13.6,-10.7,0,0,,10.0,30.041338,,,TRUE,TRUE,,,,,,,CLR,,,,,,,,VFR,,,,,,,,,,,,SPECI,338.0
K2C8 052235Z AUTO 32008G14KT 10SM FEW065 14/01 A3014 RMK AO2,K2C8,2020-05-05T22:35:00Z,48.78,-97.63,14.0,1.0,320,8,14,10.0,30.138779,,,TRUE,TRUE,,,,,,,FEW,6500,,,,,,,VFR,,,,,,,,,,,,SPECI,272.0
KIKW 052235Z AUTO 06008KT 10SM CLR 07/M04 A3001 RMK AO2 T00651036,KIKW,2020-05-05T22:35:00Z,43.67,-84.27,6.5,-3.6,60,8,,10.0,30.008858,,,TRUE,TRUE,,,,,,,CLR,,,,,,,,VFR,,,,,,,,,,,,METAR,194.0
KDLL 052235Z AUTO 04007KT 10SM SCT050 BKN090 10/00 A3000 RMK AO2 T01040001,KDLL,2020-05-05T22:35:00Z,43.52,-89.77,10.4,0.1,40,7,,10.0,30.0,,,TRUE,TRUE,,,,,,,SCT,5000,BKN,9000,,,,,VFR,,,,,,,,,,,,SPECI,299.0
K96D 052235Z AUTO 31008G14KT 10SM CLR 13/01 A3015 RMK AO2,K96D,2020-05-05T22:35:00Z,48.93,-97.9,13.0,1.0,310,8,14,10.0,30.15059,,,TRUE,TRUE,,,,,,,CLR,,,,,,,,VFR,,,,,,,,,,,,SPECI,290.0
KJNX 052235Z AUTO 00000KT 10SM OVC048 22/15 A2980 RMK AO2,KJNX,2020-05-05T22:35:00Z,35.53,-78.38,22.0,15.0,0,0,,10.0,29.799213,,,TRUE,TRUE,,,,,,,OVC,4800,,,,,,,VFR,,,,,,,,,,,,SPECI,50.0
KUNU 052235Z AUTO 04006KT 10SM CLR 10/M03 A3001 RMK AO2 T01021032,KUNU,2020-05-05T22:35:00Z,43.42,-88.7,10.2,-3.2,40,6,,10.0,30.008858,,,TRUE,TRUE,,,,,,,CLR,,,,,,,,VFR,,,,,,,,,,,,SPECI,285.0
KY51 052235Z AUTO 03004KT 10SM OVC080 09/05 A3002 RMK AO1 T00930050,KY51,2020-05-05T22:35:00Z,43.58,-90.9,9.3,5.0,30,4,,10.0,30.02067,,,TRUE,TRUE,,,,,,,OVC,8000,,,,,,,VFR,,,,,,,,,,,,SPECI,394.0
KVER 052235Z AUTO 29017G22KT 10SM SCT085 22/02 A2993 RMK AO2 T02230024,KVER,2020-05-05T22:35:00Z,38.95,-92.68,22.3,2.4,290,17,22,10.0,29.929134,,,TRUE,TRUE,,,,,,,SCT,8500,,,,,,,VFR,,,,,,,,,,,,SPECI,218.0
KFYJ 052235Z AUTO 12003KT 10SM SCT065 OVC085 12/10 A2991 RMK AO1 T01220101,KFYJ,2020-05-05T22:35:00Z,37.52,-76.77,12.2,10.1,120,3,,10.0,29.911417,,,TRUE,TRUE,,,,,,,SCT,6500,OVC,8500,,,,,VFR,,,,,,,,,,,,METAR,7.0
KFWZ 052235Z AUTO 30008KT 10SM CLR 11/M16 A3026 RMK AO2,KFWZ,2020-05-05T22:35:00Z,42.52,-108.78,11.0,-16.0,300,8,,10.0,30.259842,,,TRUE,TRUE,,,,,,,CLR,,,,,,,,VFR,,,,,,,,,,,,METAR,2588.0
KGAO 052235Z AUTO 23012KT 10SM CLR 28/21 A2990 RMK AO2 T02820206,KGAO,2020-05-05T22:35:00Z,29.45,-90.27,28.2,20.6,230,12,,10.0,29.899607,,,TRUE,TRUE,,,,,,,CLR,,,,,,,,VFR,,,,,,,,,,,,METAR,1.0
KMZH 052235Z AUTO 04003KT 10SM SCT065 OVC070 12/00 A3005 RMK AO2 LTG DSNT W,KMZH,2020-05-05T22:35:00Z,46.42,-92.8,12.0,0.0,40,3,,10.0,30.050198,,,TRUE,TRUE,,,,,,,SCT,6500,OVC,7000,,,,,VFR,,,,,,,,,,,,METAR,328.0
KN03 052235Z AUTO 01005KT 10SM CLR 07/M09 A2993 RMK AO2,KN03,2020-05-05T22:35:00Z,42.6,-76.22,7.0,-9.0,10,5,,10.0,29.929134,,,TRUE,TRUE,,,,,,,CLR,,,,,,,,VFR,,,,,,,,,,,,METAR,366.0
KFKR 052235Z AUTO 08005KT 10SM OVC014 08/04 A2993 RMK AO2 T00750044,KFKR,2020-05-05T22:35:00Z,40.27,-86.57,7.5,4.4,80,5,,10.0,29.929134,,,TRUE,TRUE,,,,,,,OVC,1400,,,,,,,MVFR,,,,,,,,,,,,METAR,262.0
KOBE 052235Z AUTO 16004KT 10SM CLR 30/17 A2990 RMK AO2,KOBE,2020-05-05T22:35:00Z,27.27,-80.85,30.0,17.0,160,4,,10.0,29.899607,,,TRUE,TRUE,,,,,,,CLR,,,,,,,,VFR,,,,,,,,,,,,METAR,11.0
KOCW 052235Z AUTO 05010KT 10SM BKN035 OVC041 17/11 A2985 RMK AO2 T01710106,KOCW,2020-05-05T22:35:00Z,35.57,-77.05,17.1,10.6,50,10,,10.0,29.84941,,,TRUE,TRUE,,,,,,,BKN,3500,OVC,4100,,,,,VFR,,,,,,,,,,,,METAR,12.0
KOIN 052235Z AUTO 00000KT 10SM SCT100 23/01 A3016 RMK AO1 T02250010,KOIN,2020-05-05T22:35:00Z,39.83,-100.53,22.5,1.0,0,0,,10.0,30.159449,,,TRUE,TRUE,,,,,,,SCT,10000,,,,,,,VFR,,,,,,,,,,,,METAR,824.0
KOJA 052235Z AUTO 06004KT 10SM CLR 23/01 A3014 RMK AO2 LTG DSNT N,KOJA,2020-05-05T22:35:00Z,35.55,-98.67,23.0,1.0,60,4,,10.0,30.138779,,,TRUE,TRUE,,,,,,,CLR,,,,,,,,VFR,,,,,,,,,,,,METAR,490.0
KOLZ 052235Z AUTO 04010KT 5SM BR FEW025 BKN029 BKN034 08/08 A3001 RMK A01,KOLZ,2020-05-05T22:35:00Z,42.67,-91.97,8.0,8.0,40,10,,5.0,30.008858,,,TRUE,TRUE,,,,,,BR,FEW,2500,BKN,2900,BKN,3400,,,MVFR,,,,,,,,,,,,METAR,328.0
KONZ 052235Z AUTO 04009KT 10SM OVC120 10/M01 A2991 RMK AO2 T00971015,KONZ,2020-05-05T22:35:00Z,42.1,-83.15,9.7,-1.5,40,9,,10.0,29.911417,,,TRUE,TRUE,,,,,,,OVC,12000,,,,,,,VFR,,,,,,,,,,,,METAR,180.0
KOWP 052235Z AUTO 35006KT 10SM CLR 25/01 A3009 RMK AO2 LTG DSNT NW T02510012 PWINO,KOWP,2020-05-05T22:35:00Z,36.18,-96.15,25.1,1.2,350,6,,10.0,30.088583,,,TRUE,TRUE,,,,,TRUE,,CLR,,,,,,,,VFR,,,,,,,,,,,,METAR,272.0
KBBP 052235Z AUTO 00000KT 10SM CLR 25/20 A2976 RMK AO2,KBBP,2020-05-05T22:35:00Z,34.62,-79.73,25.0,20.0,0,0,,10.0,29.760826,,,TRUE,TRUE,,,,,,,CLR,,,,,,,,VFR,,,,,,,,,,,,SPECI,45.0
KIRS 052235Z AUTO 04008KT 10SM OVC065 09/M04 A2993 RMK AO2 T00931041,KIRS,2020-05-05T22:35:00Z,41.8,-85.43,9.3,-4.1,40,8,,10.0,29.929134,,,TRUE,TRUE,,,,,,,OVC,6500,,,,,,,VFR,,,,,,,,,,,,METAR,282.0
KOZS 052235Z AUTO 26020G24KT 10SM SCT075 SCT090 20/02 A2998 RMK AO2 LTG DSNT NW,KOZS,2020-05-05T22:35:00Z,37.97,-92.68,20.0,2.0,260,20,24,10.0,29.97933,,,TRUE,TRUE,,,,,,,SCT,7500,SCT,9000,,,,,VFR,,,,,,,,,,,,METAR,324.0
K1S5 052235Z AUTO 00000KT 10SM 25/03 A3001 RMK AO2 T02500033,K1S5,2020-05-05T22:35:00Z,46.33,-119.97,25.0,3.3,0,0,,10.0,30.008858,,,TRUE,TRUE,,,,,,,,,,,,,,,,,,,,,,,,,,,SPECI,234.0
KSIF 052235Z AUTO 01003KT 10SM OVC031 13/09 A2984 RMK AO2 T01300093,KSIF,2020-05-05T22:35:00Z,36.43,-79.85,13.0,9.3,10,3,,10.0,29.840551,,,TRUE,TRUE,,,,,,,OVC,3100,,,,,,,VFR,,,,,,,,,,,,METAR,211.0
KSHL 052235Z AUTO 34008KT 10SM FEW015 FEW025 OVC037 09/08 A3009 RMK AO2,KSHL,2020-05-05T22:35:00Z,43.22,-95.82,9.0,8.0,340,8,,10.0,30.088583,,,TRUE,TRUE,,,,,,,FEW,1500,FEW,2500,OVC,3700,,,VFR,,,,,,,,,,,,METAR,432.0
KSEZ 052235Z AUTO 18006KT 10SM CLR 30/M02 A3012 RMK AO2,KSEZ,2020-05-05T22:35:00Z,34.85,-111.78,30.0,-2.0,180,6,,10.0,30.121063,,,TRUE,TRUE,,,,,,,CLR,,,,,,,,VFR,,,,,,,,,,,,METAR,1473.0
KSEP 052235Z AUTO 01010G18KT 10SM CLR 26/05 A3012 RMK AO2 T02570052,KSEP,2020-05-05T22:35:00Z,32.22,-98.17,25.7,5.2,10,10,18,10.0,30.121063,,,TRUE,TRUE,,,,,,,CLR,,,,,,,,VFR,,,,,,,,,,,,METAR,402.0
KSDA 052235Z AUTO 33025G33KT 10SM SCT039 SCT046 15/06 A3006 RMK AO2,KSDA,2020-05-05T22:35:00Z,40.75,-95.42,15.0,6.0,330,25,33,10.0,30.059055,,,TRUE,TRUE,,,,,,,SCT,3900,SCT,4600,,,,,VFR,,,,,,,,,,,,METAR,296.0
KSAZ 052235Z AUTO 36008KT 10SM BKN050 OVC060 12/02 A3008 RMK AO2 LTG DSNT SW,KSAZ,2020-05-05T22:35:00Z,46.37,-94.8,12.0,2.0,360,8,,10.0,30.079725,,,TRUE,TRUE,,,,,,,BKN,5000,OVC,6000,,,,,VFR,,,,,,,,,,,,METAR,392.0
KBRY 052235Z AUTO 36004KT 4SM BKN009 OVC013 11/11 A2985 RMK AO1,KBRY,2020-05-05T22:35:00Z,37.82,-85.5,11.0,11.0,360,4,,4.0,29.84941,,,TRUE,TRUE,,,,,,,BKN,900,OVC,1300,,,,,IFR,,,,,,,,,,,,SPECI,204.0
KARW 052235Z AUTO 18010KT 7SM CLR 26/21 A2980 RMK AO2,KARW,2020-05-05T22:35:00Z,32.42,-80.63,26.0,21.0,180,10,,7.0,29.799213,,,TRUE,TRUE,,,,,,,CLR,,,,,,,,VFR,,,,,,,,,,,,SPECI,4.0
K8W2 052235Z AUTO 00000KT 5SM SCT007 OVC036 09/09 A2986 RMK AO1 P0002 T00920086,K8W2,2020-05-05T22:35:00Z,38.65,-78.7,9.2,8.6,0,0,,5.0,29.861221,,,TRUE,TRUE,,,,,,,SCT,700,OVC,3600,,,,,MVFR,,,,,,0.02,,,,,,SPECI,297.0
K2J9 052235Z AUTO 25008G15KT 10SM FEW050 29/18 A2989 RMK AO2,K2J9,2020-05-05T22:35:00Z,30.6,-84.55,29.0,18.0,250,8,15,10.0,29.890747,,,TRUE,TRUE,,,,,,,FEW,5000,,,,,,,VFR,,,,,,,,,,,,SPECI,69.0
KPAN 052235Z AUTO 27007G13KT 10SM CLR 29/M05 A3015 RMK AO2,KPAN,2020-05-05T22:35:00Z,34.25,-111.33,29.0,-5.0,270,7,13,10.0,30.15059,,,TRUE,TRUE,,,,,,,CLR,,,,,,,,VFR,,,,,,,,,,,,METAR,1572.0
KPBH 052235Z AUTO 32005KT 10SM BKN110 13/M07 A3002 RMK AO2 LTG DSNT W T01251069,KPBH,2020-05-05T22:35:00Z,45.7,-90.4,12.5,-6.9,320,5,,10.0,30.02067,,,TRUE,TRUE,,,,,,,BKN,11000,,,,,,,VFR,,,,,,,,,,,,METAR,449.0
KPEX 052235Z AUTO 00000KT 10SM SCT055 SCT075 OVC090 14/02 A3007 RMK AO2 LTG DSNT E T01360019,KPEX,2020-05-05T22:35:00Z,45.37,-94.73,13.6,1.9,0,0,,10.0,30.070866,,,TRUE,TRUE,,,,,,,SCT,5500,SCT,7500,OVC,9000,,,VFR,,,,,,,,,,,,METAR,360.0
KPEA 052235Z AUTO 03006KT 7SM RA BKN007 BKN012 07/07 A2999 RMK AO2 T00700066,KPEA,2020-05-05T22:35:00Z,41.4,-92.95,7.0,6.6,30,6,,7.0,29.991142,,,TRUE,TRUE,,,,,,RA,BKN,700,BKN,1200,,,,,IFR,,,,,,,,,,,,METAR,270.0
KPEZ 052235Z AUTO 04011G17KT 10SM CLR 30/20 A2991 RMK AO2 T03040197,KPEZ,2020-05-05T22:35:00Z,28.95,-98.52,30.4,19.7,40,11,17,10.0,29.911417,,,TRUE,TRUE,,,,,,,CLR,,,,,,,,VFR,,,,,,,,,,,,METAR,132.0
KPHN 052235Z AUTO 36009KT 10SM CLR 05/M02 A2998 RMK AO2,KPHN,2020-05-05T22:35:00Z,42.92,-82.52,5.0,-2.0,360,9,,10.0,29.97933,,,TRUE,TRUE,,,,,,,CLR,,,,,,,,VFR,,,,,,,,,,,,METAR,198.0
KPIM 052235Z AUTO 25007KT 10SM CLR 27/17 A2987 RMK AO2 LTG DSNT NE AND NW T02730166,KPIM,2020-05-05T22:35:00Z,32.83,-84.88,27.3,16.6,250,7,,10.0,29.870079,,,TRUE,TRUE,,,,,,,CLR,,,,,,,,VFR,,,,,,,,,,,,METAR,275.0
KPJC 052235Z AUTO 00000KT 10SM SCT075 OVC100 13/M05 A2980 RMK AO2,KPJC,2020-05-05T22:35:00Z,40.8,-80.17,13.0,-5.0,0,0,,10.0,29.799213,,,TRUE,TRUE,,,,,,,SCT,7500,OVC,10000,,,,,VFR,,,,,,,,,,,,METAR,284.0
KPLR 052235Z AUTO 24007KT 10SM CLR 25/22 A2985 RMK A01,KPLR,2020-05-05T22:35:00Z,33.57,-86.25,25.0,22.0,240,7,,10.0,29.84941,,,TRUE,TRUE,,,,,,,CLR,,,,,,,,VFR,,,,,,,,,,,,METAR,148.0
KPNM 052235Z AUTO 35006KT 10SM CLR 15/M02 A3005 RMK AO2 LTG DSNT W,KPNM,2020-05-05T22:35:00Z,45.57,-93.6,15.0,-2.0,350,6,,10.0,30.050198,,,TRUE,TRUE,,,,,,,CLR,,,,,,,,VFR,,,,,,,,,,,,METAR,298.0
KPQI 052235Z AUTO 35012KT 10SM -RA BKN016 OVC039 03/01 A2983 RMK AO2 P0000,KPQI,2020-05-05T22:35:00Z,46.67,-68.03,3.0,1.0,350,12,,10.0,29.828741,,,TRUE,TRUE,,,,,,-RA,BKN,1600,OVC,3900,,,,,MVFR,,,,,,0.005,,,,,,SPECI,146.0
KPRS 052235Z AUTO 36012G18KT 10SM CLR 33/05 A3002 RMK AO2 T03330047,KPRS,2020-05-05T22:35:00Z,29.63,-104.35,33.3,4.7,360,12,18,10.0,30.02067,,,TRUE,TRUE,,,,,,,CLR,,,,,,,,VFR,,,,,,,,,,,,METAR,896.0
KPUJ 052235Z AUTO 25004KT 7SM SCT030 SCT046 SCT065 25/17 A2986 RMK AO2 LTG DSNT NE AND NW,KPUJ,2020-05-05T22:35:00Z,33.92,-84.93,25.0,17.0,250,4,,7.0,29.861221,,,TRUE,TRUE,,,,,,,SCT,3000,SCT,4600,SCT,6500,,,VFR,,,,,,,,,,,,METAR,393.0
KPXE 052235Z AUTO 25009G16KT 10SM CLR 29/15 A2983 RMK AO2 T02950149,KPXE,2020-05-05T22:35:00Z,32.52,-83.77,29.5,14.9,250,9,16,10.0,29.828741,,,TRUE,TRUE,,,,,,,CLR,,,,,,,,VFR,,,,,,,,,,,,METAR,127.0
KPYX 052235Z AUTO 01005KT 10SM CLR 23/M04 A3016 RMK AO2 T02331039,KPYX,2020-05-05T22:35:00Z,36.42,-100.75,23.3,-3.9,10,5,,10.0,30.159449,,,TRUE,TRUE,,,,,,,CLR,,,,,,,,VFR,,,,,,,,,,,,METAR,889.0
KPZQ 052235Z AUTO 03003KT 10SM CLR 07/M07 A3005 RMK AO2 T00651069,KPZQ,2020-05-05T22:35:00Z,45.4,-83.82,6.5,-6.9,30,3,,10.0,30.050198,,,TRUE,TRUE,,,,,,,CLR,,,,,,,,VFR,,,,,,,,,,,,METAR,204.0
KRCE 052235Z AUTO 04008KT 10SM 23/02 A3013 RMK AO2 LTG DSNT N,KRCE,2020-05-05T22:35:00Z,35.48,-97.82,23.0,2.0,40,8,,10.0,30.129921,,,TRUE,TRUE,,,,,,,,,,,,,,,,,,,,,,,,,,,METAR,413.0
KRCR 052235Z AUTO 04008KT 7SM -RA OVC011 06/03 A2994 RMK AO2,KRCR,2020-05-05T22:35:00Z,41.07,-86.18,6.0,3.0,40,8,,7.0,29.940945,,,TRUE,TRUE,,,,,,-RA,OVC,1100,,,,,,,MVFR,,,,,,,,,,,,METAR,241.0
KRDK 052235Z AUTO 34020G26KT 10SM SCT030 BKN050 OVC055 13/06 A3007 RMK AO2,KRDK,2020-05-05T22:35:00Z,41.02,-95.27,13.0,6.0,340,20,26,10.0,30.070866,,,TRUE,TRUE,,,,,,,SCT,3000,BKN,5000,OVC,5500,,,VFR,,,,,,,,,,,,METAR,318.0
KSUT 052235Z AUTO 14004KT 10SM CLR 21/17 A2982 RMK AO2 T02050172,KSUT,2020-05-05T22:35:00Z,33.93,-78.08,20.5,17.2,140,4,,10.0,29.819881,,,TRUE,TRUE,,,,,,,CLR,,,,,,,,VFR,,,,,,,,,,,,SPECI,8.0
KEFT 052235Z AUTO 05011KT 10SM BKN060 08/03 A2999 RMK AO2 T00800025,KEFT,2020-05-05T22:35:00Z,42.62,-89.6,8.0,2.5,50,11,,10.0,29.991142,,,TRUE,TRUE,,,,,,,BKN,6000,,,,,,,VFR,,,,,,,,,,,,SPECI,331.0
KEZS 052235Z AUTO 08008KT 10SM CLR 13/M06 A3004 RMK AO2 T01301058,KEZS,2020-05-05T22:35:00Z,44.78,-88.57,13.0,-5.8,80,8,,10.0,30.041338,,,TRUE,TRUE,,,,,,,CLR,,,,,,,,VFR,,,,,,,,,,,,SPECI,248.0
KEKX 052235Z AUTO 28009KT 10SM BKN010 OVC015 13/12 A2987 RMK AO2 T01260124,KEKX,2020-05-05T22:35:00Z,,,12.6,12.4,280,9,,10.0,29.870079,,,TRUE,TRUE,,,,,,,BKN,1000,OVC,1500,,,,,MVFR,,,,,,,,,,,,SPECI,
KLQK 052235Z AUTO 29010G18KT 230V310 10SM BKN060 OVC070 25/19 A2977 RMK AO2 T02500194,KLQK,2020-05-05T22:35:00Z,34.82,-82.7,25.0,19.4,290,10,18,10.0,29.769686,,,TRUE,TRUE,,,,,,,BKN,6000,OVC,7000,,,,,VFR,,,,,,,,,,,,SPECI,309.0
KLNP 052235Z AUTO 29005KT 10SM SCT021 SCT031 SCT039 18/15 A2979 RMK AO2,KLNP,2020-05-05T22:35:00Z,36.97,-82.52,18.0,15.0,290,5,,10.0,29.790354,,,TRUE,TRUE,,,,,,,SCT,2100,SCT,3100,SCT,3900,,,VFR,,,,,,,,,,,,SPECI,817.0
KPTB 052235Z AUTO 10003KT 10SM BKN042 OVC050 15/08 A2988 RMK AO2 T01460079,KPTB,2020-05-05T22:35:00Z,37.17,-77.52,14.6,7.9,100,3,,10.0,29.878937,,,TRUE,TRUE,,,,,,,BKN,4200,OVC,5000,,,,,VFR,,,,,,,,,,,,SPECI,59.0
KEMV 052235Z AUTO 05005KT 10SM OVC041 15/09 A2989 RMK AO2 T01520085,KEMV,2020-05-05T22:35:00Z,36.68,-77.48,15.2,8.5,50,5,,10.0,29.890747,,,TRUE,TRUE,,,,,,,OVC,4100,,,,,,,VFR,,,,,,,,,,,,SPECI,39.0
KRRL 052235Z AUTO 13006KT 10SM CLR 13/M06 A3002 RMK AO2 T01251060 TSNO,KRRL,2020-05-05T22:35:00Z,45.2,-89.72,12.5,-6.0,130,6,,10.0,30.02067,,,TRUE,TRUE,,,TRUE,,,,CLR,,,,,,,,VFR,,,,,,,,,,,,SPECI,401.0
KSPF 052235Z AUTO 33024G30KT 10SM FEW080 13/M04 A3022 RMK AO2,KSPF,2020-05-05T22:35:00Z,44.47,-103.77,13.0,-4.0,330,24,30,10.0,30.221457,,,TRUE,TRUE,,,,,,,FEW,8000,,,,,,,VFR,,,,,,,,,,,,SPECI,1188.0
KSPA 052235Z AUTO 08003KT 3SM -VCTSRA SCT014 BKN050 OVC065 17/16 A2978 RMK AO2 LTG DSNT ALQS P0006,KSPA,2020-05-05T22:35:00Z,34.92,-81.93,17.0,16.0,80,3,,3.0,29.778543,,,TRUE,TRUE,,,,,,VCTS -RA,SCT,1400,BKN,5000,OVC,6500,,,MVFR,,,,,,0.06,,,,,,SPECI,303.0
KOXV 052235Z AUTO 02008G15KT 3SM -RA OVC005 08/08 A2997 RMK AO2,KOXV,2020-05-05T22:35:00Z,41.28,-93.12,8.0,8.0,20,8,15,3.0,29.970472,,,TRUE,TRUE,,,,,,-RA,OVC,500,,,,,,,IFR,,,,,,,,,,,,METAR,283.0
KVBW 052235Z AUTO 00000KT 10SM OVC027 10/08 A2984 RMK AO1 T01000080,KVBW,2020-05-05T22:35:00Z,38.37,-78.97,10.0,8.0,0,0,,10.0,29.840551,,,TRUE,TRUE,,,,,,,OVC,2700,,,,,,,MVFR,,,,,,,,,,,,SPECI,355.0
K4O4 052235Z AUTO 36004KT 10SM CLR 22/08 A3003 RMK AO2,K4O4,2020-05-05T22:35:00Z,33.92,-94.87,22.0,8.0,360,4,,10.0,30.029528,,,TRUE,TRUE,,,,,,,CLR,,,,,,,,VFR,,,,,,,,,,,,METAR,144.0
K2D5 052235Z AUTO 33011KT 10SM VCTS BKN026 BKN034 OVC055 08/08 A3014 RMK AO2 LTG DSNT SW,K2D5,2020-05-05T22:35:00Z,46.17,-98.08,8.0,8.0,330,11,,10.0,30.138779,,,TRUE,TRUE,,,,,,VCTS,BKN,2600,BKN,3400,OVC,5500,,,MVFR,,,,,,,,,,,,METAR,407.0
KGLW 052235Z AUTO 31009G17KT 10SM SCT021 BKN034 OVC044 16/07 A2987 RMK AO2 T01630068,KGLW,2020-05-05T22:35:00Z,37.03,-85.95,16.3,6.8,310,9,17,10.0,29.870079,,,TRUE,TRUE,,,,,,,SCT,2100,BKN,3400,OVC,4400,,,VFR,,,,,,,,,,,,METAR,218.0
KFFX 052235Z AUTO 07005KT 10SM CLR 13/M03 A2996 RMK AO2 T01251026,KFFX,2020-05-05T22:35:00Z,43.43,-86.0,12.5,-2.6,70,5,,10.0,29.958662,,,TRUE,TRUE,,,,,,,CLR,,,,,,,,VFR,,,,,,,,,,,,METAR,236.0
KISQ 052235Z AUTO 21003KT 10SM CLR 07/M07 A3004 RMK AO2 T00691073,KISQ,2020-05-05T22:35:00Z,45.97,-86.17,6.9,-7.3,210,3,,10.0,30.041338,,,TRUE,TRUE,,,,,,,CLR,,,,,,,,VFR,,,,,,,,,,,,METAR,209.0
K3I2 052235Z AUTO 00000KT 1 1/2SM -RA OVC011 10/09 A2980 RMK AO2 T00950090,K3I2,2020-05-05T22:35:00Z,38.92,-82.1,9.5,9.0,0,0,,1.5,29.799213,,,TRUE,TRUE,,,,,,-RA,OVC,1100,,,,,,,IFR,,,,,,,,,,,,METAR,196.0
K33V 052235Z AUTO 31017KT 10SM CLR 12/M16 A3034 RMK AO1,K33V,2020-05-05T22:35:00Z,40.75,-106.28,12.0,-16.0,310,17,,10.0,30.339567,,,TRUE,TRUE,,,,,,,CLR,,,,,,,,VFR,,,,,,,,,,,,METAR,2484.0
K3J7 052235Z AUTO 23008G15KT 160V280 10SM CLR 28/18 A2981 RMK AO2 LTG DSNT NW,K3J7,2020-05-05T22:35:00Z,33.6,-83.13,28.0,18.0,230,8,15,10.0,29.811024,,,TRUE,TRUE,,,,,,,CLR,,,,,,,,VFR,,,,,,,,,,,,METAR,206.0
KVDF 052235Z AUTO 28005KT 10SM CLR 27/19 A2995 RMK AO2,KVDF,2020-05-05T22:35:00Z,28.02,-82.33,27.0,19.0,280,5,,10.0,29.949802,,,TRUE,TRUE,,,,,,,CLR,,,,,,,,VFR,,,,,,,,,,,,SPECI,7.0
KW31 052235Z AUTO 00000KT 10SM OVC033 13/11 A2985 RMK AO1 T01270113,KW31,2020-05-05T22:35:00Z,36.95,-78.18,12.7,11.3,0,0,,10.0,29.84941,,,TRUE,TRUE,,,,,,,OVC,3300,,,,,,,VFR,,,,,,,,,,,,SPECI,162.0
KGMJ 052235Z AUTO 31011G14KT CLR 22/02 A3007 RMK AO2 PWINO,KGMJ,2020-05-05T22:35:00Z,36.6,-94.73,22.0,2.0,310,11,14,,30.070866,,,TRUE,TRUE,,,,,TRUE,,CLR,,,,,,,,,,,,,,,,,,,,METAR,254.0
KGNT 052235Z AUTO 18005KT 10SM CLR 24/M04 A3020 RMK AO2 T02371041,KGNT,2020-05-05T22:35:00Z,35.17,-107.9,23.7,-4.1,180,5,,10.0,30.200787,,,TRUE,TRUE,,,,,,,CLR,,,,,,,,VFR,,,,,,,,,,,,METAR,1987.0
K42J 052235Z AUTO 23010KT 9SM CLR 29/14 A2990 RMK A01 TSNO,K42J,2020-05-05T22:35:00Z,29.85,-82.05,29.0,14.0,230,10,,9.0,29.899607,,,TRUE,TRUE,,,TRUE,,,,CLR,,,,,,,,VFR,,,,,,,,,,,,METAR,60.0
KGTR 052235Z 29007KT 10SM FEW026 SCT031 23/18 A2992 RMK AO2,KGTR,2020-05-05T22:35:00Z,33.45,-88.57,23.0,18.0,290,7,,10.0,29.920275,,,,TRUE,,,,,,,FEW,2600,SCT,3100,,,,,VFR,,,,,,,,,,,,SPECI,80.0
KGWR 052235Z AUTO 01007KT 10SM SCT015 BKN030 OVC070 08/08 A3013 RMK A01,KGWR,2020-05-05T22:35:00Z,46.22,-97.65,8.0,8.0,10,7,,10.0,30.129921,,,TRUE,TRUE,,,,,,,SCT,1500,BKN,3000,OVC,7000,,,MVFR,,,,,,,,,,,,METAR,386.0
KSXK 052235Z AUTO 35011KT 10SM BKN027 BKN032 OVC037 09/09 A3010 RMK AO2,KSXK,2020-05-05T22:35:00Z,42.98,-96.17,9.0,9.0,350,11,,10.0,30.100393,,,TRUE,TRUE,,,,,,,BKN,2700,BKN,3200,OVC,3700,,,MVFR,,,,,,,,,,,,SPECI,430.0
KGYB 052235Z AUTO 02009G18KT 10SM SCT055 25/18 A2999 RMK AO2 T02480179,KGYB,2020-05-05T22:35:00Z,30.17,-96.98,24.8,17.9,20,9,18,10.0,29.991142,,,TRUE,TRUE,,,,,,,SCT,5500,,,,,,,VFR,,,,,,,,,,,,METAR,148.0
KGYL 052235Z AUTO 00000KT 10SM SCT085 BKN120 14/M15 A3004 RMK AO2 LTG DSNT W T01381150,KGYL,2020-05-05T22:35:00Z,44.77,-94.08,13.8,-15.0,0,0,,10.0,30.041338,,,TRUE,TRUE,,,,,,,SCT,8500,BKN,12000,,,,,VFR,,,,,,,,,,,,METAR,302.0
KVNW 052235Z AUTO 05011KT 10SM -RA BKN041 OVC048 06/M01 A2992 RMK AO2,KVNW,2020-05-05T22:35:00Z,40.87,-84.62,6.0,-1.0,50,11,,10.0,29.920275,,,TRUE,TRUE,,,,,,-RA,BKN,4100,OVC,4800,,,,,VFR,,,,,,,,,,,,SPECI,239.0
KVTI 052235Z AUTO 05007KT 10SM -DZ SCT009 BKN028 BKN036 11/09 A2999 RMK AO2 T01050092,KVTI,2020-05-05T22:35:00Z,42.22,-92.02,10.5,9.2,50,7,,10.0,29.991142,,,TRUE,TRUE,,,,,,-DZ,SCT,900,BKN,2800,BKN,3600,,,MVFR,,,,,,,,,,,,SPECI,255.0
KIXA 052235Z AUTO 04004KT 10SM OVC041 15/12 A2986 RMK AO2,KIXA,2020-05-05T22:35:00Z,36.33,-77.63,15.0,12.0,40,4,,10.0,29.861221,,,TRUE,TRUE,,,,,,,OVC,4100,,,,,,,VFR,,,,,,,,,,,,SPECI,44.0
KGDB 052235Z AUTO 29006KT 7SM -VCTSDZ SCT015 BKN028 OVC040 10/08 A3011 RMK AO2 LTG DSNT W T01040082,KGDB,2020-05-05T22:35:00Z,44.75,-95.55,10.4,8.2,290,6,,7.0,30.109253,,,TRUE,TRUE,,,,,,VCTS -DZ,SCT,1500,BKN,2800,OVC,4000,,,MVFR,,,,,,,,,,,,METAR,319.0
PAUT 052235Z AUTO 31013G20KT OVC033 04/M02 A2998 RMK AO2 T00361025 PWINO,PAUT,2020-05-05T22:35:00Z,54.15,-165.6,3.6,-2.5,310,13,20,,29.97933,,,TRUE,TRUE,,,,,TRUE,,OVC,3300,,,,,,,,,,,,,,,,,,,METAR,39.0
KRGA 052235Z AUTO 30016G19KT 3SM BKN007 OVC011 13/12 A2983 RMK AO2,KRGA,2020-05-05T22:35:00Z,37.63,-84.33,13.0,12.0,300,16,19,3.0,29.828741,,,TRUE,TRUE,,,,,,,BKN,700,OVC,1100,,,,,IFR,,,,,,,,,,,,METAR,305.0
KSLB 052235Z AUTO 36010G16KT 4SM -RA FEW013 SCT017 BKN029 08/08 A3005 RMK AO2,KSLB,2020-05-05T22:35:00Z,42.6,-95.22,8.0,8.0,360,10,16,4.0,30.050198,,,TRUE,TRUE,,,,,,-RA,FEW,1300,SCT,1700,BKN,2900,,,MVFR,,,,,,,,,,,,METAR,454.0
KCLK 052235Z AUTO 03008KT 10SM CLR 23/M01 A3015 RMK AO2,KCLK,2020-05-05T22:35:00Z,35.53,-98.93,23.0,-1.0,30,8,,10.0,30.15059,,,TRUE,TRUE,,,,,,,CLR,,,,,,,,VFR,,,,,,,,,,,,SPECI,492.0
KSNC 052235Z AUTO 32008G14KT 10SM CLR 15/M06 A2985 RMK AO2,KSNC,2020-05-05T22:35:00Z,41.38,-72.5,15.0,-6.0,320,8,14,10.0,29.84941,,,TRUE,TRUE,,,,,,,CLR,,,,,,,,VFR,,,,,,,,,,,,METAR,127.0
KSLO 052235Z AUTO 30015G19KT 10SM SCT032 16/09 A2990 RMK AO2 T01620093,KSLO,2020-05-05T22:35:00Z,38.65,-88.97,16.2,9.3,300,15,19,10.0,29.899607,,,TRUE,TRUE,,,,,,,SCT,3200,,,,,,,VFR,,,,,,,,,,,,METAR,175.0
KSOW 052235Z AUTO 18004G12KT 10SM CLR 27/M09 A3021 RMK AO2,KSOW,2020-05-05T22:35:00Z,34.27,-110.0,27.0,-9.0,180,4,12,10.0,30.209646,,,TRUE,TRUE,,,,,,,CLR,,,,,,,,VFR,,,,,,,,,,,,METAR,1954.0
KSUZ 052235Z AUTO 31008KT 8SM CLR 23/09 A2999 RMK A01,KSUZ,2020-05-05T22:35:00Z,34.58,-92.48,23.0,9.0,310,8,,8.0,29.991142,,,TRUE,TRUE,,,,,,,CLR,,,,,,,,VFR,,,,,,,,,,,,METAR,119.0
KSVE 052235Z AUTO 22010G22KT 10SM CLR 23/M08 A3011 RMK AO2,KSVE,2020-05-05T22:35:00Z,40.37,-120.57,23.0,-8.0,220,10,22,10.0,30.109253,,,TRUE,TRUE,,,,,,,CLR,,,,,,,,VFR,,,,,,,,,,,,METAR,1263.0
KSYN 052235Z AUTO 00000KT 10SM SCT095 13/M05 A3003 RMK AO2 LTG DSNT W T01331053,KSYN,2020-05-05T22:35:00Z,44.47,-93.02,13.3,-5.3,0,0,,10.0,30.029528,,,TRUE,TRUE,,,,,,,SCT,9500,,,,,,,VFR,,,,,,,,,,,,METAR,280.0
KSYM 052235Z AUTO 30009KT 4SM BR OVC004 10/09 A2982 RMK AO2,KSYM,2020-05-05T22:35:00Z,38.22,-83.58,10.0,9.0,300,9,,4.0,29.819881,,,TRUE,TRUE,,,,,,BR,OVC,400,,,,,,,LIFR,,,,,,,,,,,,METAR,313.0
KRNP 052235Z AUTO 02012G17KT 10SM CLR 09/M07 A2997 RMK AO2 T00901067,KRNP,2020-05-05T22:35:00Z,43.0,-84.13,9.0,-6.7,20,12,17,10.0,29.970472,,,TRUE,TRUE,,,,,,,CLR,,,,,,,,VFR,,,,,,,,,,,,METAR,224.0
KGZL 052235Z AUTO 33006KT 10SM CLR 23/M03 A3007 RMK AO2 LTG DSNT N,KGZL,2020-05-05T22:35:00Z,35.28,-95.1,23.0,-3.0,330,6,,10.0,30.070866,,,TRUE,TRUE,,,,,,,CLR,,,,,,,,VFR,,,,,,,,,,,,METAR,183.0
KHCO 052235Z AUTO 36007G18KT 305V015 10SM SCT070 16/M02 A3012 RMK AO2 LTG DSNT SW,KHCO,2020-05-05T22:35:00Z,48.75,-96.93,16.0,-2.0,360,7,18,10.0,30.121063,,,TRUE,TRUE,,,,,,,SCT,7000,,,,,,,VFR,,,,,,,,,,,,METAR,250.0
KMCX 052235Z AUTO 05011G14KT 10SM RA OVC015 06/04 A2993 RMK AO2 P0001 T00550037,KMCX,2020-05-05T22:35:00Z,40.72,-86.77,5.5,3.7,50,11,14,10.0,29.929134,,,TRUE,TRUE,,,,,,RA,OVC,1500,,,,,,,MVFR,,,,,,0.01,,,,,,SPECI,206.0
KFGN 052235Z AUTO 16003KT 10SM 10/00 A3008 RMK AO2 LTG DSNT SW,KFGN,2020-05-05T22:35:00Z,49.32,-94.9,10.0,0.0,160,3,,10.0,30.079725,,,TRUE,TRUE,,,,,,,,,,,,,,,,,,,,,,,,,,,METAR,328.0
KEOE 052235Z AUTO 23009KT 10SM BKN050 BKN065 OVC080 27/20 A2980 RMK AO2,KEOE,2020-05-05T22:35:00Z,34.32,-81.63,27.0,20.0,230,9,,10.0,29.799213,,,TRUE,TRUE,,,,,,,BKN,5000,BKN,6500,OVC,8000,,,VFR,,,,,,,,,,,,SPECI,174.0
KDCM 052235Z AUTO 30011G19KT 4SM +TSRA SCT015 BKN041 OVC110 20/18 A2985 RMK AO2 LTG DSNT ALQDS P0019,KDCM,2020-05-05T22:35:00Z,34.78,-81.2,20.0,18.0,300,11,19,4.0,29.84941,,,TRUE,TRUE,,,,,,+TSRA,SCT,1500,BKN,4100,OVC,11000,,,MVFR,,,,,,0.19,,,,,,SPECI,200.0
KCKI 052235Z AUTO 17004KT 7SM CLR 30/15 A2975 RMK AO2,KCKI,2020-05-05T22:35:00Z,33.72,-79.85,30.0,15.0,170,4,,7.0,29.749016,,,TRUE,TRUE,,,,,,,CLR,,,,,,,,VFR,,,,,,,,,,,,SPECI,21.0
KHSP 052235Z AUTO 17011G15KT M1/4SM FG OVC002 A2982 RMK AO2,KHSP,2020-05-05T22:35:00Z,37.95,-79.82,,,170,11,15,0.25,29.819881,,,TRUE,TRUE,,,,,,FG,OVC,200,,,,,,,LIFR,,,,,,,,,,,,SPECI,1156.0
KGPH 052235Z AUTO 33022G29KT 10SM CLR 20/00 A2999 RMK AO2,KGPH,2020-05-05T22:35:00Z,39.33,-94.32,20.0,0.0,330,22,29,10.0,29.991142,,,TRUE,TRUE,,,,,,,CLR,,,,,,,,VFR,,,,,,,,,,,,SPECI,235.0
KGLY 052235Z AUTO 30014G23KT 10SM CLR 21/03 A2999 RMK AO2,KGLY,2020-05-05T22:35:00Z,38.35,-93.68,21.0,3.0,300,14,23,10.0,29.991142,,,TRUE,TRUE,,,,,,,CLR,,,,,,,,VFR,,,,,,,,,,,,SPECI,251.0
KGGE 052235Z AUTO 18006KT 10SM CLR 27/20 A2978 RMK AO2,KGGE,2020-05-05T22:35:00Z,33.32,-79.32,27.0,20.0,180,6,,10.0,29.778543,,,TRUE,TRUE,,,,,,,CLR,,,,,,,,VFR,,,,,,,,,,,,SPECI,12.0
KSEM 052235Z AUTO 28005KT 9SM FEW043 27/18 A2984 RMK AO2,KSEM,2020-05-05T22:35:00Z,32.35,-86.98,27.0,18.0,280,5,,9.0,29.840551,,,TRUE,TRUE,,,,,,,FEW,4300,,,,,,,VFR,,,,,,,,,,,,SPECI,51.0
KSIK 052235Z AUTO 36007KT 10SM CLR 22/11 A2989 RMK AO2,KSIK,2020-05-05T22:35:00Z,36.9,-89.57,22.0,11.0,360,7,,10.0,29.890747,,,TRUE,TRUE,,,,,,,CLR,,,,,,,,VFR,,,,,,,,,,,,SPECI,96.0
KW96 052235Z AUTO 00000KT 10SM SCT023 BKN060 OVC085 12/11 A2988 RMK AO1 T01240110,KW96,2020-05-05T22:35:00Z,37.5,-77.12,12.4,11.0,0,0,,10.0,29.878937,,,TRUE,TRUE,,,,,,,SCT,2300,BKN,6000,OVC,8500,,,VFR,,,,,,,,,,,,SPECI,37.0
KTKX 052235Z AUTO 29010G17KT 10SM CLR 24/09 A2990 RMK AO2,KTKX,2020-05-05T22:35:00Z,36.22,-90.02,24.0,9.0,290,10,17,10.0,29.899607,,,TRUE,TRUE,,,,,,,CLR,,,,,,,,VFR,,,,,,,,,,,,METAR,80.0
KHCR 052235Z AUTO 33007KT 10SM CLR 21/M10 A3023 RMK AO2,KHCR,2020-05-05T22:35:00Z,40.48,-111.43,21.0,-10.0,330,7,,10.0,30.230314,,,TRUE,TRUE,,,,,,,CLR,,,,,,,,VFR,,,,,,,,,,,,METAR,1706.0
KBVU 052235Z AUTO VRB04KT 10SM CLR 33/M13 A2998 RMK AO2,KBVU,2020-05-05T22:35:00Z,35.95,-114.87,33.0,-13.0,0,4,,10.0,29.97933,,,TRUE,TRUE,,,,,,,CLR,,,,,,,,VFR,,,,,,,,,,,,METAR,671.0
KHEG 052235Z AUTO 6SM HZ CLR 30/17 A2989 RMK AO2,KHEG,2020-05-05T22:35:00Z,30.28,-81.8,30.0,17.0,,,,6.0,29.890747,,,TRUE,TRUE,,,,,,HZ,CLR,,,,,,,,VFR,,,,,,,,,,,,METAR,27.0
KTMA 052235Z AUTO 25006KT 10SM BKN050 29/18 A2986 RMK AO2 T02920177,KTMA,2020-05-05T22:35:00Z,31.43,-83.48,29.2,17.7,250,6,,10.0,29.861221,,,TRUE,TRUE,,,,,,,BKN,5000,,,,,,,VFR,,,,,,,,,,,,METAR,109.0
CYQM 052235Z 33013G23KT 2 1/2SM -SN BR BKN006 BKN010 OVC022 01/00 A2968 RMK SF6SF1SC1 SLP054,CYQM,2020-05-05T22:35:00Z,46.12,-64.67,1.0,0.0,330,13,23,2.5,29.681103,1005.4,,,,,,,,,-SN BR,BKN,600,BKN,1000,OVC,2200,,,IFR,,,,,,,,,,,,SPECI,71.0
KFKS 052235Z AUTO 02010G14KT 10SM CLR 08/M02 A3002 RMK AO2 T00751020,KFKS,2020-05-05T22:35:00Z,44.63,-86.2,7.5,-2.0,20,10,14,10.0,30.02067,,,TRUE,TRUE,,,,,,,CLR,,,,,,,,VFR,,,,,,,,,,,,METAR,193.0
KFPK 052235Z AUTO 04009KT 10SM OVC110 11/M03 A2993 RMK AO2 T01061027,KFPK,2020-05-05T22:35:00Z,42.57,-84.82,10.6,-2.7,40,9,,10.0,29.929134,,,TRUE,TRUE,,,,,,,OVC,11000,,,,,,,VFR,,,,,,,,,,,,METAR,272.0
KTWM 052235Z AUTO 11003KT 10SM BKN110 07/M09 A3007 RMK AO2 LTG DSNT E,KTWM,2020-05-05T22:35:00Z,47.03,-91.75,7.0,-9.0,110,3,,10.0,30.070866,,,TRUE,TRUE,,,,,,,BKN,11000,,,,,,,VFR,,,,,,,,,,,,METAR,328.0
KTTF 052235Z AUTO 06005KT 10SM OVC100 10/M09 A2991 RMK AO2 T00971095,KTTF,2020-05-05T22:35:00Z,41.93,-83.42,9.7,-9.5,60,5,,10.0,29.911417,,,TRUE,TRUE,,,,,,,OVC,10000,,,,,,,VFR,,,,,,,,,,,,METAR,188.0
KTNU 052235Z AUTO 01010KT OVC012 07/07 A2999 RMK A01,KTNU,2020-05-05T22:35:00Z,41.67,-93.02,7.0,7.0,10,10,,,29.991142,,,TRUE,TRUE,,,,,,,OVC,1200,,,,,,,,,,,,,,,,,,,METAR,290.0
KTME 052235Z AUTO 01014KT 10SM FEW041 FEW047 30/23 A2992 RMK AO2,KTME,2020-05-05T22:35:00Z,29.8,-95.9,30.0,23.0,10,14,,10.0,29.920275,,,TRUE,TRUE,,,,,,,FEW,4100,FEW,4700,,,,,VFR,,,,,,,,,,,,METAR,51.0
K5H4 052235Z AUTO 01008KT 10SM CLR 12/03 A3020 RMK AO2 LTG DSNT S,K5H4,2020-05-05T22:35:00Z,47.78,-99.93,12.0,3.0,10,8,,10.0,30.200787,,,TRUE,TRUE,,,,,,,CLR,,,,,,,,VFR,,,,,,,,,,,,METAR,490.0
K4V0 052235Z AUTO 34003KT 10SM CLR 21/M07 A3023 RMK AO2 T02051074,K4V0,2020-05-05T22:35:00Z,40.1,-108.77,20.5,-7.4,340,3,,10.0,30.230314,,,TRUE,TRUE,,,,,,,CLR,,,,,,,,VFR,,,,,,,,,,,,METAR,1608.0
K4S1 052235Z AUTO 20009KT 1SM BR OVC017 13/12 A3017 RMK AO2,K4S1,2020-05-05T22:35:00Z,42.42,-124.42,13.0,12.0,200,9,,1.0,30.171259,,,TRUE,TRUE,,,,,,BR,OVC,1700,,,,,,,IFR,,,,,,,,,,,,METAR,5.0
KHLX 052235Z AUTO 16003KT 10SM BKN007 BKN065 12/11 A2981 RMK AO2 T01160110,KHLX,2020-05-05T22:35:00Z,36.77,-80.82,11.6,11.0,160,3,,10.0,29.811024,,,TRUE,TRUE,,,,,,,BKN,700,BKN,6500,,,,,IFR,,,,,,,,,,,,METAR,834.0
KHFY 052235Z AUTO 04010KT 10SM OVC043 07/02 A2989 RMK AO2 T00720020,KHFY,2020-05-05T22:35:00Z,39.63,-86.08,7.2,2.0,40,10,,10.0,29.890747,,,TRUE,TRUE,,,,,,,OVC,4300,,,,,,,VFR,,,,,,,,,,,,METAR,251.0
KHFJ 052235Z AUTO 31012G19KT 10SM CLR 20/04 A3005 RMK AO2,KHFJ,2020-05-05T22:35:00Z,36.9,-94.02,20.0,4.0,310,12,19,10.0,30.050198,,,TRUE,TRUE,,,,,,,CLR,,,,,,,,VFR,,,,,,,,,,,,METAR,401.0
KHEQ 052235Z AUTO 36011G16KT 10SM CLR 23/00 A3015 RMK AO2 LTG DSNT NE,KHEQ,2020-05-05T22:35:00Z,40.57,-102.28,23.0,0.0,360,11,16,10.0,30.15059,,,TRUE,TRUE,,,,,,,CLR,,,,,,,,VFR,,,,,,,,,,,,METAR,1137.0
K0VG 052235Z AUTO 26005KT 10SM CLR 21/18 A2977 RMK AO2,K0VG,2020-05-05T22:35:00Z,36.65,-83.22,21.0,18.0,260,5,,10.0,29.769686,,,TRUE,TRUE,,,,,,,CLR,,,,,,,,VFR,,,,,,,,,,,,METAR,430.0
K0S9 052235Z AUTO 08007KT 10SM CLR 18/08 A3003 RMK AO2,K0S9,2020-05-05T22:35:00Z,48.05,-122.82,18.0,8.0,80,7,,10.0,30.029528,,,TRUE,TRUE,,,,,,,CLR,,,,,,,,VFR,,,,,,,,,,,,METAR,33.0
K0F2 052235Z AUTO 04007KT 10SM SCT110 26/05 A3011 RMK AO2 T02610047,K0F2,2020-05-05T22:35:00Z,33.6,-97.78,26.1,4.7,40,7,,10.0,30.109253,,,TRUE,TRUE,,,,,,,SCT,11000,,,,,,,VFR,,,,,,,,,,,,METAR,336.0
K14Y 052235Z AUTO 27004KT 10SM BKN045 OVC055 11/03 A3007 RMK AO2 LTG DSNT W,K14Y,2020-05-05T22:35:00Z,45.9,-94.87,11.0,3.0,270,4,,10.0,30.070866,,,TRUE,TRUE,,,,,,,BKN,4500,OVC,5500,,,,,VFR,,,,,,,,,,,,METAR,406.0
KTOB 052235Z AUTO 01005KT 10SM SCT080 11/M02 A3005 RMK AO2 LTG DSNT W PWINO,KTOB,2020-05-05T22:35:00Z,44.02,-92.82,11.0,-2.0,10,5,,10.0,30.050198,,,TRUE,TRUE,,,,,TRUE,,SCT,8000,,,,,,,VFR,,,,,,,,,,,,METAR,398.0
KUKF 052235Z AUTO 07003KT 10SM CLR 15/11 A2986 RMK AO2 LTG DSNT N AND S,KUKF,2020-05-05T22:35:00Z,36.22,-81.1,15.0,11.0,70,3,,10.0,29.861221,,,TRUE,TRUE,,,,,,,CLR,,,,,,,,VFR,,,,,,,,,,,,METAR,396.0
KU68 052235Z AUTO 34016G23KT 304V004 10SM CLR 18/M06 A3022 RMK AO2 LTG DSNT E,KU68,2020-05-05T22:35:00Z,44.92,-108.45,18.0,-6.0,340,16,23,10.0,30.221457,,,TRUE,TRUE,,,,,,,CLR,,,,,,,,VFR,,,,,,,,,,,,METAR,1247.0
KHNZ 052235Z AUTO 08005KT 10SM SCT035 OVC042 14/09 A2983 RMK AO2 T01420092,KHNZ,2020-05-05T22:35:00Z,36.37,-78.53,14.2,9.2,80,5,,10.0,29.828741,,,TRUE,TRUE,,,,,,,SCT,3500,OVC,4200,,,,,VFR,,,,,,,,,,,,METAR,161.0
KAZC 052235Z AUTO 20005KT 10SM 28/M08 A3018 RMK AO2,KAZC,2020-05-05T22:35:00Z,36.97,-113.02,28.0,-8.0,200,5,,10.0,30.180119,,,TRUE,TRUE,,,,,,,,,,,,,,,,,,,,,,,,,,,METAR,1486.0
KAXS 052235Z AUTO 05007KT 10SM CLR 25/00 A3015 RMK AO2 T02540001,KAXS,2020-05-05T22:35:00Z,34.7,-99.33,25.4,0.1,50,7,,10.0,30.15059,,,TRUE,TRUE,,,,,,,CLR,,,,,,,,VFR,,,,,,,,,,,,METAR,437.0
KHSB 052235Z AUTO 31007KT 10SM SCT029 SCT038 17/11 A2992 RMK AO2 T01680110,KHSB,2020-05-05T22:35:00Z,37.82,-88.55,16.8,11.0,310,7,,10.0,29.920275,,,TRUE,TRUE,,,,,,,SCT,2900,SCT,3800,,,,,VFR,,,,,,,,,,,,METAR,121.0
KHRX 052235Z AUTO 15006KT 10SM CLR 24/M05 A3021 RMK AO2 LTG DSNT N T02361048,KHRX,2020-05-05T22:35:00Z,34.87,-102.33,23.6,-4.8,150,6,,10.0,30.209646,,,TRUE,TRUE,,,,,,,CLR,,,,,,,,VFR,,,,,,,,,,,,METAR,1154.0
KHQG 052235Z AUTO 21004KT 10SM CLR 23/M03 A3016 RMK AO2 T02341032,KHQG,2020-05-05T22:35:00Z,37.17,-101.37,23.4,-3.2,210,4,,10.0,30.159449,,,TRUE,TRUE,,,,,,,CLR,,,,,,,,VFR,,,,,,,,,,,,METAR,956.0
KHQG 052235Z AUTO 21004KT 10SM CLR 23/M03 A3016 RMK AO2 T02341032,KHQG,2020-05-05T22:35:00Z,37.17,-101.37,23.4,-3.2,210,4,,10.0,30.159449,,,TRUE,TRUE,,,,,,,CLR,,,,,,,,VFR,,,,,,,,,,,,METAR,956.0
KHVS 052235Z AUTO 00000KT 10SM VCTS CLR 28/20 A2977 RMK AO2 LTG DSNT W,KHVS,2020-05-05T22:35:00Z,34.4,-80.12,28.0,20.0,0,0,,10.0,29.769686,,,TRUE,TRUE,,,,,,VCTS,CLR,,,,,,,,VFR,,,,,,,,,,,,METAR,111.0
KHWY 052235Z AUTO 00000KT 10SM RA OVC055 10/07 A2988 RMK AO2 T00950071,KHWY,2020-05-05T22:35:00Z,38.58,-77.72,9.5,7.1,0,0,,10.0,29.878937,,,TRUE,TRUE,,,,,,RA,OVC,5500,,,,,,,VFR,,,,,,,,,,,,METAR,103.0
KHZL 052235Z AUTO 30003KT 10SM CLR 12/M08 A2988 RMK AO2,KHZL,2020-05-05T22:35:00Z,40.98,-76.0,12.0,-8.0,300,3,,10.0,29.878937,,,TRUE,TRUE,,,,,,,CLR,,,,,,,,VFR,,,,,,,,,,,,METAR,489.0
KHZE 052235Z AUTO 06007KT 10SM FEW065 14/01 A3020 RMK AO2 LTG DSNT S,KHZE,2020-05-05T22:35:00Z,47.28,-101.58,14.0,1.0,60,7,,10.0,30.200787,,,TRUE,TRUE,,,,,,,FEW,6500,,,,,,,VFR,,,,,,,,,,,,METAR,553.0
KBEA 052235Z AUTO 12009KT 10SM SCT050 SCT060 SCT070 35/24 A2986 RMK AO2 T03490235,KBEA,2020-05-05T22:35:00Z,28.37,-97.78,34.9,23.5,120,9,,10.0,29.861221,,,TRUE,TRUE,,,,,,,SCT,5000,SCT,6000,SCT,7000,,,VFR,,,,,,,,,,,,METAR,82.0
KBDN 052235Z AUTO 06006KT 10SM FEW110 23/M03 A3000 RMK AO2,KBDN,2020-05-05T22:35:00Z,44.1,-121.2,23.0,-3.0,60,6,,10.0,30.0,,,TRUE,TRUE,,,,,,,FEW,11000,,,,,,,VFR,,,,,,,,,,,,METAR,1055.0
KBDH 052235Z AUTO 29007KT 10SM OVC049 12/07 A3010 RMK AO2 LTG DSNT W,KBDH,2020-05-05T22:35:00Z,45.12,-95.13,12.0,7.0,290,7,,10.0,30.100393,,,TRUE,TRUE,,,,,,,OVC,4900,,,,,,,VFR,,,,,,,,,,,,METAR,247.0
KICL 052235Z AUTO 35023G31KT 10SM SCT035 BKN047 BKN055 13/07 A3007 RMK AO2,KICL,2020-05-05T22:35:00Z,40.72,-95.02,13.0,7.0,350,23,31,10.0,30.070866,,,TRUE,TRUE,,,,,,,SCT,3500,BKN,4700,BKN,5500,,,VFR,,,,,,,,,,,,METAR,303.0
KIDI 052235Z AUTO 13007KT 10SM FEW060 SCT110 12/M04 A2986 RMK A01,KIDI,2020-05-05T22:35:00Z,40.62,-79.08,12.0,-4.0,130,7,,10.0,29.861221,,,TRUE,TRUE,,,,,,,FEW,6000,SCT,11000,,,,,VFR,,,,,,,,,,,,METAR,429.0
KBEC 052235Z AUTO 32008G14KT 10SM CLR 23/00 A3009 RMK AO2 T02291001,KBEC,2020-05-05T22:35:00Z,37.7,-97.22,22.9,-0.1,320,8,14,10.0,30.088583,,,TRUE,TRUE,,,,,,,CLR,,,,,,,,VFR,,,,,,,,,,,,METAR,429.0
KIGQ 052235Z 10SM OVC050 07/02 A2997 RMK AO2 LTG DSNT W T00700016,KIGQ,2020-05-05T22:35:00Z,41.53,-87.53,7.0,1.6,,,,10.0,29.970472,,,,TRUE,,,,,,,OVC,5000,,,,,,,VFR,,,,,,,,,,,,METAR,188.0
KIIY 052235Z AUTO 23007KT 10SM SCT041 27/19 A2979 RMK AO2 TSNO,KIIY,2020-05-05T22:35:00Z,33.78,-82.82,27.0,19.0,230,7,,10.0,29.790354,,,TRUE,TRUE,,,TRUE,,,,SCT,4100,,,,,,,VFR,,,,,,,,,,,,METAR,197.0
KIKG 052235Z AUTO 08009G14KT 10SM SCT041 BKN065 33/20 A2987 RMK AO2 T03290204,KIKG,2020-05-05T22:35:00Z,27.55,-98.03,32.9,20.4,80,9,14,10.0,29.870079,,,TRUE,TRUE,,,,,,,SCT,4100,BKN,6500,,,,,VFR,,,,,,,,,,,,METAR,40.0
KIKV 052235Z AUTO 36011KT 8SM -RA BKN014 OVC019 07/06 A3003 RMK AO2,KIKV,2020-05-05T22:35:00Z,41.68,-93.57,7.0,6.0,360,11,,8.0,30.029528,,,TRUE,TRUE,,,,,,-RA,BKN,1400,OVC,1900,,,,,MVFR,,,,,,,,,,,,METAR,275.0
KIZA 052235Z AUTO 26011G18KT 10SM CLR 23/09 A3000 RMK AO2,KIZA,2020-05-05T22:35:00Z,34.6,-120.07,23.0,9.0,260,11,18,10.0,30.0,,,TRUE,TRUE,,,,,,,CLR,,,,,,,,VFR,,,,,,,,,,,,METAR,205.0
KINJ 052235Z AUTO 03012G17KT 10SM CLR 26/09 A3005 RMK AO2 LTG DSNT N T02610094,KINJ,2020-05-05T22:35:00Z,32.08,-97.1,26.1,9.4,30,12,17,10.0,30.050198,,,TRUE,TRUE,,,,,,,CLR,,,,,,,,VFR,,,,,,,,,,,,METAR,209.0
K77S 052235Z AUTO VRB06G11KT 10SM SCT055 SCT070 BKN080 22/12 A3005 RMK A01,K77S,2020-05-05T22:35:00Z,43.93,-123.0,22.0,12.0,0,6,11,10.0,30.050198,,,TRUE,TRUE,,,,,,,SCT,5500,SCT,7000,BKN,8000,,,VFR,,,,,,,,,,,,METAR,164.0
KDYA 052235Z AUTO 28005KT 7SM SCT033 SCT039 OVC045 25/20 A2990 RMK AO2 T02470197,KDYA,2020-05-05T22:35:00Z,32.47,-87.95,24.7,19.7,280,5,,7.0,29.899607,,,TRUE,TRUE,,,,,,,SCT,3300,SCT,3900,OVC,4500,,,VFR,,,,,,,,,,,,SPECI,34.0
KD55 052235Z AUTO 35009G16KT 10SM CLR 13/03 A3016 RMK AO2,KD55,2020-05-05T22:35:00Z,48.75,-98.4,13.0,3.0,350,9,16,10.0,30.159449,,,TRUE,TRUE,,,,,,,CLR,,,,,,,,VFR,,,,,,,,,,,,SPECI,491.0
KAIO 052235Z AUTO 35016G21KT 10SM 11/08 A3006 RMK AO2,KAIO,2020-05-05T22:35:00Z,41.38,-95.03,11.0,8.0,350,16,21,10.0,30.059055,,,TRUE,TRUE,,,,,,,,,,,,,,,,,,,,,,,,,,,SPECI,360.0
K74V 052235Z AUTO 09005KT 10SM CLR 21/M08 A3023 RMK AO2 LTG DSNT NE,K74V,2020-05-05T22:35:00Z,40.28,-110.05,21.0,-8.0,90,5,,10.0,30.230314,,,TRUE,TRUE,,,,,,,CLR,,,,,,,,VFR,,,,,,,,,,,,SPECI,1576.0
K7L2 052235Z AUTO 35010KT 10SM FEW023 FEW035 SCT050 10/04 A3020 RMK AO2,K7L2,2020-05-05T22:35:00Z,46.22,-100.25,10.0,4.0,350,10,,10.0,30.200787,,,TRUE,TRUE,,,,,,,FEW,2300,FEW,3500,SCT,5000,,,VFR,,,,,,,,,,,,METAR,543.0
K7W6 052235Z AUTO 03012KT 10SM BKN025 OVC030 15/10 A2986 RMK AO2 T01470098,K7W6,2020-05-05T22:35:00Z,35.55,-75.95,14.7,9.8,30,12,,10.0,29.861221,,,TRUE,TRUE,,,,,,,BKN,2500,OVC,3000,,,,,MVFR,,,,,,,,,,,,METAR,2.0
K82V 052235Z AUTO 01012KT 10SM SCT110 16/M03 A3019 RMK AO2 LTG DSNT NE,K82V,2020-05-05T22:35:00Z,41.15,-104.13,16.0,-3.0,10,12,,10.0,30.188976,,,TRUE,TRUE,,,,,,,SCT,11000,,,,,,,VFR,,,,,,,,,,,,METAR,1570.0
K9D7 052235Z AUTO 33005G11KT 10SM FEW042 13/03 A3019 RMK AO2 LTG DSNT S,K9D7,2020-05-05T22:35:00Z,48.48,-99.23,13.0,3.0,330,5,11,10.0,30.188976,,,TRUE,TRUE,,,,,,,FEW,4200,,,,,,,VFR,,,,,,,,,,,,METAR,452.0
KACB 052235Z AUTO 35007KT 10SM CLR 12/M09 A3001 RMK AO2 T01201091,KACB,2020-05-05T22:35:00Z,44.98,-85.2,12.0,-9.1,350,7,,10.0,30.008858,,,TRUE,TRUE,,,,,,,CLR,,,,,,,,VFR,,,,,,,,,,,,METAR,190.0
KAAS 052235Z AUTO 28007KT 240V300 4SM OVC008 13/13 A2990 RMK AO1,KAAS,2020-05-05T22:35:00Z,37.35,-85.32,13.0,13.0,280,7,,4.0,29.899607,,,TRUE,TRUE,,,,,,,OVC,800,,,,,,,IFR,,,,,,,,,,,,METAR,281.0
KACP 052235Z AUTO 34006KT 10SM CLR 30/21 A2990 RMK AO2,KACP,2020-05-05T22:35:00Z,30.75,-92.68,30.0,21.0,340,6,,10.0,29.899607,,,TRUE,TRUE,,,,,,,CLR,,,,,,,,VFR,,,,,,,,,,,,METAR,33.0
KADC 052235Z AUTO 29003KT 10SM SCT050 SCT055 BKN070 11/03 A3008 RMK AO2 LTG DSNT SW,KADC,2020-05-05T22:35:00Z,46.45,-95.22,11.0,3.0,290,3,,10.0,30.079725,,,TRUE,TRUE,,,,,,,SCT,5000,SCT,5500,BKN,7000,,,VFR,,,,,,,,,,,,METAR,418.0
KADU 052235Z AUTO 35010G15KT 10SM SCT025 BKN032 BKN039 09/07 A3008 RMK AO2,KADU,2020-05-05T22:35:00Z,41.7,-94.92,9.0,7.0,350,10,15,10.0,30.079725,,,TRUE,TRUE,,,,,,,SCT,2500,BKN,3200,BKN,3900,,,VFR,,,,,,,,,,,,METAR,392.0
KAIK 052235Z AUTO 23010G15KT 10SM BKN060 29/17 A2979 RMK AO2 LTG DSNT NW T02870167,KAIK,2020-05-05T22:35:00Z,33.65,-81.68,28.7,16.7,230,10,15,10.0,29.790354,,,TRUE,TRUE,,,,,,,BKN,6000,,,,,,,VFR,,,,,,,,,,,,METAR,161.0
KAJG 052235Z AUTO 33010KT 10SM OVC019 12/09 A2990 RMK AO2 T01200090,KAJG,2020-05-05T22:35:00Z,38.62,-87.73,12.0,9.0,330,10,,10.0,29.899607,,,TRUE,TRUE,,,,,,,OVC,1900,,,,,,,MVFR,,,,,,,,,,,,METAR,131.0
KAMN 052235Z AUTO 06011G16KT 10SM CLR 09/M12 A3000 RMK AO2 T00901120,KAMN,2020-05-05T22:35:00Z,43.32,-84.68,9.0,-12.0,60,11,16,10.0,30.0,,,TRUE,TRUE,,,,,,,CLR,,,,,,,,VFR,,,,,,,,,,,,METAR,230.0
KARM 052235Z AUTO 36003KT 10SM CLR 33/18 A2990 RMK AO2 T03250183,KARM,2020-05-05T22:35:00Z,29.25,-96.15,32.5,18.3,360,3,,10.0,29.899607,,,TRUE,TRUE,,,,,,,CLR,,,,,,,,VFR,,,,,,,,,,,,METAR,31.0
KAQX 052235Z AUTO 22005G11KT 10SM CLR 30/14 A2977 RMK AO2,KAQX,2020-05-05T22:35:00Z,32.98,-81.27,30.0,14.0,220,5,11,10.0,29.769686,,,TRUE,TRUE,,,,,,,CLR,,,,,,,,VFR,,,,,,,,,,,,METAR,49.0
KATS 052235Z AUTO 15009G15KT 10SM CLR 26/02 A3016 RMK AO2,KATS,2020-05-05T22:35:00Z,32.85,-104.47,26.0,2.0,150,9,15,10.0,30.159449,,,TRUE,TRUE,,,,,,,CLR,,,,,,,,VFR,,,,,,,,,,,,METAR,1081.0
KAVQ 052235Z AUTO 27003KT 10SM CLR 36/M10 A2988 RMK AO2 T03571105,KAVQ,2020-05-05T22:35:00Z,32.4,-111.22,35.7,-10.5,270,3,,10.0,29.878937,,,TRUE,TRUE,,,,,,,CLR,,,,,,,,VFR,,,,,,,,,,,,METAR,619.0
KAWG 052235Z AUTO 04006KT 5SM BR FEW008 SCT012 SCT019 08/08 A2994 RMK AO2,KAWG,2020-05-05T22:35:00Z,41.27,-91.67,8.0,8.0,40,6,,5.0,29.940945,,,TRUE,TRUE,,,,,,BR,FEW,800,SCT,1200,SCT,1900,,,MVFR,,,,,,,,,,,,METAR,230.0
KAXA 052235Z AUTO 07009KT 10SM OVC045 09/07 A3006 RMK A01,KAXA,2020-05-05T22:35:00Z,43.07,-94.27,9.0,7.0,70,9,,10.0,30.059055,,,TRUE,TRUE,,,,,,,OVC,4500,,,,,,,VFR,,,,,,,,,,,,METAR,372.0
K7W4 052235Z AUTO 08003KT 10SM SCT019 OVC050 12/07 A2987 RMK AO1 T01150070,K7W4,2020-05-05T22:35:00Z,37.97,-77.75,11.5,7.0,80,3,,10.0,29.870079,,,TRUE,TRUE,,,,,,,SCT,1900,OVC,5000,,,,,VFR,,,,,,,,,,,,SPECI,106.0
KLUX 052235Z AUTO 23003KT 10SM SCT046 SCT060 BKN065 26/19 A2977 RMK AO2 LTG DSNT W THRU E,KLUX,2020-05-05T22:35:00Z,34.5,-81.95,26.0,19.0,230,3,,10.0,29.769686,,,TRUE,TRUE,,,,,,,SCT,4600,SCT,6000,BKN,6500,,,VFR,,,,,,,,,,,,SPECI,213.0
KLUM 052235Z AUTO 10004KT 10SM CLR 13/M05 A3003 RMK AO2 LTG DSNT W T01291047,KLUM,2020-05-05T22:35:00Z,44.9,-91.87,12.9,-4.7,100,4,,10.0,30.029528,,,TRUE,TRUE,,,,,,,CLR,,,,,,,,VFR,,,,,,,,,,,,SPECI,273.0
KLNL 052235Z AUTO 00000KT 10SM SCT120 12/M12 A3004 RMK AO2 LTG DSNT W T01241117,KLNL,2020-05-05T22:35:00Z,46.15,-89.22,12.4,-11.7,0,0,,10.0,30.041338,,,TRUE,TRUE,,,,,,,SCT,12000,,,,,,,VFR,,,,,,,,,,,,SPECI,520.0
KMAW 052235Z AUTO 10SM CLR 23/09 A2991 RMK AO2,KMAW,2020-05-05T22:35:00Z,36.6,-90.0,23.0,9.0,,,,10.0,29.911417,,,TRUE,TRUE,,,,,,,CLR,,,,,,,,VFR,,,,,,,,,,,,SPECI,90.0
KMNI 052235Z AUTO 23005KT 10SM CLR 30/16 A2974 RMK AO2,KMNI,2020-05-05T22:35:00Z,33.58,-80.22,30.0,16.0,230,5,,10.0,29.740158,,,TRUE,TRUE,,,,,,,CLR,,,,,,,,VFR,,,,,,,,,,,,SPECI,32.0
KMTV 052235Z AUTO 00000KT 10SM OVC015 12/09 A2986 RMK AO2 T01160093,KMTV,2020-05-05T22:35:00Z,36.63,-80.02,11.6,9.3,0,0,,10.0,29.861221,,,TRUE,TRUE,,,,,,,OVC,1500,,,,,,,MVFR,,,,,,,,,,,,SPECI,287.0
KMYJ 052235Z AUTO 27018G24KT 7SM SCT060 SCT085 18/07 A2991 RMK AO2 LTG DSNT NW,KMYJ,2020-05-05T22:35:00Z,39.15,-91.82,18.0,7.0,270,18,24,7.0,29.911417,,,TRUE,TRUE,,,,,,,SCT,6000,SCT,8500,,,,,VFR,,,,,,,,,,,,SPECI,251.0
KSTF 052235Z AUTO 29004KT 10SM SCT024 SCT031 23/17 A2994 RMK AO2,KSTF,2020-05-05T22:35:00Z,33.43,-88.85,23.0,17.0,290,4,,10.0,29.940945,,,TRUE,TRUE,,,,,,,SCT,2400,SCT,3100,,,,,VFR,,,,,,,,,,,,SPECI,102.0
KBAC 052235Z AUTO 02009KT 6SM -RA FEW024 BKN032 07/07 A3017 RMK AO2 LTG DSNT SW,KBAC,2020-05-05T22:35:00Z,46.93,-98.02,7.0,7.0,20,9,,6.0,30.171259,,,TRUE,TRUE,,,,,,-RA,FEW,2400,BKN,3200,,,,,VFR,,,,,,,,,,,,METAR,427.0
KBAM 052235Z AUTO 24015G19KT 230V290 10SM CLR 27/M14 A3008 RMK AO1,KBAM,2020-05-05T22:35:00Z,,,27.0,-14.0,240,15,19,10.0,30.079725,,,TRUE,TRUE,,,,,,,CLR,,,,,,,,VFR,,,,,,,,,,,,METAR,
KBKD 052235Z AUTO 02006KT 7SM CLR 26/04 A3010 RMK AO2 T02610040,KBKD,2020-05-05T22:35:00Z,32.72,-98.88,26.1,4.0,20,6,,7.0,30.100393,,,TRUE,TRUE,,,,,,,CLR,,,,,,,,VFR,,,,,,,,,,,,METAR,392.0
KRHP 052235Z AUTO 22004KT 10SM BKN015 BKN022 OVC033 19/18 A2986 RMK AO2 T01900181,KRHP,2020-05-05T22:35:00Z,35.18,-83.85,19.0,18.1,220,4,,10.0,29.861221,,,TRUE,TRUE,,,,,,,BKN,1500,BKN,2200,OVC,3300,,,MVFR,,,,,,,,,,,,METAR,518.0
KY63 052235Z AUTO 32005KT 10SM SCT017 SCT080 10/07 A3011 RMK AO2 T00980065,KY63,2020-05-05T22:35:00Z,45.98,-96.0,9.8,6.5,320,5,,10.0,30.109253,,,TRUE,TRUE,,,,,,,SCT,1700,SCT,8000,,,,,VFR,,,,,,,,,,,,METAR,367.0
KY19 052235Z AUTO 03016G22KT 10SM VCTS FEW050 12/02 A3019 RMK AO2 LTG DSNT S PWINO,KY19,2020-05-05T22:35:00Z,46.77,-100.9,12.0,2.0,30,16,22,10.0,30.188976,,,TRUE,TRUE,,,,,TRUE,VCTS,FEW,5000,,,,,,,VFR,,,,,,,,,,,,METAR,593.0
KWWR 052235Z AUTO 00000KT 10SM CLR 23/01 A3018 RMK AO2,KWWR,2020-05-05T22:35:00Z,36.45,-99.52,23.0,1.0,0,0,,10.0,30.180119,,,TRUE,TRUE,,,,,,,CLR,,,,,,,,VFR,,,,,,,,,,,,METAR,667.0
KUYF 052235Z AUTO 03012KT 10SM OVC040 08/00 A2983 RMK AO2,KUYF,2020-05-05T22:35:00Z,39.93,-83.47,8.0,0.0,30,12,,10.0,29.828741,,,TRUE,TRUE,,,,,,,OVC,4000,,,,,,,VFR,,,,,,,,,,,,METAR,330.0
KUVA 052235Z AUTO 03011G15KT 10SM SCT080 30/18 A2995 RMK AO2 T02950182,KUVA,2020-05-05T22:35:00Z,29.22,-99.75,29.5,18.2,30,11,15,10.0,29.949802,,,TRUE,TRUE,,,,,,,SCT,8000,,,,,,,VFR,,,,,,,,,,,,METAR,287.0
KUTA 052235Z AUTO 32009G15KT 10SM CLR 22/10 A2996 RMK AO2 TSNO,KUTA,2020-05-05T22:35:00Z,34.68,-90.35,22.0,10.0,320,9,15,10.0,29.958662,,,TRUE,TRUE,,,TRUE,,,,CLR,,,,,,,,VFR,,,,,,,,,,,,METAR,59.0
KUOX 052235Z AUTO 34008G15KT 9SM CLR 22/12 A2996 RMK AO2,KUOX,2020-05-05T22:35:00Z,34.38,-89.53,22.0,12.0,340,8,15,9.0,29.958662,,,TRUE,TRUE,,,,,,,CLR,,,,,,,,VFR,,,,,,,,,,,,METAR,137.0
KUNI 052235Z AUTO 04005KT 10SM OVC025 10/05 A2979 RMK AO2 T00960052,KUNI,2020-05-05T22:35:00Z,39.22,-82.23,9.6,5.2,40,5,,10.0,29.790354,,,TRUE,TRUE,,,,,,,OVC,2500,,,,,,,MVFR,,,,,,,,,,,,METAR,193.0
KULM 052235Z AUTO 30013KT 10SM SCT090 120 11/07 A3006 RMK AO2 LTG DSNT W,KULM,2020-05-05T22:35:00Z,44.32,-94.5,11.0,7.0,300,13,,10.0,30.059055,,,TRUE,TRUE,,,,,,,SCT,9000,,,,,,,VFR,,,,,,,,,,,,METAR,308.0
KUKT 052235Z AUTO 00000KT 10SM CLR 15/M04 A2987 RMK A01,KUKT,2020-05-05T22:35:00Z,40.43,-75.38,15.0,-4.0,0,0,,10.0,29.870079,,,TRUE,TRUE,,,,,,,CLR,,,,,,,,VFR,,,,,,,,,,,,METAR,160.0
KUKL 052235Z AUTO 31016G27KT 10SM CLR 22/02 A3005 RMK AO2 LTG DSNT NW T02170020,KUKL,2020-05-05T22:35:00Z,38.3,-95.73,21.7,2.0,310,16,27,10.0,30.050198,,,TRUE,TRUE,,,,,,,CLR,,,,,,,,VFR,,,,,,,,,,,,METAR,358.0
KRSN 052235Z AUTO 00000KT 10SM SCT020 SCT024 BKN046 23/18 A3002 RMK AO2 T02280182,KRSN,2020-05-05T22:35:00Z,32.52,-92.58,22.8,18.2,0,0,,10.0,30.02067,,,TRUE,TRUE,,,,,,,SCT,2000,SCT,2400,BKN,4600,,,VFR,,,,,,,,,,,,METAR,95.0
KFOZ 052234Z AUTO 01003KT 10SM SCT110 15/M09 A3010 RMK AO2,KFOZ,2020-05-05T22:34:00Z,47.77,-93.65,15.0,-9.0,10,3,,10.0,30.100393,,,TRUE,TRUE,,,,,,,SCT,11000,,,,,,,VFR,,,,,,,,,,,,SPECI,411.0
KCKB 052234Z 02005KT 2 1/2SM RA OVC034 10/07 A2976 RMK AO2 P0010 T01000067,KCKB,2020-05-05T22:34:00Z,39.3,-80.22,10.0,6.7,20,5,,2.5,29.760826,,,,TRUE,,,,,,RA,OVC,3400,,,,,,,IFR,,,,,,0.1,,,,,,SPECI,360.0
KMLU 052234Z AUTO 34009KT 10SM SCT026 BKN050 24/18 A2997 RMK AO2 T02440183,KMLU,2020-05-05T22:34:00Z,32.52,-92.03,24.4,18.3,340,9,,10.0,29.970472,,,TRUE,TRUE,,,,,,,SCT,2600,BKN,5000,,,,,VFR,,,,,,,,,,,,SPECI,29.0
KGNB 052234Z AUTO 31011G23KT 10SM CLR 14/M13 A3033 RMK AO2 T01371135,KGNB,2020-05-05T22:34:00Z,40.08,-105.92,13.7,-13.5,310,11,23,10.0,30.33071,,,TRUE,TRUE,,,,,,,CLR,,,,,,,,VFR,,,,,,,,,,,,METAR,2500.0
PAMR 052234Z 03007KT 10SM CLR 16/M03 A2999 RMK AO2 T01561028,PAMR,2020-05-05T22:34:00Z,61.22,-149.85,15.6,-2.8,30,7,,10.0,29.991142,,,,TRUE,,,,,,,CLR,,,,,,,,VFR,,,,,,,,,,,,SPECI,41.0
KARR 052233Z 07008KT 5SM -RA FEW024 BKN038 OVC046 07/03 A2998 RMK AO2 P0001 T00670033,KARR,2020-05-05T22:33:00Z,41.77,-88.48,6.7,3.3,70,8,,5.0,29.97933,,,,TRUE,,,,,,-RA,FEW,2400,BKN,3800,OVC,4600,,,MVFR,,,,,,0.01,,,,,,SPECI,215.0
KPUB 052233Z 11011G19KT 10SM CLR 24/M02 A3009 RMK AO2 T02391022,KPUB,2020-05-05T22:33:00Z,38.28,-104.5,23.9,-2.2,110,11,19,10.0,30.088583,,,,TRUE,,,,,,,CLR,,,,,,,,VFR,,,,,,,,,,,,SPECI,1420.0
KCDD 052233Z AUTO 36007KT 313V043 10SM CLR 15/M08 A3007 RMK AO2 LTG DSNT SW,KCDD,2020-05-05T22:33:00Z,48.27,-92.48,15.0,-8.0,360,7,,10.0,30.070866,,,TRUE,TRUE,,,,,,,CLR,,,,,,,,VFR,,,,,,,,,,,,SPECI,341.0
KDWU 052233Z AUTO VRB03KT 2 1/2SM -RA BR OVC005 11/11 A2979 RMK AO2 CIG 003V008 P0001,KDWU,2020-05-05T22:33:00Z,38.55,-82.73,11.0,11.0,0,3,,2.5,29.790354,,,TRUE,TRUE,,,,,,-RA BR,OVC,500,,,,,,,IFR,,,,,,0.01,,,,,,SPECI,166.0
KETH 052233Z AUTO 32005KT 10SM -DZ SCT046 08/05 A3014 RMK AO2 LTG DSNT SW,KETH,2020-05-05T22:33:00Z,45.78,-96.55,8.0,5.0,320,5,,10.0,30.138779,,,TRUE,TRUE,,,,,,-DZ,SCT,4600,,,,,,,VFR,,,,,,,,,,,,SPECI,313.0
KOWA 052233Z AUTO 00000KT 10SM OVC080 11/01 A3005 RMK AO2 LTG DSNT W,KOWA,2020-05-05T22:33:00Z,44.12,-93.25,11.0,1.0,0,0,,10.0,30.050198,,,TRUE,TRUE,,,,,,,OVC,8000,,,,,,,VFR,,,,,,,,,,,,SPECI,350.0
CYKL 052233Z AUTO 05006KT 360V080 6SM HZ CLR M01/M12 A2991 RMK SLP165,CYKL,2020-05-05T22:33:00Z,54.78,-66.82,-1.0,-12.0,50,6,,6.0,29.911417,1016.5,,TRUE,,,,,,,HZ,CLR,,,,,,,,VFR,,,,,,,,,,,,SPECI,521.0
KORB 052233Z AUTO 33005KT 10SM SCT110 14/M11 A3003 RMK AO2 LTG DSNT W,KORB,2020-05-05T22:33:00Z,48.02,-92.87,14.0,-11.0,330,5,,10.0,30.029528,,,TRUE,TRUE,,,,,,,SCT,11000,,,,,,,VFR,,,,,,,,,,,,METAR,397.0
CYYR 052233Z 05012KT 15SM FEW007 FEW022 BKN038 OVC050 02/M03 A2990 RMK SF1SC2SC5SC1 SH DIST NW QUAD SLP130,CYYR,2020-05-05T22:33:00Z,53.32,-60.42,2.0,-3.0,50,12,,15.0,29.899607,1013.0,,,,,,,,,,FEW,700,FEW,2200,BKN,3800,OVC,5000,VFR,,,,,,,,,,,,SPECI,49.0
KDAA 052232Z AUTO 16003KT 10SM BKN060 12/05 A2987 RMK AO2 DZB18E21RAB21E32 SLP118 TSNO $,KDAA,2020-05-05T22:32:00Z,38.72,-77.17,12.0,5.0,160,3,,10.0,29.870079,1011.8,,TRUE,TRUE,TRUE,,TRUE,,,,BKN,6000,,,,,,,VFR,,,,,,,,,,,,SPECI,21.0
KHLG 052232Z 05010KT 2 1/2SM RA FEW047 BKN065 OVC080 06/02 A2979 RMK AO2 P0005 T00610022,KHLG,2020-05-05T22:32:00Z,40.17,-80.65,6.1,2.2,50,10,,2.5,29.790354,,,,TRUE,,,,,,RA,FEW,4700,BKN,6500,OVC,8000,,,IFR,,,,,,0.05,,,,,,SPECI,372.0
KROA 052232Z 13007KT 10SM OVC014 11/08 A2986 RMK AO2 T01060078,KROA,2020-05-05T22:32:00Z,37.32,-79.97,10.6,7.8,130,7,,10.0,29.861221,,,,TRUE,,,,,,,OVC,1400,,,,,,,MVFR,,,,,,,,,,,,SPECI,362.0
KTRI 052232Z COR 31007KT 9SM -TSRA FEW032CB BKN047 OVC075 22/18 A2973 RMK AO2 RAB11 TSB32 OCNL LTGIC VC E TS VC E MOV E P0002 T02170183,KTRI,2020-05-05T22:32:00Z,36.48,-82.4,21.7,18.3,310,7,,9.0,29.731298,,TRUE,,TRUE,,,,,,-TSRA,FEW,3200,BKN,4700,OVC,7500,,,VFR,,,,,,0.02,,,,,,SPECI,474.0
CYAT 052232Z AUTO 31010G17KT 9SM -RA BKN048 OVC055 05/01 A2999 RMK SLP156,CYAT,2020-05-05T22:32:00Z,52.93,-82.43,5.0,1.0,310,10,17,9.0,29.991142,1015.6,,TRUE,,,,,,,-RA,BKN,4800,OVC,5500,,,,,VFR,,,,,,,,,,,,SPECI,9.0
CYER 052232Z AUTO 32014G23KT 9SM -SN OVC024 M03/M07 A3016 RMK SLP215,CYER,2020-05-05T22:32:00Z,56.02,-87.68,-3.0,-7.0,320,14,23,9.0,30.159449,1021.5,,TRUE,,,,,,,-SN,OVC,2400,,,,,,,MVFR,,,,,,,,,,,,SPECI,16.0
KMTO 052232Z AUTO 04005KT 1 3/4SM BR BKN007 OVC010 09/08 A2990 RMK AO2 CIG 003V008 T00890083,KMTO,2020-05-05T22:32:00Z,39.47,-88.27,8.9,8.3,40,5,,1.75,29.899607,,,TRUE,TRUE,,,,,,BR,BKN,700,OVC,1000,,,,,IFR,,,,,,,,,,,,SPECI,214.0
KXVG 052232Z AUTO 34005KT 10SM SCT055 BKN090 15/01 A3006 RMK AO2 LTG DSNT SW,KXVG,2020-05-05T22:32:00Z,46.98,-94.2,15.0,1.0,340,5,,10.0,30.059055,,,TRUE,TRUE,,,,,,,SCT,5500,BKN,9000,,,,,VFR,,,,,,,,,,,,SPECI,407.0
YSWG 052232Z 07006KT CAVOK 11/09 Q1029,YSWG,2020-05-05T22:32:00Z,-35.13,147.47,11.0,9.0,70,6,,6.21,30.383858,,,,,,,,,,,CAVOK,,,,,,,,VFR,,,,,,,,,,,,SPECI,213.0
KNBT 052231Z AUTO 05012KT 10SM OVC015 18/13 A2984 RMK AO2 T01780133 $,KNBT,2020-05-05T22:31:00Z,35.02,-76.47,17.8,13.3,50,12,,10.0,29.840551,,,TRUE,TRUE,TRUE,,,,,,OVC,1500,,,,,,,MVFR,,,,,,,,,,,,SPECI,5.0
CYDQ 052231Z AUTO 14006KT 130V190 9SM FEW029 SCT040 09/04 A3016 RMK SLP239,CYDQ,2020-05-05T22:31:00Z,55.75,-120.17,9.0,4.0,140,6,,9.0,30.159449,1023.9,,TRUE,,,,,,,,FEW,2900,SCT,4000,,,,,VFR,,,,,,,,,,,,SPECI,655.0
CYRT 052231Z 34027G34KT 2SM BLSN FEW009 M10/M12 A3016 RMK BLSN1SF1 SLP219,CYRT,2020-05-05T22:31:00Z,62.82,-92.12,-10.0,-12.0,340,27,34,2.0,30.159449,1021.9,,,,,,,,,BLSN,FEW,900,,,,,,,IFR,,,,,,,,,,,,SPECI,32.0
KEET 052231Z AUTO 27006KT 10SM BKN026 25/19 A2987 RMK AO2 T02500194,KEET,2020-05-05T22:31:00Z,33.18,-86.78,25.0,19.4,270,6,,10.0,29.870079,,,TRUE,TRUE,,,,,,,BKN,2600,,,,,,,MVFR,,,,,,,,,,,,SPECI,173.0
KAQP 052231Z AUTO 31008KT 10SM RA SCT014 BKN018 OVC031 09/07 A3011 RMK AO2,KAQP,2020-05-05T22:31:00Z,45.22,-96.0,9.0,7.0,310,8,,10.0,30.109253,,,TRUE,TRUE,,,,,,RA,SCT,1400,BKN,1800,OVC,3100,,,MVFR,,,,,,,,,,,,SPECI,311.0
KLEX 052231Z 30010KT 6SM BR OVC004 09/09 A2985 RMK AO2 CIG 003V007 T00940089,KLEX,2020-05-05T22:31:00Z,38.03,-84.6,9.4,8.9,300,10,,6.0,29.84941,,,,TRUE,,,,,,BR,OVC,400,,,,,,,LIFR,,,,,,,,,,,,SPECI,300.0
KLVM 052231Z AUTO VRB05KT 10SM CLR 18/M05 A3023 RMK AO2 T01781050,KLVM,2020-05-05T22:31:00Z,45.7,-110.43,17.8,-5.0,0,5,,10.0,30.230314,,,TRUE,TRUE,,,,,,,CLR,,,,,,,,VFR,,,,,,,,,,,,SPECI,1418.0
KRWF 052231Z AUTO 30010KT 10SM -RA BKN016 BKN038 OVC045 10/08 A3007 RMK AO2 RAE14B23 P0000 T01000078,KRWF,2020-05-05T22:31:00Z,44.55,-95.08,10.0,7.8,300,10,,10.0,30.070866,,,TRUE,TRUE,,,,,,-RA,BKN,1600,BKN,3800,OVC,4500,,,MVFR,,,,,,0.005,,,,,,SPECI,311.0
EINN 052230Z 10011KT 9999 BKN032 BKN047 11/07 Q1020 NOSIG,EINN,2020-05-05T22:30:00Z,52.7,-8.92,11.0,7.0,100,11,,6.21,30.11811,,,,,,TRUE,,,,,BKN,3200,BKN,4700,,,,,VFR,,,,,,,,,,,,METAR,20.0
UDSG 052230Z VRB03KT 8000 FEW036CB 08/07 Q1011 R02/CLRD70 NOSIG,UDSG,2020-05-05T22:30:00Z,40.75,43.87,8.0,7.0,0,3,,4.97,29.852362,,,,,,TRUE,,,,,FEW,3600,,,,,,,MVFR,,,,,,,,,,,,METAR,1524.0
UDYZ 052230Z 07001KT 2000 R09/P2000N BR FEW006 10/10 Q1009 R09/190065 NOSIG,UDYZ,2020-05-05T22:30:00Z,40.15,44.4,10.0,10.0,70,1,,1.24,29.793306,,,,,,TRUE,,,,BR,FEW,600,,,,,,,IFR,,,,,,,,,,,,METAR,865.0
UCFO 052230Z 04002MPS 9999 FEW050CB BKN100 12/11 Q1018 R12/0///95 NOSIG,UCFO,2020-05-05T22:30:00Z,40.6,72.8,12.0,11.0,40,4,,6.21,30.059055,,,,,,TRUE,,,,,FEW,5000,BKN,10000,,,,,VFR,,,,,,,,,,,,METAR,884.0
UCFM 052230Z 06006MPS CAVOK 11/M01 Q1018 R08/0///95 NOSIG,UCFM,2020-05-05T22:30:00Z,43.07,74.48,11.0,-1.0,60,12,,6.21,30.059055,,,,,,TRUE,,,,,CAVOK,,,,,,,,VFR,,,,,,,,,,,,METAR,633.0
LESB 052230Z AUTO 20002KT CAVOK 19/16 Q1015,LESB,2020-05-05T22:30:00Z,39.6,2.7,19.0,16.0,200,2,,6.21,29.970472,,,TRUE,,,,,,,,CAVOK,,,,,,,,VFR,,,,,,,,,,,,METAR,48.0
LELL 052230Z AUTO 28005KT 9000 NCD 15/14 Q1015,LELL,2020-05-05T22:30:00Z,41.52,2.1,15.0,14.0,280,5,,5.59,29.970472,,,TRUE,,,,,,,,CLR,,,,,,,,VFR,,,,,,,,,,,,METAR,250.0
LEVS 052230Z AUTO 24006KT CAVOK 11/03 Q1018,LEVS,2020-05-05T22:30:00Z,40.37,-3.77,11.0,3.0,240,6,,6.21,30.059055,,,TRUE,,,,,,,,CAVOK,,,,,,,,VFR,,,,,,,,,,,,METAR,687.0
LETU 052230Z AUTO 27006KT 9999 NCD 17/06 Q1017,LETU,2020-05-05T22:30:00Z,,,17.0,6.0,270,6,,6.21,30.029528,,,TRUE,,,,,,,,CLR,,,,,,,,VFR,,,,,,,,,,,,METAR,
LEBR 052230Z AUTO VRB02KT 9999 NCD 17/10 Q1016,LEBR,2020-05-05T22:30:00Z,42.2,-1.43,17.0,10.0,0,2,,6.21,30.0,,,TRUE,,,,,,,,CLR,,,,,,,,VFR,,,,,,,,,,,,METAR,295.0
LELO 052230Z AUTO VRB01KT CAVOK 14/11 Q1017,LELO,2020-05-05T22:30:00Z,42.45,-2.32,14.0,11.0,0,1,,6.21,30.029528,,,TRUE,,,,,,,,CAVOK,,,,,,,,VFR,,,,,,,,,,,,METAR,363.0
LEBT 052230Z AUTO VRB02KT CAVOK 17/15 Q1015,LEBT,2020-05-05T22:30:00Z,39.58,-0.45,17.0,15.0,0,2,,6.21,29.970472,,,TRUE,,,,,,,,CAVOK,,,,,,,,VFR,,,,,,,,,,,,METAR,50.0
LEHC 052230Z AUTO 36003KT CAVOK 12/07 Q1016,LEHC,2020-05-05T22:30:00Z,42.08,-0.32,12.0,7.0,360,3,,6.21,30.0,,,TRUE,,,,,,,,CAVOK,,,,,,,,VFR,,,,,,,,,,,,METAR,539.0
LEBA 052230Z AUTO 22004KT CAVOK 17/12 Q1016,LEBA,2020-05-05T22:30:00Z,37.85,-4.82,17.0,12.0,220,4,,6.21,30.0,,,TRUE,,,,,,,,CAVOK,,,,,,,,VFR,,,,,,,,,,,,METAR,92.0
ZYTX 052230Z 06004MPS CAVOK 12/04 Q1017 NOSIG,ZYTX,2020-05-05T22:30:00Z,41.63,123.48,12.0,4.0,60,8,,6.21,30.029528,,,,,,TRUE,,,,,CAVOK,,,,,,,,VFR,,,,,,,,,,,,METAR,35.0
ZYTL 052230Z 27002MPS CAVOK 13/06 Q1016 NOSIG,ZYTL,2020-05-05T22:30:00Z,38.97,121.53,13.0,6.0,270,4,,6.21,30.0,,,,,,TRUE,,,,,CAVOK,,,,,,,,VFR,,,,,,,,,,,,METAR,97.0
ZWWW 052230Z 05002MPS CAVOK 10/05 Q1020 NOSIG,ZWWW,2020-05-05T22:30:00Z,43.88,87.47,10.0,5.0,50,4,,6.21,30.11811,,,,,,TRUE,,,,,CAVOK,,,,,,,,VFR,,,,,,,,,,,,METAR,654.0
ZSSS 052230Z 01004MPS 8000 BKN009 17/15 Q1011 NOSIG,ZSSS,2020-05-05T22:30:00Z,31.2,121.33,17.0,15.0,10,8,,4.97,29.852362,,,,,,TRUE,,,,,BKN,900,,,,,,,IFR,,,,,,,,,,,,METAR,7.0
ZSPD 052230Z 02005MPS 9999 BKN008 17/15 Q1011 NOSIG,ZSPD,2020-05-05T22:30:00Z,31.15,121.8,17.0,15.0,20,10,,6.21,29.852362,,,,,,TRUE,,,,,BKN,800,,,,,,,IFR,,,,,,,,,,,,METAR,4.0
ZSHC 052230Z 03003MPS 2800 BR SCT005 BKN009 BKN020 18/17 Q1011 NOSIG,ZSHC,2020-05-05T22:30:00Z,30.22,120.43,18.0,17.0,30,6,,1.74,29.852362,,,,,,TRUE,,,,BR,SCT,500,BKN,900,BKN,2000,,,IFR,,,,,,,,,,,,METAR,43.0
ZGGG 052230Z 11002MPS 9999 SCT046 27/23 Q1007 NOSIG,ZGGG,2020-05-05T22:30:00Z,23.4,113.3,27.0,23.0,110,4,,6.21,29.734253,,,,,,TRUE,,,,,SCT,4600,,,,,,,VFR,,,,,,,,,,,,METAR,15.0
VYYY 052230Z 22006KT 7000 FEW025 27/24 Q1006 NOSIG,VYYY,2020-05-05T22:30:00Z,16.9,96.13,27.0,24.0,220,6,,4.35,29.704725,,,,,,TRUE,,,,,FEW,2500,,,,,,,MVFR,,,,,,,,,,,,METAR,33.0
LFSB 052230Z AUTO 33003KT 7000 -RA BKN006 OVC010 11/10 Q1019 BECMG BKN025,LFSB,2020-05-05T22:30:00Z,47.6,7.52,11.0,10.0,330,3,,4.35,30.088583,,,TRUE,,,,,,,-RA,BKN,600,OVC,1000,,,,,IFR,,,,,,,,,,,,METAR,271.0
LFRN 052230Z AUTO 35002KT CAVOK 13/11 Q1019,LFRN,2020-05-05T22:30:00Z,48.07,-1.72,13.0,11.0,350,2,,6.21,30.088583,,,TRUE,,,,,,,,CAVOK,,,,,,,,VFR,,,,,,,,,,,,METAR,37.0
LFPB 052230Z AUTO VRB02KT CAVOK 12/08 Q1020,LFPB,2020-05-05T22:30:00Z,48.97,2.45,12.0,8.0,0,2,,6.21,30.11811,,,TRUE,,,,,,,,CAVOK,,,,,,,,VFR,,,,,,,,,,,,METAR,65.0
LFOK 052230Z AUTO 09007KT 9999 SCT048 BKN060 BKN098 12/09 Q1019 NOSIG,LFOK,2020-05-05T22:30:00Z,48.78,4.18,12.0,9.0,90,7,,6.21,30.088583,,,TRUE,,,TRUE,,,,,SCT,4800,BKN,6000,BKN,9800,,,VFR,,,,,,,,,,,,METAR,162.0
LFOB 052230Z AUTO 03006KT CAVOK 11/03 Q1020,LFOB,2020-05-05T22:30:00Z,49.47,2.12,11.0,3.0,30,6,,6.21,30.11811,,,TRUE,,,,,,,,CAVOK,,,,,,,,VFR,,,,,,,,,,,,METAR,111.0
LFMU 052230Z AUTO 28004KT CAVOK 18/16 Q1014,LFMU,2020-05-05T22:30:00Z,43.32,3.35,18.0,16.0,280,4,,6.21,29.940945,,,TRUE,,,,,,,,CAVOK,,,,,,,,VFR,,,,,,,,,,,,METAR,17.0
LFMT 052230Z AUTO 02003KT CAVOK 16/14 Q1014,LFMT,2020-05-05T22:30:00Z,43.57,3.97,16.0,14.0,20,3,,6.21,29.940945,,,TRUE,,,,,,,,CAVOK,,,,,,,,VFR,,,,,,,,,,,,METAR,6.0
LFMK 052230Z AUTO VRB02KT 9999 BKN080 18/13 Q1016,LFMK,2020-05-05T22:30:00Z,43.22,2.32,18.0,13.0,0,2,,6.21,30.0,,,TRUE,,,,,,,,BKN,8000,,,,,,,VFR,,,,,,,,,,,,METAR,130.0
LFLY 052230Z AUTO 36003KT CAVOK 17/11 Q1018,LFLY,2020-05-05T22:30:00Z,45.72,4.95,17.0,11.0,360,3,,6.21,30.059055,,,TRUE,,,,,,,,CAVOK,,,,,,,,VFR,,,,,,,,,,,,METAR,201.0
LFSO 052230Z AUTO 06009KT 030V090 CAVOK 12/03 Q1020 NOSIG,LFSO,2020-05-05T22:30:00Z,48.57,5.97,12.0,3.0,60,9,,6.21,30.11811,,,TRUE,,,TRUE,,,,,CAVOK,,,,,,,,VFR,,,,,,,,,,,,METAR,350.0
LRTM 052230Z AUTO 08001KT 9999 BKN035/// SCT045/// 11/09 Q1011 RERA,LRTM,2020-05-05T22:30:00Z,46.47,24.42,11.0,9.0,80,1,,6.21,29.852362,,,TRUE,,,,,,,,BKN,3500,SCT,4500,,,,,VFR,,,,,,,,,,,,METAR,309.0
LRSM 052230Z AUTO 31009KT 9999 -SN SCT080/// BKN100/// 07/05 Q1012,LRSM,2020-05-05T22:30:00Z,47.7,22.88,7.0,5.0,310,9,,6.21,29.88189,,,TRUE,,,,,,,-SN,SCT,8000,BKN,10000,,,,,VFR,,,,,,,,,,,,METAR,124.0
LROD 052230Z AUTO 06002KT 9999 FEW055/// SCT090/// 08/05 Q1013,LROD,2020-05-05T22:30:00Z,47.03,21.92,8.0,5.0,60,2,,6.21,29.911417,,,TRUE,,,,,,,,FEW,5500,SCT,9000,,,,,VFR,,,,,,,,,,,,METAR,140.0
LRCL 052230Z 27008KT 240V310 9999 BKN053 10/08 Q1011 R07/29//95,LRCL,2020-05-05T22:30:00Z,46.78,23.68,10.0,8.0,270,8,,6.21,29.852362,,,,,,,,,,,BKN,5300,,,,,,,VFR,,,,,,,,,,,,METAR,413.0
LRBM 052230Z AUTO 27009KT 9999 SCT100/// 07/06 Q1011,LRBM,2020-05-05T22:30:00Z,47.67,23.47,7.0,6.0,270,9,,6.21,29.852362,,,TRUE,,,,,,,,SCT,10000,,,,,,,VFR,,,,,,,,,,,,METAR,185.0
LRAR 052230Z 27004KT 9999 SCT045 10/10 Q1013 R09/19//95,LRAR,2020-05-05T22:30:00Z,46.18,21.27,10.0,10.0,270,4,,6.21,29.911417,,,,,,,,,,,SCT,4500,,,,,,,VFR,,,,,,,,,,,,METAR,118.0
DTTA 052230Z 11004KT 050V150 9999 FEW033 21/18 Q1015,DTTA,2020-05-05T22:30:00Z,36.85,10.22,21.0,18.0,110,4,,6.21,29.970472,,,,,,,,,,,FEW,3300,,,,,,,VFR,,,,,,,,,,,,METAR,4.0
DTNH 052230Z AUTO 02006KT CAVOK 20/20 Q1015,DTNH,2020-05-05T22:30:00Z,36.07,10.43,20.0,20.0,20,6,,6.21,29.970472,,,TRUE,,,,,,,,CAVOK,,,,,,,,VFR,,,,,,,,,,,,METAR,2.0
DTMB 052230Z 11002KT CAVOK 22/17 Q1016,DTMB,2020-05-05T22:30:00Z,35.77,10.75,22.0,17.0,110,2,,6.21,30.0,,,,,,,,,,,CAVOK,,,,,,,,VFR,,,,,,,,,,,,METAR,2.0
LEMI 052230Z AUTO 01005KT CAVOK 19/11 Q1015,LEMI,2020-05-05T22:30:00Z,37.8,-1.12,19.0,11.0,10,5,,6.21,29.970472,,,TRUE,,,,,,,,CAVOK,,,,,,,,VFR,,,,,,,,,,,,METAR,193.0
GEML 052230Z AUTO 26009KT 210V290 CAVOK 23/09 Q1016,GEML,2020-05-05T22:30:00Z,35.27,-2.95,23.0,9.0,260,9,,6.21,30.0,,,TRUE,,,,,,,,CAVOK,,,,,,,,VFR,,,,,,,,,,,,METAR,55.0
LELN 052230Z AUTO 00000KT CAVOK 06/04 Q1019,LELN,2020-05-05T22:30:00Z,42.57,-5.65,6.0,4.0,0,0,,6.21,30.088583,,,TRUE,,,,,,,,CAVOK,,,,,,,,VFR,,,,,,,,,,,,METAR,914.0
LELC 052230Z AUTO 29005KT 5000 BR NCD 18/18 Q1014,LELC,2020-05-05T22:30:00Z,37.77,-0.8,18.0,18.0,290,5,,3.11,29.940945,,,TRUE,,,,,,,BR,CLR,,,,,,,,MVFR,,,,,,,,,,,,METAR,3.0
LEXJ 052230Z AUTO 00000KT 7000 NCD 15/13 Q1016,LEXJ,2020-05-05T22:30:00Z,43.42,-3.82,15.0,13.0,0,0,,4.35,30.0,,,TRUE,,,,,,,,CLR,,,,,,,,MVFR,,,,,,,,,,,,METAR,6.0
LEPP 052230Z AUTO 30002KT CAVOK 15/12 Q1017,LEPP,2020-05-05T22:30:00Z,42.77,-1.65,15.0,12.0,300,2,,6.21,30.029528,,,TRUE,,,,,,,,CAVOK,,,,,,,,VFR,,,,,,,,,,,,METAR,459.0
LFRK 052230Z AUTO 05002KT 6000 NSC 07/07 Q1020 TEMPO BKN009,LFRK,2020-05-05T22:30:00Z,49.17,-0.45,7.0,7.0,50,2,,3.73,30.11811,,,TRUE,,,,,,,,CLR,,,,,,,,MVFR,,,,,,,,,,,,METAR,67.0
LFPN 052230Z AUTO 35003KT 9999 SCT033 SCT040 OVC048 12/09 Q1019,LFPN,2020-05-05T22:30:00Z,48.75,2.12,12.0,9.0,350,3,,6.21,30.088583,,,TRUE,,,,,,,,SCT,3300,SCT,4000,OVC,4800,,,VFR,,,,,,,,,,,,METAR,164.0
LFJR 052230Z AUTO 07004KT 9999 FEW039 13/11 Q1019,LFJR,2020-05-05T22:30:00Z,47.57,-0.3,13.0,11.0,70,4,,6.21,30.088583,,,TRUE,,,,,,,,FEW,3900,,,,,,,VFR,,,,,,,,,,,,METAR,60.0
LFGA 052230Z AUTO 36008KT 9999 OVC050 13/00 Q1019,LFGA,2020-05-05T22:30:00Z,48.1,7.35,13.0,0.0,360,8,,6.21,30.088583,,,TRUE,,,,,,,,OVC,5000,,,,,,,VFR,,,,,,,,,,,,METAR,191.0
LFBU 052230Z AUTO 34002KT CAVOK 14/11 Q1018,LFBU,2020-05-05T22:30:00Z,45.72,0.22,14.0,11.0,340,2,,6.21,30.059055,,,TRUE,,,,,,,,CAVOK,,,,,,,,VFR,,,,,,,,,,,,METAR,133.0
LFAT 052230Z AUTO 06011KT CAVOK 10/06 Q1022,LFAT,2020-05-05T22:30:00Z,50.52,1.62,10.0,6.0,60,11,,6.21,30.177166,,,TRUE,,,,,,,,CAVOK,,,,,,,,VFR,,,,,,,,,,,,METAR,14.0
LFAQ 052230Z AUTO 05009KT CAVOK 10/02 Q1021,LFAQ,2020-05-05T22:30:00Z,49.97,2.7,10.0,2.0,50,9,,6.21,30.147638,,,TRUE,,,,,,,,CAVOK,,,,,,,,VFR,,,,,,,,,,,,METAR,111.0
GCXO 052230Z AUTO 30010KT CAVOK 14/12 Q1021,GCXO,2020-05-05T22:30:00Z,28.48,-16.35,14.0,12.0,300,10,,6.21,30.147638,,,TRUE,,,,,,,,CAVOK,,,,,,,,VFR,,,,,,,,,,,,METAR,632.0
GCTS 052230Z 07011KT 9999 SCT025 20/13 Q1019 NOSIG,GCTS,2020-05-05T22:30:00Z,28.05,-16.57,20.0,13.0,70,11,,6.21,30.088583,,,,,,TRUE,,,,,SCT,2500,,,,,,,VFR,,,,,,,,,,,,METAR,72.0
GCRR 052230Z 02009KT 9999 FEW030 19/13 Q1019,GCRR,2020-05-05T22:30:00Z,28.93,-13.58,19.0,13.0,20,9,,6.21,30.088583,,,,,,,,,,,FEW,3000,,,,,,,VFR,,,,,,,,,,,,METAR,40.0
GCLP 052230Z 36012KT 9999 FEW030 20/13 Q1019 NOSIG,GCLP,2020-05-05T22:30:00Z,27.92,-15.37,20.0,13.0,360,12,,6.21,30.088583,,,,,,TRUE,,,,,FEW,3000,,,,,,,VFR,,,,,,,,,,,,METAR,25.0
GCLA 052230Z AUTO 32005KT 290V360 CAVOK 20/14 Q1020,GCLA,2020-05-05T22:30:00Z,28.62,-17.75,20.0,14.0,320,5,,6.21,30.11811,,,TRUE,,,,,,,,CAVOK,,,,,,,,VFR,,,,,,,,,,,,METAR,31.0
GCFV 052230Z AUTO 04015KT CAVOK 20/14 Q1019,GCFV,2020-05-05T22:30:00Z,28.43,-13.87,20.0,14.0,40,15,,6.21,30.088583,,,TRUE,,,,,,,,CAVOK,,,,,,,,VFR,,,,,,,,,,,,METAR,23.0
LFSG 052230Z AUTO 04007KT CAVOK 12/06 Q1019,LFSG,2020-05-05T22:30:00Z,48.33,6.07,12.0,6.0,40,7,,6.21,30.088583,,,TRUE,,,,,,,,CAVOK,,,,,,,,VFR,,,,,,,,,,,,METAR,330.0
LFRZ 052230Z AUTO 24004KT CAVOK 12/11 Q1019,LFRZ,2020-05-05T22:30:00Z,47.32,-2.17,12.0,11.0,240,4,,6.21,30.088583,,,TRUE,,,,,,,,CAVOK,,,,,,,,VFR,,,,,,,,,,,,METAR,4.0
LFRV 052230Z AUTO 29004KT 1600 BR VV/// 12/11 Q1019,LFRV,2020-05-05T22:30:00Z,47.72,-2.72,12.0,11.0,290,4,,0.99,30.088583,,,TRUE,,,,,,,BR,OVX,0,,,,,,,LIFR,,,,,,,,,,,,METAR,133.0
LFRO 052230Z AUTO 10005KT 060V130 4800 BR OVC003 12/11 Q1020,LFRO,2020-05-05T22:30:00Z,48.75,-3.47,12.0,11.0,100,5,,2.98,30.11811,,,TRUE,,,,,,,BR,OVC,300,,,,,,,LIFR,,,,,,,,,,,,METAR,89.0
LFRM 052230Z AUTO 07003KT 9999 FEW029 12/10 Q1019,LFRM,2020-05-05T22:30:00Z,47.95,0.2,12.0,10.0,70,3,,6.21,30.088583,,,TRUE,,,,,,,,FEW,2900,,,,,,,VFR,,,,,,,,,,,,METAR,52.0
LFRI 052230Z AUTO 32003KT CAVOK 10/09 Q1019,LFRI,2020-05-05T22:30:00Z,46.7,-1.37,10.0,9.0,320,3,,6.21,30.088583,,,TRUE,,,,,,,,CAVOK,,,,,,,,VFR,,,,,,,,,,,,METAR,91.0
LFOV 052230Z AUTO 05004KT 6000 SCT009 11/10 Q1019,LFOV,2020-05-05T22:30:00Z,48.03,-0.75,11.0,10.0,50,4,,3.73,30.088583,,,TRUE,,,,,,,,SCT,900,,,,,,,MVFR,,,,,,,,,,,,METAR,101.0
LFMI 052230Z AUTO 33006KT 8000 FEW036 BKN210 16/16 Q1014 NOSIG,LFMI,2020-05-05T22:30:00Z,43.52,4.92,16.0,16.0,330,6,,4.97,29.940945,,,TRUE,,,TRUE,,,,,FEW,3600,BKN,21000,,,,,MVFR,,,,,,,,,,,,METAR,24.0
LFBA 052230Z AUTO VRB02KT CAVOK 17/12 Q1017,LFBA,2020-05-05T22:30:00Z,44.17,0.6,17.0,12.0,0,2,,6.21,30.029528,,,TRUE,,,,,,,,CAVOK,,,,,,,,VFR,,,,,,,,,,,,METAR,60.0
LFSD 052230Z AUTO 32003KT 9000 BKN026 12/12 Q1018,LFSD,2020-05-05T22:30:00Z,47.27,5.07,12.0,12.0,320,3,,5.59,30.059055,,,TRUE,,,,,,,,BKN,2600,,,,,,,MVFR,,,,,,,,,,,,METAR,227.0
LFRQ 052230Z AUTO 24001KT 9999 BKN002 OVC084 12/11 Q1019,LFRQ,2020-05-05T22:30:00Z,47.97,-4.17,12.0,11.0,240,1,,6.21,30.088583,,,TRUE,,,,,,,,BKN,200,OVC,8400,,,,,LIFR,,,,,,,,,,,,METAR,94.0
LFRH 052230Z AUTO 02003KT 1800 0750 R25/1800D R07/1500U BCFG BKN003 11/11 Q1019 TEMPO 0800 BCFG BECMG SCT005,LFRH,2020-05-05T22:30:00Z,47.77,-3.45,11.0,11.0,20,3,,1.12,30.088583,,,TRUE,,,,,,,BCFG,BKN,300,,,,,,,LIFR,,,,,,,,,,,,METAR,44.0
LFPT 052230Z AUTO 04007KT CAVOK 11/05 Q1020,LFPT,2020-05-05T22:30:00Z,49.1,2.03,11.0,5.0,40,7,,6.21,30.11811,,,TRUE,,,,,,,,CAVOK,,,,,,,,VFR,,,,,,,,,,,,METAR,99.0
LFPM 052230Z AUTO 33003KT 9999 OVC037 12/09 Q1019,LFPM,2020-05-05T22:30:00Z,48.62,2.67,12.0,9.0,330,3,,6.21,30.088583,,,TRUE,,,,,,,,OVC,3700,,,,,,,VFR,,,,,,,,,,,,METAR,92.0
LFOZ 052230Z AUTO 36001KT 0400 R23/0400N FG FEW007 11/10 Q1019,LFOZ,2020-05-05T22:30:00Z,47.9,2.17,11.0,10.0,360,1,,0.25,30.088583,,,TRUE,,,,,,,FG,FEW,700,,,,,,,LIFR,,,,,,,,,,,,METAR,121.0
LFLN 052230Z AUTO 00000KT CAVOK 11/09 Q1018,LFLN,2020-05-05T22:30:00Z,46.42,4.02,11.0,9.0,0,0,,6.21,30.059055,,,TRUE,,,,,,,,CAVOK,,,,,,,,VFR,,,,,,,,,,,,METAR,244.0
LFSN 052230Z AUTO 06008KT CAVOK 12/01 Q1020,LFSN,2020-05-05T22:30:00Z,48.67,6.22,12.0,1.0,60,8,,6.21,30.11811,,,TRUE,,,,,,,,CAVOK,,,,,,,,VFR,,,,,,,,,,,,METAR,217.0
LFQB 052230Z AUTO 04004KT 360V080 9999 OVC040 14/09 Q1019,LFQB,2020-05-05T22:30:00Z,48.32,4.02,14.0,9.0,40,4,,6.21,30.088583,,,TRUE,,,,,,,,OVC,4000,,,,,,,VFR,,,,,,,,,,,,METAR,118.0
LFQA 052230Z AUTO 05006KT 010V080 CAVOK 13/05 Q1020,LFQA,2020-05-05T22:30:00Z,49.2,4.15,13.0,5.0,50,6,,6.21,30.11811,,,TRUE,,,,,,,,CAVOK,,,,,,,,VFR,,,,,,,,,,,,METAR,95.0
LFOP 052230Z AUTO 04005KT 9999 OVC042 11/05 Q1020,LFOP,2020-05-05T22:30:00Z,49.37,1.17,11.0,5.0,40,5,,6.21,30.11811,,,TRUE,,,,,,,,OVC,4200,,,,,,,VFR,,,,,,,,,,,,METAR,157.0
LFOH 052230Z AUTO 08005KT 9999 FEW041 OVC068 10/08 Q1021,LFOH,2020-05-05T22:30:00Z,49.52,0.07,10.0,8.0,80,5,,6.21,30.147638,,,TRUE,,,,,,,,FEW,4100,OVC,6800,,,,,VFR,,,,,,,,,,,,METAR,103.0
LFLX 052230Z AUTO 05005KT CAVOK 12/11 Q1019 BECMG 3000 BR BKN003,LFLX,2020-05-05T22:30:00Z,46.85,1.72,12.0,11.0,50,5,,6.21,30.088583,,,TRUE,,,,,,,,CAVOK,,,,,,,,VFR,,,,,,,,,,,,METAR,157.0
LFLP 052230Z AUTO 07003KT CAVOK 12/11 Q1018,LFLP,2020-05-05T22:30:00Z,45.92,6.08,12.0,11.0,70,3,,6.21,30.059055,,,TRUE,,,,,,,,CAVOK,,,,,,,,VFR,,,,,,,,,,,,METAR,463.0
LFCK 052230Z AUTO VRB02KT CAVOK 16/14 Q1017,LFCK,2020-05-05T22:30:00Z,43.55,2.28,16.0,14.0,0,2,,6.21,30.029528,,,TRUE,,,,,,,,CAVOK,,,,,,,,VFR,,,,,,,,,,,,METAR,240.0
LESO 052230Z AUTO 19004KT CAVOK 16/14 Q1017,LESO,2020-05-05T22:30:00Z,43.35,-1.8,16.0,14.0,190,4,,6.21,30.029528,,,TRUE,,,,,,,,CAVOK,,,,,,,,VFR,,,,,,,,,,,,METAR,8.0
LERS 052230Z AUTO VRB02KT 9999 ////// 18/18 Q1015,LERS,2020-05-05T22:30:00Z,41.13,1.17,18.0,18.0,0,2,,6.21,29.970472,,,TRUE,,,,,,,,,,,,,,,,,,,,,,,,,,,,METAR,76.0
LEMH 052230Z AUTO VRB01KT 5000 BKN001/// 18/17 Q1014,LEMH,2020-05-05T22:30:00Z,39.87,4.22,18.0,17.0,0,1,,3.11,29.940945,,,TRUE,,,,,,,,BKN,100,,,,,,,LIFR,,,,,,,,,,,,METAR,82.0
LEGR 052230Z AUTO VRB02KT CAVOK 18/09 Q1018,LEGR,2020-05-05T22:30:00Z,37.17,-3.77,18.0,9.0,0,2,,6.21,30.059055,,,TRUE,,,,,,,,CAVOK,,,,,,,,VFR,,,,,,,,,,,,METAR,559.0
LEGE 052230Z VRB01KT CAVOK 14/13 Q1015,LEGE,2020-05-05T22:30:00Z,41.88,2.77,14.0,13.0,0,1,,6.21,29.970472,,,,,,,,,,,CAVOK,,,,,,,,VFR,,,,,,,,,,,,METAR,129.0
LECO 052230Z AUTO 19005KT 160V250 9999 FEW031 16/12 Q1017,LECO,2020-05-05T22:30:00Z,43.28,-8.37,16.0,12.0,190,5,,6.21,30.029528,,,TRUE,,,,,,,,FEW,3100,,,,,,,VFR,,,,,,,,,,,,METAR,103.0
LEBB 052230Z AUTO 09003KT 050V140 CAVOK 15/13 Q1017,LEBB,2020-05-05T22:30:00Z,43.28,-2.92,15.0,13.0,90,3,,6.21,30.029528,,,TRUE,,,,,,,,CAVOK,,,,,,,,VFR,,,,,,,,,,,,METAR,34.0
LEAS 052230Z AUTO 32003KT 280V030 CAVOK 14/12 Q1017,LEAS,2020-05-05T22:30:00Z,43.57,-6.03,14.0,12.0,320,3,,6.21,30.029528,,,TRUE,,,,,,,,CAVOK,,,,,,,,VFR,,,,,,,,,,,,METAR,120.0
LEAM 052230Z AUTO 05004KT CAVOK 18/16 Q1014,LEAM,2020-05-05T22:30:00Z,36.85,-2.37,18.0,16.0,50,4,,6.21,29.940945,,,TRUE,,,,,,,,CAVOK,,,,,,,,VFR,,,,,,,,,,,,METAR,21.0
LFSL 052230Z AUTO 34006KT CAVOK 16/11 Q1018,LFSL,2020-05-05T22:30:00Z,45.03,1.48,16.0,11.0,340,6,,6.21,30.059055,,,TRUE,,,,,,,,CAVOK,,,,,,,,VFR,,,,,,,,,,,,METAR,310.0
LFMV 052230Z AUTO VRB03KT 8000 NSC 17/15 Q1014,LFMV,2020-05-05T22:30:00Z,43.9,4.9,17.0,15.0,0,3,,4.97,29.940945,,,TRUE,,,,,,,,CLR,,,,,,,,MVFR,,,,,,,,,,,,METAR,38.0
LFMP 052230Z AUTO 24006KT CAVOK 19/13 Q1015,LFMP,2020-05-05T22:30:00Z,42.72,2.87,19.0,13.0,240,6,,6.21,29.970472,,,TRUE,,,,,,,,CAVOK,,,,,,,,VFR,,,,,,,,,,,,METAR,48.0
LFLS 052230Z AUTO 33006KT 9999 BKN070 14/13 Q1018,LFLS,2020-05-05T22:30:00Z,45.37,5.32,14.0,13.0,330,6,,6.21,30.059055,,,TRUE,,,,,,,,BKN,7000,,,,,,,VFR,,,,,,,,,,,,METAR,386.0
LFLC 052230Z AUTO 34002KT 9999 FEW064 15/12 Q1018 NOSIG,LFLC,2020-05-05T22:30:00Z,45.77,3.17,15.0,12.0,340,2,,6.21,30.059055,,,TRUE,,,TRUE,,,,,FEW,6400,,,,,,,VFR,,,,,,,,,,,,METAR,330.0
LFKJ 052230Z AUTO 05006KT CAVOK 17/14 Q1013 NOSIG,LFKJ,2020-05-05T22:30:00Z,41.92,8.8,17.0,14.0,50,6,,6.21,29.911417,,,TRUE,,,TRUE,,,,,CAVOK,,,,,,,,VFR,,,,,,,,,,,,METAR,9.0
LFKF 052230Z AUTO 22007KT 9999 FEW006 SCT240 17/16 Q1013,LFKF,2020-05-05T22:30:00Z,41.5,9.08,17.0,16.0,220,7,,6.21,29.911417,,,TRUE,,,,,,,,FEW,600,SCT,24000,,,,,VFR,,,,,,,,,,,,METAR,23.0
LFKC 052230Z AUTO VRB02KT CAVOK 18/15 Q1014,LFKC,2020-05-05T22:30:00Z,42.52,8.8,18.0,15.0,0,2,,6.21,29.940945,,,TRUE,,,,,,,,CAVOK,,,,,,,,VFR,,,,,,,,,,,,METAR,58.0
LFJL 052230Z AUTO 08009KT CAVOK 11/00 Q1020,LFJL,2020-05-05T22:30:00Z,48.97,6.25,11.0,0.0,80,9,,6.21,30.11811,,,TRUE,,,,,,,,CAVOK,,,,,,,,VFR,,,,,,,,,,,,METAR,264.0
LFCR 052230Z AUTO 32005KT CAVOK 13/10 Q1018,LFCR,2020-05-05T22:30:00Z,44.38,2.47,13.0,10.0,320,5,,6.21,30.059055,,,TRUE,,,,,,,,CAVOK,,,,,,,,VFR,,,,,,,,,,,,METAR,580.0
GCHI 052230Z AUTO 36014KT 9999 SCT024 20/15 Q1019,GCHI,2020-05-05T22:30:00Z,27.82,-17.87,20.0,15.0,360,14,,6.21,30.088583,,,TRUE,,,,,,,,SCT,2400,,,,,,,VFR,,,,,,,,,,,,METAR,30.0
GCGM 052230Z AUTO 28003KT 180V320 CAVOK 19/14 Q1020 RMK R09/VRB02KT ARP/29003KT 230V000,GCGM,2020-05-05T22:30:00Z,28.03,-17.22,19.0,14.0,280,3,,6.21,30.11811,,,TRUE,,,,,,,,CAVOK,,,,,,,,VFR,,,,,,,,,,,,METAR,219.0
LEZL 052230Z AUTO 28004KT CAVOK 20/12 Q1017,LEZL,2020-05-05T22:30:00Z,37.42,-5.9,20.0,12.0,280,4,,6.21,30.029528,,,TRUE,,,,,,,,CAVOK,,,,,,,,VFR,,,,,,,,,,,,METAR,31.0
LEVX 052230Z 19006KT 9999 SCT020 SCT039 BKN050 14/12 Q1018 NOSIG,LEVX,2020-05-05T22:30:00Z,42.22,-8.62,14.0,12.0,190,6,,6.21,30.059055,,,,,,TRUE,,,,,SCT,2000,SCT,3900,BKN,5000,,,VFR,,,,,,,,,,,,METAR,256.0
LEVC 052230Z 00000KT CAVOK 20/16 Q1015 NOSIG,LEVC,2020-05-05T22:30:00Z,39.5,-0.47,20.0,16.0,0,0,,6.21,29.970472,,,,,,TRUE,,,,,CAVOK,,,,,,,,VFR,,,,,,,,,,,,METAR,62.0
LEPA 052230Z 17003KT CAVOK 19/16 Q1014 NOSIG,LEPA,2020-05-05T22:30:00Z,39.53,2.72,19.0,16.0,170,3,,6.21,29.940945,,,,,,TRUE,,,,,CAVOK,,,,,,,,VFR,,,,,,,,,,,,METAR,8.0
LEMG 052230Z 28011KT CAVOK 24/10 Q1015 NOSIG,LEMG,2020-05-05T22:30:00Z,36.67,-4.5,24.0,10.0,280,11,,6.21,29.970472,,,,,,TRUE,,,,,CAVOK,,,,,,,,VFR,,,,,,,,,,,,METAR,7.0
LEMD 052230Z 24004KT CAVOK 17/M01 Q1017 NOSIG,LEMD,2020-05-05T22:30:00Z,40.48,-3.57,17.0,-1.0,240,4,,6.21,30.029528,,,,,,TRUE,,,,,CAVOK,,,,,,,,VFR,,,,,,,,,,,,METAR,582.0
LEIB 052230Z AUTO VRB01KT CAVOK 18/16 Q1014,LEIB,2020-05-05T22:30:00Z,38.87,1.37,18.0,16.0,0,1,,6.21,29.940945,,,TRUE,,,,,,,,CAVOK,,,,,,,,VFR,,,,,,,,,,,,METAR,12.0
LEBL 052230Z 00000KT 9999 FEW020 18/15 Q1015 NOSIG,LEBL,2020-05-05T22:30:00Z,41.27,2.07,18.0,15.0,0,0,,6.21,29.970472,,,,,,TRUE,,,,,FEW,2000,,,,,,,VFR,,,,,,,,,,,,METAR,6.0
LEAL 052230Z VRB02KT CAVOK 19/16 Q1014 NOSIG,LEAL,2020-05-05T22:30:00Z,38.27,-0.55,19.0,16.0,0,2,,6.21,29.940945,,,,,,TRUE,,,,,CAVOK,,,,,,,,VFR,,,,,,,,,,,,METAR,31.0
LFTW 052230Z AUTO 04003KT 8000 FEW007 SCT033 16/15 Q1015 NOSIG,LFTW,2020-05-05T22:30:00Z,43.75,4.42,16.0,15.0,40,3,,4.97,29.970472,,,TRUE,,,TRUE,,,,,FEW,700,SCT,3300,,,,,MVFR,,,,,,,,,,,,METAR,96.0
LFTH 052230Z AUTO VRB01KT 9999 FEW002 16/15 Q1013,LFTH,2020-05-05T22:30:00Z,43.1,6.15,16.0,15.0,0,1,,6.21,29.911417,,,TRUE,,,,,,,,FEW,200,,,,,,,VFR,,,,,,,,,,,,METAR,4.0
LFST 052230Z AUTO 03007KT CAVOK 11/M01 Q1020 NOSIG,LFST,2020-05-05T22:30:00Z,48.53,7.62,11.0,-1.0,30,7,,6.21,30.11811,,,TRUE,,,TRUE,,,,,CAVOK,,,,,,,,VFR,,,,,,,,,,,,METAR,154.0
LFOT 052230Z AUTO VRB03KT 6000 BKN025 BKN031 12/11 Q1019 NOSIG,LFOT,2020-05-05T22:30:00Z,47.43,0.72,12.0,11.0,0,3,,3.73,30.088583,,,TRUE,,,TRUE,,,,,BKN,2500,BKN,3100,,,,,MVFR,,,,,,,,,,,,METAR,108.0
LFMH 052230Z AUTO 29003KT CAVOK 14/11 Q1018,LFMH,2020-05-05T22:30:00Z,45.52,4.28,14.0,11.0,290,3,,6.21,30.059055,,,TRUE,,,,,,,,CAVOK,,,,,,,,VFR,,,,,,,,,,,,METAR,402.0
LFMD 052230Z AUTO VRB02KT 9999 OVC011 18/16 Q1013,LFMD,2020-05-05T22:30:00Z,43.53,6.95,18.0,16.0,0,2,,6.21,29.911417,,,TRUE,,,,,,,,OVC,1100,,,,,,,MVFR,,,,,,,,,,,,METAR,9.0
LFGJ 052230Z AUTO VRB02KT 6000 FEW008 12/11 Q1018 TEMPO 3000 BR BKN002,LFGJ,2020-05-05T22:30:00Z,47.05,5.43,12.0,11.0,0,2,,3.73,30.059055,,,TRUE,,,,,,,,FEW,800,,,,,,,MVFR,,,,,,,,,,,,METAR,196.0
LFBE 052230Z AUTO VRB01KT CAVOK 14/11 Q1018,LFBE,2020-05-05T22:30:00Z,44.82,0.52,14.0,11.0,0,1,,6.21,30.059055,,,TRUE,,,,,,,,CAVOK,,,,,,,,VFR,,,,,,,,,,,,METAR,52.0
LJCE 052230Z AUTO 00000KT 9999 -RA OVC035/// 10/09 Q1017,LJCE,2020-05-05T22:30:00Z,45.9,15.52,10.0,9.0,0,0,,6.21,30.029528,,,TRUE,,,,,,,-RA,OVC,3500,,,,,,,VFR,,,,,,,,,,,,METAR,155.0
LFYR 052230Z AUTO 00000KT 9999 FEW042 SCT056 11/11 Q1019,LFYR,2020-05-05T22:30:00Z,47.32,1.67,11.0,11.0,0,0,,6.21,30.088583,,,TRUE,,,,,,,,FEW,4200,SCT,5600,,,,,VFR,,,,,,,,,,,,METAR,86.0
LFSX 052230Z AUTO VRB02KT 4300 0650 R11/P2000 BCFG SCT024 BKN045 BKN054 10/10 Q1018,LFSX,2020-05-05T22:30:00Z,47.77,6.33,10.0,10.0,0,2,,2.67,30.059055,,,TRUE,,,,,,,BCFG,SCT,2400,BKN,4500,BKN,5400,,,IFR,,,,,,,,,,,,METAR,273.0
LFSI 052230Z AUTO 08006KT CAVOK 14/06 Q1019,LFSI,2020-05-05T22:30:00Z,48.62,4.9,14.0,6.0,80,6,,6.21,30.088583,,,TRUE,,,,,,,,CAVOK,,,,,,,,VFR,,,,,,,,,,,,METAR,140.0
LFML 052230Z AUTO 30005KT 9999 BKN007 17/16 Q1014 TEMPO 3000 BR BKN014,LFML,2020-05-05T22:30:00Z,43.45,5.22,17.0,16.0,300,5,,6.21,29.940945,,,TRUE,,,,,,,,BKN,700,,,,,,,IFR,,,,,,,,,,,,METAR,36.0
LFLB 052230Z AUTO 00000KT 9999 BKN082 14/12 Q1018,LFLB,2020-05-05T22:30:00Z,45.63,5.87,14.0,12.0,0,0,,6.21,30.059055,,,TRUE,,,,,,,,BKN,8200,,,,,,,VFR,,,,,,,,,,,,METAR,239.0
LFKB 052230Z AUTO VRB02KT 9999 BKN014 OVC028 17/15 Q1014 TEMPO 0800 FG OVC005,LFKB,2020-05-05T22:30:00Z,42.53,9.47,17.0,15.0,0,2,,6.21,29.940945,,,TRUE,,,,,,,,BKN,1400,OVC,2800,,,,,MVFR,,,,,,,,,,,,METAR,12.0
LFBZ 052230Z AUTO VRB03KT CAVOK 16/14 Q1017,LFBZ,2020-05-05T22:30:00Z,43.47,-1.52,16.0,14.0,0,3,,6.21,30.029528,,,TRUE,,,,,,,,CAVOK,,,,,,,,VFR,,,,,,,,,,,,METAR,71.0
LFBT 052230Z AUTO VRB02KT CAVOK 14/11 Q1017,LFBT,2020-05-05T22:30:00Z,43.17,0.0,14.0,11.0,0,2,,6.21,30.029528,,,TRUE,,,,,,,,CAVOK,,,,,,,,VFR,,,,,,,,,,,,METAR,363.0
LFBP 052230Z AUTO 11003KT 9999 FEW066 18/12 Q1017 NOSIG,LFBP,2020-05-05T22:30:00Z,43.37,-0.42,18.0,12.0,110,3,,6.21,30.029528,,,TRUE,,,TRUE,,,,,FEW,6600,,,,,,,VFR,,,,,,,,,,,,METAR,185.0
LFBO 052230Z AUTO 34006KT CAVOK 19/12 Q1017 NOSIG,LFBO,2020-05-05T22:30:00Z,43.62,1.37,19.0,12.0,340,6,,6.21,30.029528,,,TRUE,,,TRUE,,,,,CAVOK,,,,,,,,VFR,,,,,,,,,,,,METAR,153.0
LFBL 052230Z AUTO 35005KT CAVOK 14/10 Q1019,LFBL,2020-05-05T22:30:00Z,45.87,1.17,14.0,10.0,350,5,,6.21,30.088583,,,TRUE,,,,,,,,CAVOK,,,,,,,,VFR,,,,,,,,,,,,METAR,402.0
LFPG 052230Z AUTO 36007KT CAVOK 12/08 Q1020 NOSIG,LFPG,2020-05-05T22:30:00Z,49.02,2.52,12.0,8.0,360,7,,6.21,30.11811,,,TRUE,,,TRUE,,,,,CAVOK,,,,,,,,VFR,,,,,,,,,,,,METAR,109.0
BKPR 052230Z 24020KT 9999 SCT090 16/M01 Q1012 NOSIG,BKPR,2020-05-05T22:30:00Z,42.58,21.03,16.0,-1.0,240,20,,6.21,29.88189,,,,,,TRUE,,,,,SCT,9000,,,,,,,VFR,,,,,,,,,,,,METAR,576.0
VVPB 052230Z VRB02KT 5000 BR FEW020 25/24 Q1006 BECMG FM2250 TL2325 6000 NSW,VVPB,2020-05-05T22:30:00Z,16.38,107.7,25.0,24.0,0,2,,3.11,29.704725,,,,,,,,,,BR,FEW,2000,,,,,,,MVFR,,,,,,,,,,,,METAR,17.0
K04V 052230Z AUTO 33016G29KT 10SM CLR 20/M16 A3022 RMK AO2,K04V,2020-05-05T22:30:00Z,38.1,-106.17,20.0,-16.0,330,16,29,10.0,30.221457,,,TRUE,TRUE,,,,,,,CLR,,,,,,,,VFR,,,,,,,,,,,,METAR,2385.0
DAAG 052230Z 00000KT CAVOK 18/16 Q1015,DAAG,2020-05-05T22:30:00Z,36.72,3.22,18.0,16.0,0,0,,6.21,29.970472,,,,,,,,,,,CAVOK,,,,,,,,VFR,,,,,,,,,,,,METAR,25.0
DAAT 052230Z 10005KT CAVOK 24/M08 Q1024,DAAT,2020-05-05T22:30:00Z,22.82,5.47,24.0,-8.0,100,5,,6.21,30.236221,,,,,,,,,,,CAVOK,,,,,,,,VFR,,,,,,,,,,,,METAR,1377.0
DAUH 052230Z 08005KT CAVOK 28/08 Q1015,DAUH,2020-05-05T22:30:00Z,31.67,6.15,28.0,8.0,80,5,,6.21,29.970472,,,,,,,,,,,CAVOK,,,,,,,,VFR,,,,,,,,,,,,METAR,142.0
UAAA 052230Z 21002MPS 9999 FEW100 SCT200 06/01 Q1023 R23L/CLRD65 NOSIG,UAAA,2020-05-05T22:30:00Z,43.35,77.03,6.0,1.0,210,4,,6.21,30.206694,,,,,,TRUE,,,,,FEW,10000,SCT,20000,,,,,VFR,,,,,,,,,,,,METAR,681.0
K0CO 052230Z AUTO 31022G34KT 10SM CLR 01/M05 A3047 RMK AO2 TSNO PWINO,K0CO,2020-05-05T22:30:00Z,39.8,-105.77,1.0,-5.0,310,22,34,10.0,30.469488,,,TRUE,TRUE,,,TRUE,,TRUE,,CLR,,,,,,,,VFR,,,,,,,,,,,,METAR,3807.0
OIFM 052230Z 33004KT 7000 NSC 14/01 Q1019 A3011,OIFM,2020-05-05T22:30:00Z,32.75,51.87,14.0,1.0,330,4,,4.35,30.088583,,,,,,,,,,,CLR,,,,,,,,MVFR,,,,,,,,,,,,METAR,1542.0
OTBD 052230Z AUTO VRB01KT CAVOK 26/21 Q1007 NOSIG,OTBD,2020-05-05T22:30:00Z,25.25,51.57,26.0,21.0,0,1,,6.21,29.734253,,,TRUE,,,TRUE,,,,,CAVOK,,,,,,,,VFR,,,,,,,,,,,,METAR,10.0
UACC 052230Z 17001MPS CAVOK 02/M01 Q1031 R04/0///70 NOSIG RMK QFE741/0989,UACC,2020-05-05T22:30:00Z,51.02,71.47,2.0,-1.0,170,2,,6.21,30.442913,,,,,,TRUE,,,,,CAVOK,,,,,,,,VFR,,,,,,,,,,,,METAR,355.0
UADD 052230Z 28002MPS 9999 SCT046 OVC100 10/05 Q1017 R13/0///65 NOSIG RMK QFE706/0942,UADD,2020-05-05T22:30:00Z,42.85,71.3,10.0,5.0,280,4,,6.21,30.029528,,,,,,TRUE,,,,,SCT,4600,OVC,10000,,,,,VFR,,,,,,,,,,,,SPECI,665.0
UAII 052230Z 07002MPS CAVOK 15/13 Q1016 R10/0///70 NOSIG RMK QFE726/0969,UAII,2020-05-05T22:30:00Z,42.37,69.48,15.0,13.0,70,4,,6.21,30.0,,,,,,TRUE,,,,,CAVOK,,,,,,,,VFR,,,,,,,,,,,,SPECI,422.0
UAKK 052230Z 07004MPS CAVOK M04/M06 Q1031 R05/0///70 NOSIG RMK QFE725/0967,UAKK,2020-05-05T22:30:00Z,49.67,73.33,-4.0,-6.0,70,8,,6.21,30.442913,,,,,,TRUE,,,,,CAVOK,,,,,,,,VFR,,,,,,,,,,,,SPECI,538.0
UASP 052230Z 25002MPS CAVOK 04/M01 Q1031 R21/0///70 NOSIG RMK QFE762/1016,UASP,2020-05-05T22:30:00Z,52.2,77.07,4.0,-1.0,250,4,,6.21,30.442913,,,,,,TRUE,,,,,CAVOK,,,,,,,,VFR,,,,,,,,,,,,SPECI,125.0
UASS 052230Z 29002MPS CAVOK M00/M01 Q1031 NOSIG RMK QFE755/1006,UASS,2020-05-05T22:30:00Z,50.35,80.23,0.0,-1.0,290,4,,6.21,30.442913,,,,,,TRUE,,,,,CAVOK,,,,,,,,VFR,,,,,,,,,,,,SPECI,232.0
UATG 052230Z 12010G15MPS 5000 -SHRA BKN033CB 18/01 Q1014 R14/CLRD70 NOSIG RMK QFE762/1016,UATG,2020-05-05T22:30:00Z,47.12,51.83,18.0,1.0,120,19,29,3.11,29.940945,,,,,,TRUE,,,,-SHRA,BKN,3300,,,,,,,MVFR,,,,,,,,,,,,METAR,-22.0
UATE 052230Z 11009MPS CAVOK 22/06 Q1008 R12/0///70 NOSIG RMK QFE754/1005,UATE,2020-05-05T22:30:00Z,43.87,51.1,22.0,6.0,110,17,,6.21,29.763779,,,,,,TRUE,,,,,CAVOK,,,,,,,,VFR,,,,,,,,,,,,METAR,22.0
UATT 052230Z 13001MPS CAVOK 05/M00 Q1025 R13/CLRD70 NOSIG RMK QFE749/0999,UATT,2020-05-05T22:30:00Z,50.25,57.2,5.0,0.0,130,2,,6.21,30.265747,,,,,,TRUE,,,,,CAVOK,,,,,,,,VFR,,,,,,,,,,,,METAR,227.0
UAUU 052230Z 17004MPS CAVOK 07/M00 Q1027 NOSIG RMK QFE754/1005,UAUU,2020-05-05T22:30:00Z,53.2,63.55,7.0,0.0,170,8,,6.21,30.324802,,,,,,TRUE,,,,,CAVOK,,,,,,,,VFR,,,,,,,,,,,,SPECI,182.0
UTDD 052230Z 09001MPS 9999 FEW066CB BKN100 13/11 Q1018 R09/CLRD// NOSIG RMK QFE695/0927,UTDD,2020-05-05T22:30:00Z,38.53,68.82,13.0,11.0,90,2,,6.21,30.059055,,,,,,TRUE,,,,,FEW,6600,BKN,10000,,,,,VFR,,,,,,,,,,,,METAR,803.0
UAKD 052230Z 07006MPS 9999 OVC100 06/M02 Q1026 R04/0///65 NOSIG RMK QFE735/0980,UAKD,2020-05-05T22:30:00Z,47.7,67.73,6.0,-2.0,70,12,,6.21,30.295275,,,,,,TRUE,,,,,OVC,10000,,,,,,,VFR,,,,,,,,,,,,SPECI,381.0
UTDK 052230Z 04003MPS 9999 OVC130 16/09 Q1018 R01/09//70 RMK QFE706/0941,UTDK,2020-05-05T22:30:00Z,37.98,69.8,16.0,9.0,40,6,,6.21,30.059055,,,,,,,,,,,OVC,13000,,,,,,,VFR,,,,,,,,,,,,METAR,699.0
UTDT 052230Z 01001MPS 9999 FEW060CB SCT120 16/13 Q1015 R35/////// RMK QFE722/0963,UTDT,2020-05-05T22:30:00Z,37.87,68.87,16.0,13.0,10,2,,6.21,29.970472,,,,,,,,,,,FEW,6000,SCT,12000,,,,,VFR,,,,,,,,,,,,METAR,449.0
UTDL 052230Z 09008MPS 9999 FEW070CB SCT086 16/13 Q1017 R26/CLRD70 NOSIG RMK QFE725/0966,UTDL,2020-05-05T22:30:00Z,40.22,69.7,16.0,13.0,90,16,,6.21,30.029528,,,,,,TRUE,,,,,FEW,7000,SCT,8600,,,,,VFR,,,,,,,,,,,,METAR,442.0
LKPD 052230Z 29008KT CAVOK 05/01 Q1019 RMK BLU,LKPD,2020-05-05T22:30:00Z,50.02,15.73,5.0,1.0,290,8,,6.21,30.088583,,,,,,,,,,,CAVOK,,,,,,,,VFR,,,,,,,,,,,,METAR,226.0
LEVD 052230Z AUTO 32003KT CAVOK 11/06 Q1019,LEVD,2020-05-05T22:30:00Z,41.72,-4.83,11.0,6.0,320,3,,6.21,30.088583,,,TRUE,,,,,,,,CAVOK,,,,,,,,VFR,,,,,,,,,,,,METAR,854.0
LESA 052230Z AUTO 22003KT CAVOK 11/07 Q1019,LESA,2020-05-05T22:30:00Z,40.95,-5.5,11.0,7.0,220,3,,6.21,30.088583,,,TRUE,,,,,,,,CAVOK,,,,,,,,VFR,,,,,,,,,,,,METAR,795.0
LEST 052230Z 20009KT 170V230 CAVOK 13/11 Q1017 NOSIG,LEST,2020-05-05T22:30:00Z,42.88,-8.42,13.0,11.0,200,9,,6.21,30.029528,,,,,,TRUE,,,,,CAVOK,,,,,,,,VFR,,,,,,,,,,,,METAR,367.0
LEDA 052230Z AUTO 06003KT CAVOK 15/13 Q1016,LEDA,2020-05-05T22:30:00Z,41.73,0.53,15.0,13.0,60,3,,6.21,30.0,,,TRUE,,,,,,,,CAVOK,,,,,,,,VFR,,,,,,,,,,,,METAR,350.0
LEVT 052230Z VRB02KT 9999 FEW030 09/07 Q1018,LEVT,2020-05-05T22:30:00Z,42.87,-2.72,9.0,7.0,0,2,,6.21,30.059055,,,,,,,,,,,FEW,3000,,,,,,,VFR,,,,,,,,,,,,METAR,509.0
RKNW 052230Z 04001KT 0800 R03/P2000 FG BKN002 11/11 A2999 RMK CIG002,RKNW,2020-05-05T22:30:00Z,37.32,127.95,11.0,11.0,40,1,,0.5,29.991142,,,,,,,,,,FG,BKN,200,,,,,,,LIFR,,,,,,,,,,,,SPECI,150.0
LEZG 052230Z 28006KT 250V310 CAVOK 17/10 Q1015,LEZG,2020-05-05T22:30:00Z,41.67,-1.02,17.0,10.0,280,6,,6.21,29.970472,,,,,,,,,,,CAVOK,,,,,,,,VFR,,,,,,,,,,,,METAR,258.0
FMEE 052230Z AUTO 11011KT 9999 FEW056 24/20 Q1017 NOSIG,FMEE,2020-05-05T22:30:00Z,-20.87,55.52,24.0,20.0,110,11,,6.21,30.029528,,,TRUE,,,TRUE,,,,,FEW,5600,,,,,,,VFR,,,,,,,,,,,,METAR,25.0
FMEP 052230Z AUTO 34006KT CAVOK 22/20 Q1017,FMEP,2020-05-05T22:30:00Z,-21.32,55.42,22.0,20.0,340,6,,6.21,30.029528,,,TRUE,,,,,,,,CAVOK,,,,,,,,VFR,,,,,,,,,,,,METAR,18.0
LEBG 052230Z AUTO VRB01KT CAVOK 08/06 Q1019,LEBG,2020-05-05T22:30:00Z,42.37,-3.62,8.0,6.0,0,1,,6.21,30.088583,,,TRUE,,,,,,,,CAVOK,,,,,,,,VFR,,,,,,,,,,,,METAR,891.0
LEAG 052230Z AUTO 30012KT 260V010 CAVOK 19/12 Q1018,LEAG,2020-05-05T22:30:00Z,36.12,-5.45,19.0,12.0,300,12,,6.21,30.059055,,,TRUE,,,,,,,,CAVOK,,,,,,,,VFR,,,,,,,,,,,,METAR,32.0
RCTP 052230Z 24017KT 9999 FEW015 BKN070 28/22 Q1006 NOSIG RMK A2973,RCTP,2020-05-05T22:30:00Z,25.07,121.22,28.0,22.0,240,17,,6.21,29.704725,,,,,,TRUE,,,,,FEW,1500,BKN,7000,,,,,VFR,,,,,,,,,,,,METAR,33.0
RCSS 052230Z VRB01KT 9999 FEW025 SCT040 BKN070 29/23 Q1007 NOSIG RMK A2974,RCSS,2020-05-05T22:30:00Z,25.07,121.53,29.0,23.0,0,1,,6.21,29.734253,,,,,,TRUE,,,,,FEW,2500,SCT,4000,BKN,7000,,,VFR,,,,,,,,,,,,METAR,6.0
RCKH 052230Z 31006KT 280V340 9999 FEW015 SCT025 29/22 Q1009 NOSIG RMK A2980,RCKH,2020-05-05T22:30:00Z,22.57,120.33,29.0,22.0,310,6,,6.21,29.793306,,,,,,TRUE,,,,,FEW,1500,SCT,2500,,,,,VFR,,,,,,,,,,,,METAR,9.0
K20V 052230Z AUTO 34010G20KT 10SM CLR 16/M10 A3030 RMK AO2,K20V,2020-05-05T22:30:00Z,40.05,-106.37,16.0,-10.0,340,10,20,10.0,30.301182,,,TRUE,TRUE,,,,,,,CLR,,,,,,,,VFR,,,,,,,,,,,,METAR,2259.0
RCNN 052230Z 00000KT 9999 FEW014 SCT100 26/23 Q1009 NOSIG RMK A2981,RCNN,2020-05-05T22:30:00Z,22.93,120.2,26.0,23.0,0,0,,6.21,29.793306,,,,,,TRUE,,,,,FEW,1400,SCT,10000,,,,,VFR,,,,,,,,,,,,METAR,19.0
RCMQ 052230Z 19008KT 9999 FEW010 SCT050 BKN080 27/21 Q1009 NOSIG RMK A2982,RCMQ,2020-05-05T22:30:00Z,24.27,120.62,27.0,21.0,190,8,,6.21,29.793306,,,,,,TRUE,,,,,FEW,1000,SCT,5000,BKN,8000,,,VFR,,,,,,,,,,,,METAR,5.0
RCFN 052230Z 02003KT 330V070 9999 FEW020 SCT150 BKN250 26/23 Q1006 NOSIG RMK A2973,RCFN,2020-05-05T22:30:00Z,22.77,121.07,26.0,23.0,20,3,,6.21,29.704725,,,,,,TRUE,,,,,FEW,2000,SCT,15000,BKN,25000,,,VFR,,,,,,,,,,,,METAR,42.0
VMMC 052230Z 18004KT 9999 FEW007 SCT025 26/26 Q1008 NOSIG,VMMC,2020-05-05T22:30:00Z,22.15,113.58,26.0,26.0,180,4,,6.21,29.763779,,,,,,TRUE,,,,,FEW,700,SCT,2500,,,,,VFR,,,,,,,,,,,,METAR,6.0
UKKK 052230Z 27003MPS 9999 BKN036 12/10 Q1005 R26/CLRD70 NOSIG,UKKK,2020-05-05T22:30:00Z,50.4,30.45,12.0,10.0,270,6,,6.21,29.675198,,,,,,TRUE,,,,,BKN,3600,,,,,,,VFR,,,,,,,,,,,,METAR,179.0
GMFO 052230Z VRB01KT CAVOK 16/09 Q1018 NOSIG,GMFO,2020-05-05T22:30:00Z,34.77,-1.92,16.0,9.0,0,1,,6.21,30.059055,,,,,,TRUE,,,,,CAVOK,,,,,,,,VFR,,,,,,,,,,,,METAR,470.0
UKKM 052230Z AUTO 28002MPS 9999 // ///041/// 12/11 Q1005,UKKM,2020-05-05T22:30:00Z,50.6,30.2,12.0,11.0,280,4,,6.21,29.675198,,,TRUE,,,,,,,,,,,,,,,,,,,,,,,,,,,,METAR,157.0
LFRB 052230Z AUTO 17001KT CAVOK 11/11 Q1019 TEMPO 3000 BR BKN003,LFRB,2020-05-05T22:30:00Z,48.45,-4.42,11.0,11.0,170,1,,6.21,30.088583,,,TRUE,,,,,,,,CAVOK,,,,,,,,VFR,,,,,,,,,,,,METAR,103.0
LROP 052230Z 26008KT CAVOK 14/10 Q1010 NOSIG,LROP,2020-05-05T22:30:00Z,44.57,26.1,14.0,10.0,260,8,,6.21,29.822834,,,,,,TRUE,,,,,CAVOK,,,,,,,,VFR,,,,,,,,,,,,METAR,95.0
LRCK 052230Z 22006KT CAVOK 10/09 Q1010 R36/29//95 NOSIG,LRCK,2020-05-05T22:30:00Z,44.37,28.48,10.0,9.0,220,6,,6.21,29.822834,,,,,,TRUE,,,,,CAVOK,,,,,,,,VFR,,,,,,,,,,,,METAR,108.0
LRBS 052230Z 27004KT CAVOK 14/09 Q1010 NOSIG,LRBS,2020-05-05T22:30:00Z,44.5,26.08,14.0,9.0,270,4,,6.21,29.822834,,,,,,TRUE,,,,,CAVOK,,,,,,,,VFR,,,,,,,,,,,,METAR,91.0
VAAH 052230Z 28005KT 4000 FU NSC 32/23 Q1006 NOSIG,VAAH,2020-05-05T22:30:00Z,23.07,72.62,32.0,23.0,280,5,,2.49,29.704725,,,,,,TRUE,,,,FU,CLR,,,,,,,,IFR,,,,,,,,,,,,METAR,55.0
FMCZ 052230Z AUTO 18011KT 9999 FEW021 28/23 Q1014 NOSIG,FMCZ,2020-05-05T22:30:00Z,-12.8,45.27,28.0,23.0,180,11,,6.21,29.940945,,,TRUE,,,TRUE,,,,,FEW,2100,,,,,,,VFR,,,,,,,,,,,,METAR,7.0
LETL 052230Z AUTO 28009KT 260V320 CAVOK 13/04 Q1019,LETL,2020-05-05T22:30:00Z,40.42,-1.22,13.0,4.0,280,9,,6.21,30.088583,,,TRUE,,,,,,,,CAVOK,,,,,,,,VFR,,,,,,,,,,,,METAR,1013.0
LECH 052230Z AUTO VRB01KT CAVOK 18/12 Q1016,LECH,2020-05-05T22:30:00Z,40.2,0.07,18.0,12.0,0,1,,6.21,30.0,,,TRUE,,,,,,,,CAVOK,,,,,,,,VFR,,,,,,,,,,,,METAR,337.0
LRSB 052230Z 13002KT 080V200 9999 SCT052 OVC056 10/10 Q1010,LRSB,2020-05-05T22:30:00Z,45.78,24.08,10.0,10.0,130,2,,6.21,29.822834,,,,,,,,,,,SCT,5200,OVC,5600,,,,,VFR,,,,,,,,,,,,METAR,444.0
LPAZ 052230Z 26013KT 9999 FEW025 17/12 Q1017,LPAZ,2020-05-05T22:30:00Z,36.97,-25.17,17.0,12.0,260,13,,6.21,30.029528,,,,,,,,,,,FEW,2500,,,,,,,VFR,,,,,,,,,,,,METAR,100.0
LRTR 052230Z 27003KT 9999 SCT045 10/10 Q1013 R11/290095 NOSIG,LRTR,2020-05-05T22:30:00Z,45.82,21.33,10.0,10.0,270,3,,6.21,29.911417,,,,,,TRUE,,,,,SCT,4500,,,,,,,VFR,,,,,,,,,,,,METAR,88.0
LPPD 052230Z 27012KT 9999 FEW018 16/12 Q1016,LPPD,2020-05-05T22:30:00Z,37.72,-25.68,16.0,12.0,270,12,,6.21,30.0,,,,,,,,,,,FEW,1800,,,,,,,VFR,,,,,,,,,,,,METAR,72.0
LRCV 052230Z 30007KT 9999 -RA NSC 13/11 Q1010,LRCV,2020-05-05T22:30:00Z,44.32,23.88,13.0,11.0,300,7,,6.21,29.822834,,,,,,,,,,-RA,CLR,,,,,,,,VFR,,,,,,,,,,,,METAR,191.0
LRBC 052230Z 22002KT CAVOK 11/07 Q1008,LRBC,2020-05-05T22:30:00Z,46.52,26.92,11.0,7.0,220,2,,6.21,29.763779,,,,,,,,,,,CAVOK,,,,,,,,VFR,,,,,,,,,,,,METAR,185.0
LRSV 052230Z AUTO 32016KT 9999 -RA SCT043/// OVC050/// 06/05 Q1009,LRSV,2020-05-05T22:30:00Z,47.68,26.35,6.0,5.0,320,16,,6.21,29.793306,,,TRUE,,,,,,,-RA,SCT,4300,OVC,5000,,,,,VFR,,,,,,,,,,,,METAR,351.0
LRIA 052230Z 23004KT CAVOK 12/06 Q1008,LRIA,2020-05-05T22:30:00Z,47.17,27.62,12.0,6.0,230,4,,6.21,29.763779,,,,,,,,,,,CAVOK,,,,,,,,VFR,,,,,,,,,,,,METAR,104.0
LRTC 052230Z AUTO 12003KT 090V180 9999 BKN210/// 11/07 Q1009,LRTC,2020-05-05T22:30:00Z,45.07,28.72,11.0,7.0,120,3,,6.21,29.793306,,,TRUE,,,,,,,,BKN,21000,,,,,,,VFR,,,,,,,,,,,,METAR,6.0
OIII 052230Z 01004KT 8000 SCT110 BKN190 23/02 Q1015 A2997,OIII,2020-05-05T22:30:00Z,35.68,51.3,23.0,2.0,10,4,,4.97,29.970472,,,,,,,,,,,SCT,11000,BKN,19000,,,,,MVFR,,,,,,,,,,,,METAR,1191.0
OIMM 052230Z 00000KT CAVOK 16/12 Q1018 A3006,OIMM,2020-05-05T22:30:00Z,36.23,59.62,16.0,12.0,0,0,,6.21,30.059055,,,,,,,,,,,CAVOK,,,,,,,,VFR,,,,,,,,,,,,METAR,980.0
KCPW 052230Z AUTO 21007G23KT 140V230 10SM CLR 06/M11 A3052 RMK AO2 LTG DSNT N,KCPW,2020-05-05T22:30:00Z,37.45,-106.8,6.0,-11.0,210,7,23,10.0,30.519686,,,TRUE,TRUE,,,,,,,CLR,,,,,,,,VFR,,,,,,,,,,,,METAR,3584.0
OISS 052230Z 00000KT CAVOK 16/07 Q1019 A3010,OISS,2020-05-05T22:30:00Z,29.52,52.57,16.0,7.0,0,0,,6.21,30.088583,,,,,,,,,,,CAVOK,,,,,,,,VFR,,,,,,,,,,,,METAR,1491.0
OITT 052230Z 09014KT 9999 FEW032 FEW035CB 15/08 Q1012 A2991,OITT,2020-05-05T22:30:00Z,38.13,46.23,15.0,8.0,90,14,,6.21,29.88189,,,,,,,,,,,FEW,3200,FEW,3500,,,,,VFR,,,,,,,,,,,,METAR,1361.0
LFQQ 052230Z AUTO 03007KT CAVOK 11/00 Q1022 NOSIG,LFQQ,2020-05-05T22:30:00Z,50.57,3.1,11.0,0.0,30,7,,6.21,30.177166,,,TRUE,,,TRUE,,,,,CAVOK,,,,,,,,VFR,,,,,,,,,,,,METAR,52.0
KMNH 052230Z AUTO 12004KT 10SM CLR 16/M04 A3025 RMK AO2 LTG DSNT NE,KMNH,2020-05-05T22:30:00Z,39.22,-104.65,16.0,-4.0,120,4,,10.0,30.250984,,,TRUE,TRUE,,,,,,,CLR,,,,,,,,VFR,,,,,,,,,,,,METAR,2152.0
VTBD 052230Z 16005KT 9999 FEW030 30/27 Q1007 NOSIG,VTBD,2020-05-05T22:30:00Z,13.92,100.6,30.0,27.0,160,5,,6.21,29.734253,,,,,,TRUE,,,,,FEW,3000,,,,,,,VFR,,,,,,,,,,,,METAR,3.0
LWSK 052230Z VRB01KT CAVOK 11/08 Q1012 NOSIG,LWSK,2020-05-05T22:30:00Z,41.97,21.63,11.0,8.0,0,1,,6.21,29.88189,,,,,,TRUE,,,,,CAVOK,,,,,,,,VFR,,,,,,,,,,,,METAR,239.0
LBBG 052230Z 24002KT CAVOK 11/10 Q1012 NOSIG,LBBG,2020-05-05T22:30:00Z,42.57,27.52,11.0,10.0,240,2,,6.21,29.88189,,,,,,TRUE,,,,,CAVOK,,,,,,,,VFR,,,,,,,,,,,,METAR,28.0
GLRB 052230Z 00000KT 9999 BKN014 FEW024CB 27/26 Q1011 NOSIG RMK CB/N-SE,GLRB,2020-05-05T22:30:00Z,6.25,-10.33,27.0,26.0,0,0,,6.21,29.852362,,,,,,TRUE,,,,,BKN,1400,FEW,2400,,,,,MVFR,,,,,,,,,,,,METAR,18.0
ZMUB 052230Z VRB02MPS 9999 BKN250 13/M12 Q1001 NOSIG RMK QFE645.0 17 MOP,ZMUB,2020-05-05T22:30:00Z,47.83,106.78,13.0,-12.0,0,4,,6.21,29.557087,,,,,,TRUE,,,,,BKN,25000,,,,,,,VFR,,,,,,,,,,,,SPECI,1330.0
WADL 052230Z 00000KT 5000 BR FEW016 23/23 Q1011 NOSIG,WADL,2020-05-05T22:30:00Z,-8.75,116.28,23.0,23.0,0,0,,3.11,29.852362,,,,,,TRUE,,,,BR,FEW,1600,,,,,,,MVFR,,,,,,,,,,,,METAR,97.0
WSAP 052230Z 21008KT 6000 -TSRA FEW015CB FEW017TCU BKN160 24/23 Q1009 RESHRA,WSAP,2020-05-05T22:30:00Z,1.37,103.92,24.0,23.0,210,8,,3.73,29.793306,,,,,,,,,,-TSRA,FEW,1500,FEW,1700,BKN,16000,,,MVFR,,,,,,,,,,,,SPECI,32.0
LEJR 052230Z AUTO 00000KT CAVOK 15/13 Q1018,LEJR,2020-05-05T22:30:00Z,36.75,-6.07,15.0,13.0,0,0,,6.21,30.059055,,,TRUE,,,,,,,,CAVOK,,,,,,,,VFR,,,,,,,,,,,,METAR,30.0
K38S 052230Z AUTO 00000KT 10SM 18/M02 A3024 ,K38S,2020-05-05T22:30:00Z,,,18.0,-2.0,0,0,,10.0,30.239174,,,TRUE,,,,,,,,,,,,,,,,,,,,,,,,,,,,METAR,
KS71 052230Z AUTO 00000KT 10SM 16/M01 A3026 ,KS71,2020-05-05T22:30:00Z,48.6,-109.25,16.0,-1.0,0,0,,10.0,30.259842,,,TRUE,,,,,,,,,,,,,,,,,,,,,,,,,,,,METAR,736.0
K3U3 052230Z AUTO 01009G15KT 10SM 18/M05 A3019 ,K3U3,2020-05-05T22:30:00Z,,,18.0,-5.0,10,9,15,10.0,30.188976,,,TRUE,,,,,,,,,,,,,,,,,,,,,,,,,,,,METAR,
K79S 052230Z AUTO 08003KT 10SM 17/M02 A3025 ,K79S,2020-05-05T22:30:00Z,,,17.0,-2.0,80,3,,10.0,30.250984,,,TRUE,,,,,,,,,,,,,,,,,,,,,,,,,,,,METAR,
KPO1 052230Z AUTO 00000KT 10SM 15/01 A3023 ,KPO1,2020-05-05T22:30:00Z,48.13,-105.17,15.0,1.0,0,0,,10.0,30.230314,,,TRUE,,,,,,,,,,,,,,,,,,,,,,,,,,,,METAR,621.0
OBBI 052230Z 12009KT CAVOK 28/18 Q1007 NOSIG,OBBI,2020-05-05T22:30:00Z,26.27,50.63,28.0,18.0,120,9,,6.21,29.734253,,,,,,TRUE,,,,,CAVOK,,,,,,,,VFR,,,,,,,,,,,,METAR,2.0
WIII 052230Z VRB01KT 5000 HZ SCT020 27/25 Q1009 NOSIG,WIII,2020-05-05T22:30:00Z,-6.13,106.67,27.0,25.0,0,1,,3.11,29.793306,,,,,,TRUE,,,,HZ,SCT,2000,,,,,,,MVFR,,,,,,,,,,,,METAR,8.0
UBBB 052230Z 15004KT 9999 -SHRA SCT056CB BKN100 22/14 Q1008 R88/D NOSIG,UBBB,2020-05-05T22:30:00Z,40.45,50.07,22.0,14.0,150,4,,6.21,29.763779,,,,,,TRUE,,,,-SHRA,SCT,5600,BKN,10000,,,,,VFR,,,,,,,,,,,,METAR,-6.0
LUKK 052230Z AUTO 26004KT 9999 OVC086/// 10/07 Q1008 R08/95D NOSIG,LUKK,2020-05-05T22:30:00Z,46.93,28.93,10.0,7.0,260,4,,6.21,29.763779,,,TRUE,,,TRUE,,,,,OVC,8600,,,,,,,VFR,,,,,,,,,,,,METAR,122.0
LFPO 052230Z AUTO 02003KT 9999 OVC038 13/09 Q1020,LFPO,2020-05-05T22:30:00Z,48.72,2.38,13.0,9.0,20,3,,6.21,30.11811,,,TRUE,,,,,,,,OVC,3800,,,,,,,VFR,,,,,,,,,,,,METAR,96.0
NLWW 052230Z 11008KT 080V140 9999 SCT023 31/26 Q1011 NOSIG,NLWW,2020-05-05T22:30:00Z,-13.23,-176.17,31.0,26.0,110,8,,6.21,29.852362,,,,,,TRUE,,,,,SCT,2300,,,,,,,VFR,,,,,,,,,,,,METAR,23.0
VTCC 052230Z 31003KT 9999 FEW035 27/22 Q1008 NOSIG,VTCC,2020-05-05T22:30:00Z,18.77,98.97,27.0,22.0,310,3,,6.21,29.763779,,,,,,TRUE,,,,,FEW,3500,,,,,,,VFR,,,,,,,,,,,,METAR,314.0
VTBU 052230Z 23004KT 9999 FEW020 29/26 Q1007 NOSIG,VTBU,2020-05-05T22:30:00Z,12.68,101.0,29.0,26.0,230,4,,6.21,29.734253,,,,,,TRUE,,,,,FEW,2000,,,,,,,VFR,,,,,,,,,,,,METAR,5.0
VTBS 052230Z 18007KT 9999 FEW020 SCT080 30/26 Q1007 NOSIG,VTBS,2020-05-05T22:30:00Z,13.68,100.75,30.0,26.0,180,7,,6.21,29.734253,,,,,,TRUE,,,,,FEW,2000,SCT,8000,,,,,VFR,,,,,,,,,,,,METAR,2.0
VVTS 052230Z 16005KT 130V200 9999 SCT017 SCT050 29/26 Q1008 NOSIG,VVTS,2020-05-05T22:30:00Z,10.82,106.67,29.0,26.0,160,5,,6.21,29.763779,,,,,,TRUE,,,,,SCT,1700,SCT,5000,,,,,VFR,,,,,,,,,,,,METAR,19.0
LFOJ 052230Z AUTO 02005KT 4000 BR BKN020 12/11 Q1019 TEMPO OVC014 BECMG 1000 BR,LFOJ,2020-05-05T22:30:00Z,47.97,1.75,12.0,11.0,20,5,,2.49,30.088583,,,TRUE,,,,,,,BR,BKN,2000,,,,,,,IFR,,,,,,,,,,,,METAR,125.0
LFOE 052230Z AUTO 05004KT 9999 OVC036 11/07 Q1020 NOSIG,LFOE,2020-05-05T22:30:00Z,49.02,1.22,11.0,7.0,50,4,,6.21,30.11811,,,TRUE,,,TRUE,,,,,OVC,3600,,,,,,,VFR,,,,,,,,,,,,METAR,146.0
LFOC 052230Z AUTO VRB02KT 4000 BR BKN017 11/10 Q1019,LFOC,2020-05-05T22:30:00Z,48.03,1.37,11.0,10.0,0,2,,2.49,30.088583,,,TRUE,,,,,,,BR,BKN,1700,,,,,,,IFR,,,,,,,,,,,,METAR,127.0
CMGB 052230Z AUTO 00000KT 09/ RMK AO1 SLP129 T0091 55000,CMGB,2020-05-05T22:30:00Z,45.37,-72.77,9.1,,0,0,,,,1012.9,,TRUE,TRUE,,,,,,,,,,,,,,,,0.0,,,,,,,,,,,METAR,86.0
LFRL 052230Z AUTO 00000KT CAVOK 12/11 Q1019 NOSIG,LFRL,2020-05-05T22:30:00Z,48.27,-4.42,12.0,11.0,0,0,,6.21,30.088583,,,TRUE,,,TRUE,,,,,CAVOK,,,,,,,,VFR,,,,,,,,,,,,METAR,82.0
LFBG 052230Z AUTO 00000KT CAVOK 14/12 Q1018 NOSIG,LFBG,2020-05-05T22:30:00Z,45.67,-0.32,14.0,12.0,0,0,,6.21,30.059055,,,TRUE,,,TRUE,,,,,CAVOK,,,,,,,,VFR,,,,,,,,,,,,METAR,31.0
LFBC 052230Z AUTO 02006KT CAVOK 16/11 Q1017 NOSIG,LFBC,2020-05-05T22:30:00Z,44.52,-1.12,16.0,11.0,20,6,,6.21,30.029528,,,TRUE,,,TRUE,,,,,CAVOK,,,,,,,,VFR,,,,,,,,,,,,METAR,33.0
VTSP 052230Z VRB01KT 9999 FEW020 26/25 Q1007 NOSIG,VTSP,2020-05-05T22:30:00Z,8.12,98.32,26.0,25.0,0,1,,6.21,29.734253,,,,,,TRUE,,,,,FEW,2000,,,,,,,VFR,,,,,,,,,,,,METAR,10.0
LFBI 052230Z AUTO 33004KT CAVOK 13/10 Q1019,LFBI,2020-05-05T22:30:00Z,46.57,0.32,13.0,10.0,330,4,,6.21,30.088583,,,TRUE,,,,,,,,CAVOK,,,,,,,,VFR,,,,,,,,,,,,METAR,120.0
LFRJ 052230Z AUTO 00000KT 0550 0350 R26/0700U R08/1000U FG VV/// 12/12 Q1019,LFRJ,2020-05-05T22:30:00Z,48.52,-4.15,12.0,12.0,0,0,,0.34,30.088583,,,TRUE,,,,,,,FG,OVX,0,,,,,,,LIFR,,,,,,,,,,,,METAR,115.0
LFBM 052230Z AUTO 04004KT CAVOK 16/12 Q1017 NOSIG,LFBM,2020-05-05T22:30:00Z,43.92,-0.5,16.0,12.0,40,4,,6.21,30.029528,,,TRUE,,,TRUE,,,,,CAVOK,,,,,,,,VFR,,,,,,,,,,,,METAR,63.0
AGGH 052230Z 00000KT 9999 FEW019 32/25 Q1010,AGGH,2020-05-05T22:30:00Z,-9.42,160.05,32.0,25.0,0,0,,6.21,29.822834,,,,,,,,,,,FEW,1900,,,,,,,VFR,,,,,,,,,,,,METAR,9.0
YPXM 052230Z AUTO 09010KT 9999 // BKN013 OVC020 OVC028 26/24 Q1010,YPXM,2020-05-05T22:30:00Z,-10.45,105.67,26.0,24.0,90,10,,6.21,29.822834,,,TRUE,,,,,,,,BKN,1300,OVC,2000,OVC,2800,,,MVFR,,,,,,,,,,,,SPECI,259.0
HECA 052230Z 30011KT 9999 SCT025 17/10 Q1016 NOSIG,HECA,2020-05-05T22:30:00Z,30.12,31.38,17.0,10.0,300,11,,6.21,30.0,,,,,,TRUE,,,,,SCT,2500,,,,,,,VFR,,,,,,,,,,,,METAR,74.0
YMDG 052230Z AUTO 20004KT 0450 // OVC001 07/07 Q1030,YMDG,2020-05-05T22:30:00Z,-32.57,149.62,7.0,7.0,200,4,,0.28,30.413385,,,TRUE,,,,,,,,OVC,100,,,,,,,LIFR,,,,,,,,,,,,SPECI,471.0
YMLT 052230Z AUTO 35009KT 9999 // BKN008 OVC036 12/11 Q1023,YMLT,2020-05-05T22:30:00Z,-41.52,147.18,12.0,11.0,350,9,,6.21,30.206694,,,TRUE,,,,,,,,BKN,800,OVC,3600,,,,,IFR,,,,,,,,,,,,SPECI,178.0
YESP 052230Z AUTO 30029G39KT 9000 // SCT025 13/05 Q1004,YESP,2020-05-05T22:30:00Z,-33.68,121.82,13.0,5.0,300,29,39,5.59,29.64567,,,TRUE,,,,,,,,SCT,2500,,,,,,,VFR,,,,,,,,,,,,SPECI,143.0
YSRI 052230Z AUTO 29001KT 5000 // BKN001 09/09 Q1030 RF00/0/000/0,YSRI,2020-05-05T22:30:00Z,-33.6,150.77,9.0,9.0,290,1,,3.11,30.413385,,,TRUE,,,,,,,,BKN,100,,,,,,,LIFR,,,,,,,,,,,,SPECI,21.0
YMAV 052230Z AUTO 00000KT 0700 // NCD 09/09 Q1025 RF00.0/000.0,YMAV,2020-05-05T22:30:00Z,-38.03,144.48,9.0,9.0,0,0,,0.43,30.265747,,,TRUE,,,,,,,,CLR,,,,,,,,LIFR,,,,,,,,,,,,SPECI,8.0
UGTB 052230Z 32003KT 280V360 9999 SCT050CB 14/12 Q1012 R31L/19//60 NOSIG,UGTB,2020-05-05T22:30:00Z,41.67,44.95,14.0,12.0,320,3,,6.21,29.88189,,,,,,TRUE,,,,,SCT,5000,,,,,,,VFR,,,,,,,,,,,,METAR,495.0
UGSB 052230Z 21006KT 9999 -SHRA SCT015CB BKN033 14/14 Q1012 R13/////// NOSIG,UGSB,2020-05-05T22:30:00Z,41.62,41.6,14.0,14.0,210,6,,6.21,29.88189,,,,,,TRUE,,,,-SHRA,SCT,1500,BKN,3300,,,,,VFR,,,,,,,,,,,,METAR,32.0
UGKO 052230Z VRB02KT 9999 SCT019CB OVC050 14/13 Q1011 R25/////// NOSIG,UGKO,2020-05-05T22:30:00Z,42.18,42.48,14.0,13.0,0,2,,6.21,29.852362,,,,,,TRUE,,,,,SCT,1900,OVC,5000,,,,,VFR,,,,,,,,,,,,METAR,68.0
YPJT 052230Z AUTO 26022G38KT 9999 -SHRA SCT049 BKN056 14/07 Q1011,YPJT,2020-05-05T22:30:00Z,-32.1,115.88,14.0,7.0,260,22,38,6.21,29.852362,,,TRUE,,,,,,,-SHRA,SCT,4900,BKN,5600,,,,,VFR,,,,,,,,,,,,SPECI,30.0
SOCA 052230Z AUTO 07004KT 9999 FEW019 SCT039 BKN062 27/25 Q1010 TEMPO 3000 SHRA FEW012TCU,SOCA,2020-05-05T22:30:00Z,4.82,-52.37,27.0,25.0,70,4,,6.21,29.822834,,,TRUE,,,,,,,,FEW,1900,SCT,3900,BKN,6200,,,VFR,,,,,,,,,,,,METAR,9.0
VDPP 052230Z 16005KT 9000 SCT017 28/26 Q1007,VDPP,2020-05-05T22:30:00Z,11.55,104.83,28.0,26.0,160,5,,5.59,29.734253,,,,,,,,,,,SCT,1700,,,,,,,VFR,,,,,,,,,,,,METAR,10.0
VVDN 052230Z 00000KT 6000 FEW015 26/24 Q1007 NOSIG,VVDN,2020-05-05T22:30:00Z,16.02,108.2,26.0,24.0,0,0,,3.73,29.734253,,,,,,TRUE,,,,,FEW,1500,,,,,,,MVFR,,,,,,,,,,,,METAR,7.0
VOBL 052230Z VRB03KT 6000 SCT012 25/20 Q1013 NOSIG,VOBL,2020-05-05T22:30:00Z,13.2,77.7,25.0,20.0,0,3,,3.73,29.911417,,,,,,TRUE,,,,,SCT,1200,,,,,,,MVFR,,,,,,,,,,,,METAR,915.0
LZKZ 052230Z 35007KT 310V020 CAVOK 07/01 Q1013,LZKZ,2020-05-05T22:30:00Z,48.67,21.23,7.0,1.0,350,7,,6.21,29.911417,,,,,,,,,,,CAVOK,,,,,,,,VFR,,,,,,,,,,,,METAR,232.0
LZTT 052230Z 26007KT 230V290 9999 BKN053 02/M02 Q1012,LZTT,2020-05-05T22:30:00Z,49.07,20.25,2.0,-2.0,260,7,,6.21,29.88189,,,,,,,,,,,BKN,5300,,,,,,,VFR,,,,,,,,,,,,METAR,707.0
LBWN 052230Z VRB02KT CAVOK 09/09 Q1011 NOSIG,LBWN,2020-05-05T22:30:00Z,43.22,27.82,9.0,9.0,0,2,,6.21,29.852362,,,,,,TRUE,,,,,CAVOK,,,,,,,,VFR,,,,,,,,,,,,METAR,43.0
LBSF 052230Z VRB02KT CAVOK 12/06 Q1012 NOSIG,LBSF,2020-05-05T22:30:00Z,42.65,23.37,12.0,6.0,0,2,,6.21,29.88189,,,,,,TRUE,,,,,CAVOK,,,,,,,,VFR,,,,,,,,,,,,METAR,592.0
LZIB 052230Z 27009KT 9999 -RA FEW046 BKN093 08/04 Q1018,LZIB,2020-05-05T22:30:00Z,48.17,17.22,8.0,4.0,270,9,,6.21,30.059055,,,,,,,,,,-RA,FEW,4600,BKN,9300,,,,,VFR,,,,,,,,,,,,METAR,134.0
LBPD 052230Z AUTO 25004KT 200V260 9999 NCD 13/07 Q1010,LBPD,2020-05-05T22:30:00Z,42.05,24.85,13.0,7.0,250,4,,6.21,29.822834,,,TRUE,,,,,,,,CLR,,,,,,,,VFR,,,,,,,,,,,,METAR,182.0
LHBP 052230Z AUTO 32010KT 9999 SCT079/// BKN097/// 10/01 Q1015 NOSIG,LHBP,2020-05-05T22:30:00Z,47.42,19.27,10.0,1.0,320,10,,6.21,29.970472,,,TRUE,,,TRUE,,,,,SCT,7900,BKN,9700,,,,,VFR,,,,,,,,,,,,METAR,185.0
LBGO 052230Z AUTO 10007KT 9999 NCD 09/09 Q1011,LBGO,2020-05-05T22:30:00Z,43.15,25.72,9.0,9.0,100,7,,6.21,29.852362,,,TRUE,,,,,,,,CLR,,,,,,,,VFR,,,,,,,,,,,,METAR,86.0
UBBG 052230Z 23008KT 9999 BKN083 16/13 Q1009 R30/190065 NOSIG,UBBG,2020-05-05T22:30:00Z,40.73,46.32,16.0,13.0,230,8,,6.21,29.793306,,,,,,TRUE,,,,,BKN,8300,,,,,,,VFR,,,,,,,,,,,,SPECI,330.0
KQEL 052230Z AUTO 00000KT / /CLR 11/10 A3008 RMK A02 TSNO,KQEL,2020-05-05T22:30:00Z,,,11.0,10.0,0,0,,,30.079725,,,TRUE,TRUE,,,TRUE,,,,CLR,,,,,,,,,,,,,,,,,,,,METAR,
KQEI 052230Z AUTO 29002KT 9000 // OVC005 11/10 A2999 RMK A02 TSNO,KQEI,2020-05-05T22:30:00Z,,,11.0,10.0,290,2,,5.59,29.991142,,,TRUE,TRUE,,,TRUE,,,,OVC,500,,,,,,,IFR,,,,,,,,,,,,METAR,
NWWW 052230Z AUTO 14008KT 9999 FEW037/// SCT044/// BKN050/// ///TCU 19/16 Q1015 TEMPO 4500 RA BECMG 14015G25KT FEW018 BKN035 BKN090,NWWW,2020-05-05T22:30:00Z,-22.02,166.22,19.0,16.0,140,8,,6.21,29.970472,,,TRUE,,,,,,,,FEW,3700,SCT,4400,BKN,5000,,,VFR,,,,,,,,,,,,METAR,16.0
KQEJ 052230Z AUTO 17001KT 0400 BCFG CLR 13/14 / RMK A02 TSNO,KQEJ,2020-05-05T22:30:00Z,,,13.0,14.0,170,1,,0.25,,,,TRUE,TRUE,,,TRUE,,,BCFG,CLR,,,,,,,,LIFR,,,,,,,,,,,,METAR,
LFRS 052230Z AUTO 00000KT 9999 2900 NSC 11/11 Q1019 TEMPO 0500 FG VV///,LFRS,2020-05-05T22:30:00Z,47.17,-1.6,11.0,11.0,0,0,,6.21,30.088583,,,TRUE,,,,,,,,CLR,,,,,,,,VFR,,,,,,,,,,,,METAR,27.0
UMMS 052230Z 33003MPS 9999 SCT005 BKN016 09/09 Q1005 R31R/////// R31L/290055 NOSIG RMK QBB150,UMMS,2020-05-05T22:30:00Z,53.88,28.03,9.0,9.0,330,6,,6.21,29.675198,,,,,,TRUE,,,,,SCT,500,BKN,1600,,,,,MVFR,,,,,,,,,,,,METAR,205.0
LPFR 052230Z 28009KT CAVOK 18/13 Q1018,LPFR,2020-05-05T22:30:00Z,37.02,-7.97,18.0,13.0,280,9,,6.21,30.059055,,,,,,,,,,,CAVOK,,,,,,,,VFR,,,,,,,,,,,,METAR,4.0
KQEN 052230Z AUTO 21001KT 9000 SCT002 12/13 / RMK A02 TSNO,KQEN,2020-05-05T22:30:00Z,,,12.0,13.0,210,1,,5.59,,,,TRUE,TRUE,,,TRUE,,,,SCT,200,,,,,,,VFR,,,,,,,,,,,,METAR,
KQEP 052230Z AUTO 17001KT 0800 BCFG OVC001 10/10 A3001 RMK A02 TSNO,KQEP,2020-05-05T22:30:00Z,,,10.0,10.0,170,1,,0.5,30.008858,,,TRUE,TRUE,,,TRUE,,,BCFG,OVC,100,,,,,,,LIFR,,,,,,,,,,,,METAR,
KQEV 052230Z AUTO 01003KT 4000 BR OVC002 12/13 A2994 RMK A02 TSNO,KQEV,2020-05-05T22:30:00Z,,,12.0,13.0,10,3,,2.49,29.940945,,,TRUE,TRUE,,,TRUE,,,BR,OVC,200,,,,,,,LIFR,,,,,,,,,,,,METAR,
KQER 052230Z AUTO 12001KT 9999 CLR 10/08 A2996 RMK A02 TSNO,KQER,2020-05-05T22:30:00Z,,,10.0,8.0,120,1,,6.21,29.958662,,,TRUE,TRUE,,,TRUE,,,,CLR,,,,,,,,VFR,,,,,,,,,,,,METAR,
KQEQ 052230Z AUTO 10001KT 6000 CLR 12/10 A3002 RMK A02 TSNO,KQEQ,2020-05-05T22:30:00Z,,,12.0,10.0,100,1,,3.73,30.02067,,,TRUE,TRUE,,,TRUE,,,,CLR,,,,,,,,MVFR,,,,,,,,,,,,METAR,
LFKS 052230Z AUTO 34006KT 9999 FEW007 16/15 Q1013,LFKS,2020-05-05T22:30:00Z,41.92,9.4,16.0,15.0,340,6,,6.21,29.911417,,,TRUE,,,,,,,,FEW,700,,,,,,,VFR,,,,,,,,,,,,METAR,22.0
LFBY 052230Z AUTO 05005KT 9999 // ////// 19/13 Q1017,LFBY,2020-05-05T22:30:00Z,43.67,-1.07,19.0,13.0,50,5,,6.21,30.029528,,,TRUE,,,,,,,,,,,,,,,,,,,,,,,,,,,,METAR,32.0
KQEX 052230Z AUTO 34003KT 9000 // BKN007 14/12 A2989 RMK A02 TSNO,KQEX,2020-05-05T22:30:00Z,,,14.0,12.0,340,3,,5.59,29.890747,,,TRUE,TRUE,,,TRUE,,,,BKN,700,,,,,,,IFR,,,,,,,,,,,,METAR,
KQEW 052230Z AUTO 31001KT 9999 BKN004 12/11 A2995 RMK A02 TSNO,KQEW,2020-05-05T22:30:00Z,,,12.0,11.0,310,1,,6.21,29.949802,,,TRUE,TRUE,,,TRUE,,,,BKN,400,,,,,,,LIFR,,,,,,,,,,,,METAR,
KQFB 052230Z AUTO 30003KT 9000 HZ SCT230 16/12 A2998 RMK A02 TSNO,KQFB,2020-05-05T22:30:00Z,,,16.0,12.0,300,3,,5.59,29.97933,,,TRUE,TRUE,,,TRUE,,,HZ,SCT,23000,,,,,,,VFR,,,,,,,,,,,,METAR,
PAPO 052230Z AUTO 36015KT 10SM OVC005 M06/M08 A3015 RMK AO2 FZRANO,PAPO,2020-05-05T22:30:00Z,68.35,-166.8,-6.0,-8.0,360,15,,10.0,30.15059,,,TRUE,TRUE,,,,TRUE,,,OVC,500,,,,,,,IFR,,,,,,,,,,,,SPECI,6.0
FMMI 052230Z 15003KT 9999 FEW017 16/15 Q1023 NOSIG,FMMI,2020-05-05T22:30:00Z,-18.8,47.47,16.0,15.0,150,3,,6.21,30.206694,,,,,,TRUE,,,,,FEW,1700,,,,,,,VFR,,,,,,,,,,,,METAR,1276.0
LDZD 052230Z 13005KT 9999 OVC055 16/11 Q1014,LDZD,2020-05-05T22:30:00Z,44.1,15.37,16.0,11.0,130,5,,6.21,29.940945,,,,,,,,,,,OVC,5500,,,,,,,VFR,,,,,,,,,,,,METAR,84.0
LDZA 052230Z VRB02KT 9999 -RA SCT045 10/08 Q1016 NOSIG,LDZA,2020-05-05T22:30:00Z,45.72,16.07,10.0,8.0,0,2,,6.21,30.0,,,,,,TRUE,,,,-RA,SCT,4500,,,,,,,VFR,,,,,,,,,,,,METAR,107.0
LDSP 052230Z AUTO 11006KT 9999 SCT061/// 18/09 Q1014,LDSP,2020-05-05T22:30:00Z,43.52,16.3,18.0,9.0,110,6,,6.21,29.940945,,,TRUE,,,,,,,,SCT,6100,,,,,,,VFR,,,,,,,,,,,,METAR,21.0
LDPL 052230Z 09007KT 9999 BKN052 16/10 Q1013,LDPL,2020-05-05T22:30:00Z,44.88,13.92,16.0,10.0,90,7,,6.21,29.911417,,,,,,,,,,,BKN,5200,,,,,,,VFR,,,,,,,,,,,,METAR,63.0
LDOS 052230Z 30007KT 9999 -RA BKN035 11/10 Q1015,LDOS,2020-05-05T22:30:00Z,45.47,18.82,11.0,10.0,300,7,,6.21,29.970472,,,,,,,,,,-RA,BKN,3500,,,,,,,VFR,,,,,,,,,,,,METAR,89.0
LDDU 052230Z 08008KT CAVOK 17/06 Q1014,LDDU,2020-05-05T22:30:00Z,42.57,18.27,17.0,6.0,80,8,,6.21,29.940945,,,,,,,,,,,CAVOK,,,,,,,,VFR,,,,,,,,,,,,METAR,165.0
TFFR 052230Z AUTO 11011KT CAVOK 27/22 Q1014 NOSIG,TFFR,2020-05-05T22:30:00Z,16.27,-61.53,27.0,22.0,110,11,,6.21,29.940945,,,TRUE,,,TRUE,,,,,CAVOK,,,,,,,,VFR,,,,,,,,,,,,METAR,11.0
VHHH 052230Z VRB03KT 9999 FEW012 28/25 Q1008 NOSIG,VHHH,2020-05-05T22:30:00Z,22.32,113.92,28.0,25.0,0,3,,6.21,29.763779,,,,,,TRUE,,,,,FEW,1200,,,,,,,VFR,,,,,,,,,,,,METAR,9.0
KQFX 052230Z AUTO 17002KT 3200 BR OVC003 11/11 A2997 RMK A02 TSNO,KQFX,2020-05-05T22:30:00Z,,,11.0,11.0,170,2,,1.99,29.970472,,,TRUE,TRUE,,,TRUE,,,BR,OVC,300,,,,,,,LIFR,,,,,,,,,,,,METAR,
KQFW 052230Z AUTO 33002KT 3200 // OVC002 10/10 A3001 RMK A02 TSNO,KQFW,2020-05-05T22:30:00Z,,,10.0,10.0,330,2,,1.99,30.008858,,,TRUE,TRUE,,,TRUE,,,,OVC,200,,,,,,,LIFR,,,,,,,,,,,,METAR,
KQFV 052230Z AUTO 04001KT 9999 FEW130 11/07 A3002 RMK A02 TSNO,KQFV,2020-05-05T22:30:00Z,,,11.0,7.0,40,1,,6.21,30.02067,,,TRUE,TRUE,,,TRUE,,,,FEW,13000,,,,,,,VFR,,,,,,,,,,,,METAR,
KQFU 052230Z AUTO 34002KT 4800 HZ CLR 12/08 A3003 RMK A02 TSNO,KQFU,2020-05-05T22:30:00Z,,,12.0,8.0,340,2,,2.98,30.029528,,,TRUE,TRUE,,,TRUE,,,HZ,CLR,,,,,,,,IFR,,,,,,,,,,,,METAR,
KQFT 052230Z AUTO 04002KT 9999 // SCT003 11/09 A2998 RMK A02 TSNO,KQFT,2020-05-05T22:30:00Z,,,11.0,9.0,40,2,,6.21,29.97933,,,TRUE,TRUE,,,TRUE,,,,SCT,300,,,,,,,VFR,,,,,,,,,,,,METAR,
EPBY 052230Z 31011KT 9999 -RA BKN011 OVC016 07/04 Q1014,EPBY,2020-05-05T22:30:00Z,53.1,18.0,7.0,4.0,310,11,,6.21,29.940945,,,,,,,,,,-RA,BKN,1100,OVC,1600,,,,,MVFR,,,,,,,,,,,,METAR,71.0
CWPF 052230Z AUTO 36005KT 17/07 RMK AO1 SLP173 T01660068 56026,CWPF,2020-05-05T22:30:00Z,48.43,-123.43,16.6,6.8,360,5,,,,1017.3,,TRUE,TRUE,,,,,,,,,,,,,,,,-2.6,,,,,,,,,,,METAR,12.0
EPLB 052230Z 29009KT 9999 -SHRA BKN032CB 07/06 Q1010,EPLB,2020-05-05T22:30:00Z,51.23,22.72,7.0,6.0,290,9,,6.21,29.822834,,,,,,,,,,-SHRA,BKN,3200,,,,,,,VFR,,,,,,,,,,,,METAR,206.0
EPKT 052230Z 29008KT 9999 FEW037 04/01 Q1014,EPKT,2020-05-05T22:30:00Z,50.47,19.08,4.0,1.0,290,8,,6.21,29.940945,,,,,,,,,,,FEW,3700,,,,,,,VFR,,,,,,,,,,,,METAR,284.0
EPMO 052230Z 29008KT 9999 BKN013 07/07 Q1011,EPMO,2020-05-05T22:30:00Z,52.45,20.65,7.0,7.0,290,8,,6.21,29.852362,,,,,,,,,,,BKN,1300,,,,,,,MVFR,,,,,,,,,,,,METAR,104.0
VABB 052230Z 21005KT 4000 HZ SCT020 30/26 Q1007 NOSIG,VABB,2020-05-05T22:30:00Z,19.1,72.87,30.0,26.0,210,5,,2.49,29.734253,,,,,,TRUE,,,,HZ,SCT,2000,,,,,,,IFR,,,,,,,,,,,,METAR,8.0
CYPO 052230Z AUTO 33013G21KT 9SM -SN OVC022 M03/M08 A3010 RMK SLP198,CYPO,2020-05-05T22:30:00Z,54.98,-85.43,-3.0,-8.0,330,13,21,9.0,30.100393,1019.8,,TRUE,,,,,,,-SN,OVC,2200,,,,,,,MVFR,,,,,,,,,,,,SPECI,53.0
NTAA 052230Z AUTO 20010KT 9999 FEW021/// BKN026/// BKN047/// 29/24 Q1012 BECMG FEW013TCU SCT020 SCT050,NTAA,2020-05-05T22:30:00Z,-17.55,-149.62,29.0,24.0,200,10,,6.21,29.88189,,,TRUE,,,,,,,,FEW,2100,BKN,2600,BKN,4700,,,MVFR,,,,,,,,,,,,METAR,2.0
EPWA 052230Z 30007KT 9999 -RA FEW036 BKN043 07/05 Q1011 NOSIG,EPWA,2020-05-05T22:30:00Z,52.17,20.97,7.0,5.0,300,7,,6.21,29.852362,,,,,,TRUE,,,,-RA,FEW,3600,BKN,4300,,,,,VFR,,,,,,,,,,,,METAR,107.0
EPRZ 052230Z 27011KT CAVOK 04/01 Q1012,EPRZ,2020-05-05T22:30:00Z,50.1,22.05,4.0,1.0,270,11,,6.21,29.88189,,,,,,,,,,,CAVOK,,,,,,,,VFR,,,,,,,,,,,,METAR,202.0
EPPO 052230Z 30010KT 9999 SCT024 BKN049 06/03 Q1016,EPPO,2020-05-05T22:30:00Z,52.42,16.82,6.0,3.0,300,10,,6.21,30.0,,,,,,,,,,,SCT,2400,BKN,4900,,,,,VFR,,,,,,,,,,,,METAR,92.0
EPLL 052230Z 28009KT CAVOK 05/03 Q1013,EPLL,2020-05-05T22:30:00Z,51.72,19.4,5.0,3.0,280,9,,6.21,29.911417,,,,,,,,,,,CAVOK,,,,,,,,VFR,,,,,,,,,,,,METAR,184.0
EPKK 052230Z 27008KT CAVOK 04/01 Q1014,EPKK,2020-05-05T22:30:00Z,50.07,19.8,4.0,1.0,270,8,,6.21,29.940945,,,,,,,,,,,CAVOK,,,,,,,,VFR,,,,,,,,,,,,METAR,237.0
EPGD 052230Z 34013KT 9000 BKN003 OVC004 06/06 Q1013,EPGD,2020-05-05T22:30:00Z,54.37,18.47,6.0,6.0,340,13,,5.59,29.911417,,,,,,,,,,,BKN,300,OVC,400,,,,,LIFR,,,,,,,,,,,,METAR,138.0
EPWR 052230Z 29008KT 9999 SCT043 04/02 Q1017,EPWR,2020-05-05T22:30:00Z,51.1,16.87,4.0,2.0,290,8,,6.21,30.029528,,,,,,,,,,,SCT,4300,,,,,,,VFR,,,,,,,,,,,,METAR,121.0
EPSC 052230Z 31006KT 9999 FEW020 BKN045 06/04 Q1019,EPSC,2020-05-05T22:30:00Z,53.58,14.9,6.0,4.0,310,6,,6.21,30.088583,,,,,,,,,,,FEW,2000,BKN,4500,,,,,VFR,,,,,,,,,,,,METAR,47.0
KHTS 052230Z AUTO 00000KT 4SM -RA BR OVC006 11/10 A2976 RMK AO2 RAB11 CIG 003V008 P0001 T01060100,KHTS,2020-05-05T22:30:00Z,38.37,-82.55,10.6,10.0,0,0,,4.0,29.760826,,,TRUE,TRUE,,,,,,-RA BR,OVC,600,,,,,,,IFR,,,,,,0.01,,,,,,SPECI,254.0
KODX 052230Z AUTO 01009G20KT 10SM FEW090 FEW120 17/01 A3010 RMK AO2 WSHFT 2210 T01720006,KODX,2020-05-05T22:30:00Z,41.62,-98.95,17.2,0.6,10,9,20,10.0,30.100393,,,TRUE,TRUE,,,,,,,FEW,9000,FEW,12000,,,,,VFR,,,,,,,,,,,,SPECI,631.0
LCLK 052230Z 25006KT 9999 FEW040 18/11 Q1009 NOSIG,LCLK,2020-05-05T22:30:00Z,34.87,33.62,18.0,11.0,250,6,,6.21,29.793306,,,,,,TRUE,,,,,FEW,4000,,,,,,,VFR,,,,,,,,,,,,METAR,2.0
LCPH 052230Z 04002KT 9999 FEW020 14/12 Q1011,LCPH,2020-05-05T22:30:00Z,34.72,32.47,14.0,12.0,40,2,,6.21,29.852362,,,,,,,,,,,FEW,2000,,,,,,,VFR,,,,,,,,,,,,METAR,8.0
LFMO 052230Z AUTO 34004KT 300V020 CAVOK 19/12 Q1014 TEMPO 35015G25KT,LFMO,2020-05-05T22:30:00Z,44.12,4.87,19.0,12.0,340,4,,6.21,29.940945,,,TRUE,,,,,,,,CAVOK,,,,,,,,VFR,,,,,,,,,,,,METAR,55.0
LFMC 052230Z AUTO 00000KT 9999 ////// 17/15 Q1013,LFMC,2020-05-05T22:30:00Z,43.37,6.37,17.0,15.0,0,0,,6.21,29.911417,,,TRUE,,,,,,,,,,,,,,,,,,,,,,,,,,,,METAR,78.0
LPPT 052230Z 25006KT 9999 SCT012 17/15 Q1019,LPPT,2020-05-05T22:30:00Z,38.77,-9.12,17.0,15.0,250,6,,6.21,30.088583,,,,,,,,,,,SCT,1200,,,,,,,VFR,,,,,,,,,,,,METAR,123.0
LPPS 052230Z 32003KT 9999 FEW015 18/14 Q1020,LPPS,2020-05-05T22:30:00Z,33.07,-16.35,18.0,14.0,320,3,,6.21,30.11811,,,,,,,,,,,FEW,1500,,,,,,,VFR,,,,,,,,,,,,METAR,82.0
LPPR 052230Z 20009KT 9999 SCT010 16/15 Q1018,LPPR,2020-05-05T22:30:00Z,41.22,-8.67,16.0,15.0,200,9,,6.21,30.059055,,,,,,,,,,,SCT,1000,,,,,,,VFR,,,,,,,,,,,,METAR,73.0
LPMA 052230Z 02003KT 340V050 9999 SCT015 19/15 Q1020,LPMA,2020-05-05T22:30:00Z,32.7,-16.77,19.0,15.0,20,3,,6.21,30.11811,,,,,,,,,,,SCT,1500,,,,,,,VFR,,,,,,,,,,,,METAR,55.0
VIDP 052230Z 00000KT 3000 HZ SCT035 SCT100 27/15 Q1005 NOSIG,VIDP,2020-05-05T22:30:00Z,28.57,77.12,27.0,15.0,0,0,,1.86,29.675198,,,,,,TRUE,,,,HZ,SCT,3500,SCT,10000,,,,,IFR,,,,,,,,,,,,METAR,233.0
LKCV 052230Z 29007KT CAVOK 04/01 Q1019 NOSIG RMK BLU BLU,LKCV,2020-05-05T22:30:00Z,49.93,15.38,4.0,1.0,290,7,,6.21,30.088583,,,,,,TRUE,,,,,CAVOK,,,,,,,,VFR,,,,,,,,,,,,METAR,242.0
VDSR 052230Z 00000KT 9000 SCT017 28/26 Q1006,VDSR,2020-05-05T22:30:00Z,13.42,103.83,28.0,26.0,0,0,,5.59,29.704725,,,,,,,,,,,SCT,1700,,,,,,,VFR,,,,,,,,,,,,METAR,15.0
LFMY 052230Z AUTO 00000KT 6000 SCT006 SCT210 15/14 Q1014,LFMY,2020-05-05T22:30:00Z,43.6,5.08,15.0,14.0,0,0,,3.73,29.940945,,,TRUE,,,,,,,,SCT,600,SCT,21000,,,,,MVFR,,,,,,,,,,,,METAR,60.0
VTSS 052230Z 00000KT 8000 FEW020 SCT100 25/25 Q1008 NOSIG,VTSS,2020-05-05T22:30:00Z,6.92,100.38,25.0,25.0,0,0,,4.97,29.763779,,,,,,TRUE,,,,,FEW,2000,SCT,10000,,,,,MVFR,,,,,,,,,,,,METAR,35.0
NCRG 052230Z AUTO 04005KT 010V080 9999 BKN028/// 27/23 Q1013,NCRG,2020-05-05T22:30:00Z,-21.2,-159.82,27.0,23.0,40,5,,6.21,29.911417,,,TRUE,,,,,,,,BKN,2800,,,,,,,MVFR,,,,,,,,,,,,METAR,7.0
VYMD 052230Z 14003KT 6000 FEW025 27/22 Q1007 NOSIG,VYMD,2020-05-05T22:30:00Z,21.7,95.98,27.0,22.0,140,3,,3.73,29.734253,,,,,,TRUE,,,,,FEW,2500,,,,,,,MVFR,,,,,,,,,,,,METAR,91.0
RKSI 052230Z 04006KT CAVOK 13/10 Q1015 NOSIG,RKSI,2020-05-05T22:30:00Z,37.47,126.45,13.0,10.0,40,6,,6.21,29.970472,,,,,,TRUE,,,,,CAVOK,,,,,,,,VFR,,,,,,,,,,,,METAR,7.0
WSSS 052230Z 27010G23KT 230V330 3000 +TSRA FEW013 FEW014CB SCT016TCU 26/23 Q1009 BECMG FM2315 TL2330 6000 NSW,WSSS,2020-05-05T22:30:00Z,1.37,103.97,26.0,23.0,270,10,23,1.86,29.793306,,,,,,,,,,+TSRA,FEW,1300,FEW,1400,SCT,1600,,,IFR,,,,,,,,,,,,SPECI,16.0
VTSM 052230Z 00000KT 9999 FEW020 28/25 Q1008 NOSIG,VTSM,2020-05-05T22:30:00Z,9.55,100.07,28.0,25.0,0,0,,6.21,29.763779,,,,,,TRUE,,,,,FEW,2000,,,,,,,VFR,,,,,,,,,,,,METAR,17.0
KBDU 052230Z AUTO 03006G09KT 10SM CLR 21/M05 A3017 RMK AO2,KBDU,2020-05-05T22:30:00Z,40.03,-105.23,21.0,-5.0,30,6,9,10.0,30.171259,,,TRUE,TRUE,,,,,,,CLR,,,,,,,,VFR,,,,,,,,,,,,METAR,1612.0
LFLL 052230Z AUTO 33007KT CAVOK 16/11 Q1018 TEMPO 4000 BR OVC003,LFLL,2020-05-05T22:30:00Z,45.72,5.07,16.0,11.0,330,7,,6.21,30.059055,,,TRUE,,,,,,,,CAVOK,,,,,,,,VFR,,,,,,,,,,,,METAR,240.0
LFBH 052230Z AUTO 35004KT CAVOK 14/12 Q1018,LFBH,2020-05-05T22:30:00Z,46.18,-1.2,14.0,12.0,350,4,,6.21,30.059055,,,TRUE,,,,,,,,CAVOK,,,,,,,,VFR,,,,,,,,,,,,METAR,10.0
LFBD 052230Z AUTO 03005KT CAVOK 15/12 Q1018 NOSIG,LFBD,2020-05-05T22:30:00Z,44.82,-0.7,15.0,12.0,30,5,,6.21,30.059055,,,TRUE,,,TRUE,,,,,CAVOK,,,,,,,,VFR,,,,,,,,,,,,METAR,61.0
LJPZ 052230Z AUTO 10003KT 9999 NSC 13/10 Q1013,LJPZ,2020-05-05T22:30:00Z,45.47,13.62,13.0,10.0,100,3,,6.21,29.911417,,,TRUE,,,,,,,,CLR,,,,,,,,VFR,,,,,,,,,,,,METAR,2.0
LJMB 052230Z AUTO 02001KT 4400 BR NSC 08/08 Q1017,LJMB,2020-05-05T22:30:00Z,46.47,15.67,8.0,8.0,20,1,,2.73,30.029528,,,TRUE,,,,,,,BR,CLR,,,,,,,,IFR,,,,,,,,,,,,METAR,265.0
LJLJ 052230Z 10004KT 9999 FEW008 OVC030 10/08 Q1016 NOSIG,LJLJ,2020-05-05T22:30:00Z,46.22,14.47,10.0,8.0,100,4,,6.21,30.0,,,,,,TRUE,,,,,FEW,800,OVC,3000,,,,,MVFR,,,,,,,,,,,,METAR,385.0
UKBB 052230Z 26002MPS CAVOK 12/10 Q1005 R36R/CLRD// NOSIG,UKBB,2020-05-05T22:30:00Z,50.33,30.9,12.0,10.0,260,4,,6.21,29.675198,,,,,,TRUE,,,,,CAVOK,,,,,,,,VFR,,,,,,,,,,,,METAR,119.0
UKLL 052230Z 26003MPS 230V290 9999 BKN036 05/04 Q1010 R31/290055 NOSIG,UKLL,2020-05-05T22:30:00Z,49.82,23.93,5.0,4.0,260,6,,6.21,29.822834,,,,,,TRUE,,,,,BKN,3600,,,,,,,VFR,,,,,,,,,,,,METAR,325.0
UKOO 052230Z 00000MPS CAVOK 09/07 Q1008 R34/090060 NOSIG,UKOO,2020-05-05T22:30:00Z,46.42,30.68,9.0,7.0,0,0,,6.21,29.763779,,,,,,TRUE,,,,,CAVOK,,,,,,,,VFR,,,,,,,,,,,,METAR,35.0
K7BM 052230Z AUTO 32005KT 10SM CLR 14/M25 A3035 RMK AO2 LTG DSNT NE,K7BM,2020-05-05T22:30:00Z,38.78,-106.22,14.0,-25.0,320,5,,10.0,30.351377,,,TRUE,TRUE,,,,,,,CLR,,,,,,,,VFR,,,,,,,,,,,,METAR,2995.0
YPPH 052230Z 27021G36KT 9999 VCSH SCT035 14/03 Q1011,YPPH,2020-05-05T22:30:00Z,-31.93,115.98,14.0,3.0,270,21,36,6.21,29.852362,,,,,,,,,,VCSH,SCT,3500,,,,,,,VFR,,,,,,,,,,,,SPECI,13.0
EICK 052230Z 09016KT 2000 -RADZ OVC002 09/09 Q1019 NOSIG,EICK,2020-05-05T22:30:00Z,51.85,-8.47,9.0,9.0,90,16,,1.24,30.088583,,,,,,TRUE,,,,-RA -DZ,OVC,200,,,,,,,LIFR,,,,,,,,,,,,METAR,162.0
EIDW 052230Z 08007KT 9999 FEW040 06/04 Q1023 NOSIG,EIDW,2020-05-05T22:30:00Z,53.42,-6.25,6.0,4.0,80,7,,6.21,30.206694,,,,,,TRUE,,,,,FEW,4000,,,,,,,VFR,,,,,,,,,,,,METAR,85.0
GMTT 052230Z VRB02KT 7000 NSC 15/13 Q1019 NOSIG,GMTT,2020-05-05T22:30:00Z,35.72,-5.9,15.0,13.0,0,2,,4.35,30.088583,,,,,,TRUE,,,,,CLR,,,,,,,,MVFR,,,,,,,,,,,,METAR,21.0
GMMN 052230Z 04005KT 9999 SCT016 17/16 Q1020 NOSIG,GMMN,2020-05-05T22:30:00Z,33.37,-7.57,17.0,16.0,40,5,,6.21,30.11811,,,,,,TRUE,,,,,SCT,1600,,,,,,,VFR,,,,,,,,,,,,METAR,206.0
GMME 052230Z 22008KT CAVOK 14/12 Q1019 NOSIG,GMME,2020-05-05T22:30:00Z,34.03,-6.77,14.0,12.0,220,8,,6.21,30.088583,,,,,,TRUE,,,,,CAVOK,,,,,,,,VFR,,,,,,,,,,,,METAR,75.0
GMFF 052230Z 26005KT CAVOK 17/11 Q1020 NOSIG,GMFF,2020-05-05T22:30:00Z,33.92,-4.97,17.0,11.0,260,5,,6.21,30.11811,,,,,,TRUE,,,,,CAVOK,,,,,,,,VFR,,,,,,,,,,,,METAR,579.0
GMAD 052230Z 00000KT CAVOK 18/16 Q1016 NOSIG,GMAD,2020-05-05T22:30:00Z,30.32,-9.42,18.0,16.0,0,0,,6.21,30.0,,,,,,TRUE,,,,,CAVOK,,,,,,,,VFR,,,,,,,,,,,,METAR,74.0
LYVR 052230Z AUTO 33012KT 9999 RA FEW006/// SCT010/// OVC018/// 11/11 Q1013,LYVR,2020-05-05T22:30:00Z,45.13,21.32,11.0,11.0,330,12,,6.21,29.911417,,,TRUE,,,,,,,RA,FEW,600,SCT,1000,OVC,1800,,,MVFR,,,,,,,,,,,,METAR,85.0
LYUZ 052230Z AUTO 26003KT 210V290 3700 -SHRA BR BKN001/// OVC003/// 09/09 Q1014 RESHRA,LYUZ,2020-05-05T22:30:00Z,43.9,19.7,9.0,9.0,260,3,,2.3,29.940945,,,TRUE,,,,,,,-SHRA BR,BKN,100,OVC,300,,,,,LIFR,,,,,,,,,,,,METAR,904.0
LYTV 052230Z 00000KT CAVOK 14/12 Q1014,LYTV,2020-05-05T22:30:00Z,42.38,18.72,14.0,12.0,0,0,,6.21,29.940945,,,,,,,,,,,CAVOK,,,,,,,,VFR,,,,,,,,,,,,METAR,5.0
LYPG 052230Z VRB02KT 9999 BKN090 17/06 Q1015 NOSIG,LYPG,2020-05-05T22:30:00Z,42.37,19.25,17.0,6.0,0,2,,6.21,29.970472,,,,,,TRUE,,,,,BKN,9000,,,,,,,VFR,,,,,,,,,,,,METAR,43.0
LYNI 052230Z 30007KT 240V360 CAVOK 16/08 Q1012 NOSIG,LYNI,2020-05-05T22:30:00Z,43.32,21.88,16.0,8.0,300,7,,6.21,29.88189,,,,,,TRUE,,,,,CAVOK,,,,,,,,VFR,,,,,,,,,,,,METAR,202.0
LYBT 052230Z 32006KT 9999 -RA BKN020 11/11 Q1014 NOSIG,LYBT,2020-05-05T22:30:00Z,44.93,20.25,11.0,11.0,320,6,,6.21,29.940945,,,,,,TRUE,,,,-RA,BKN,2000,,,,,,,MVFR,,,,,,,,,,,,METAR,80.0
LYBE 052230Z 35010KT 9999 -RA SCT010 BKN023 11/11 Q1014 NOSIG,LYBE,2020-05-05T22:30:00Z,44.82,20.28,11.0,11.0,350,10,,6.21,29.940945,,,,,,TRUE,,,,-RA,SCT,1000,BKN,2300,,,,,MVFR,,,,,,,,,,,,METAR,99.0
BIKF 052230Z 25010KT 9999 BKN016 06/03 Q1020,BIKF,2020-05-05T22:30:00Z,63.98,-22.6,6.0,3.0,250,10,,6.21,30.11811,,,,,,,,,,,BKN,1600,,,,,,,MVFR,,,,,,,,,,,,METAR,54.0
YWLM 052230Z 32009KT 0400 FG OVC002 13/13 Q1030 FM0000 31010KT 8000 SCT004 FM0030 31010KT 9999 FEW020,YWLM,2020-05-05T22:30:00Z,-32.8,151.83,13.0,13.0,320,9,,0.25,30.413385,,,,,,,,,,FG,OVC,200,,,,,,,LIFR,,,,,,,,,,,,SPECI,9.0
YSCB 052230Z AUTO 00000KT 2600 BR OVC003 04/04 Q1030 FM2230 VRB03KT 0500 FG BKN001 FM2330 VRB03KT CAVOK,YSCB,2020-05-05T22:30:00Z,-35.28,149.17,4.0,4.0,0,0,,1.62,30.413385,,,TRUE,,,,,,,BR,OVC,300,,,,,,,LIFR,,,,,,,,,,,,SPECI,577.0
LZZI 052230Z 25005KT 220V310 CAVOK 02/01 Q1016,LZZI,2020-05-05T22:30:00Z,49.23,18.62,2.0,1.0,250,5,,6.21,30.0,,,,,,,,,,,CAVOK,,,,,,,,VFR,,,,,,,,,,,,METAR,311.0
LZSL 052230Z 15004KT 100V180 CAVOK 03/01 Q1014,LZSL,2020-05-05T22:30:00Z,48.63,19.13,3.0,1.0,150,4,,6.21,29.940945,,,,,,,,,,,CAVOK,,,,,,,,VFR,,,,,,,,,,,,METAR,313.0
LZPP 052230Z AUTO VRB01KT 9999 ////// 06/02 Q1017,LZPP,2020-05-05T22:30:00Z,48.62,17.83,6.0,2.0,0,1,,6.21,30.029528,,,TRUE,,,,,,,,,,,,,,,,,,,,,,,,,,,,METAR,161.0
KQEY 052230Z AUTO 36002KT 9999 BKN009 15/13 A2967 RMK A02 TSNO,KQEY,2020-05-05T22:30:00Z,,,15.0,13.0,360,2,,6.21,29.66929,,,TRUE,TRUE,,,TRUE,,,,BKN,900,,,,,,,IFR,,,,,,,,,,,,METAR,
KQES 052230Z AUTO 8000 CLR 14/14 A3001 RMK A02 TSNO,KQES,2020-05-05T22:30:00Z,,,14.0,14.0,,,,4.97,30.008858,,,TRUE,TRUE,,,TRUE,,,,CLR,,,,,,,,MVFR,,,,,,,,,,,,METAR,
LKTB 052230Z 30007KT CAVOK 06/01 Q1018 NOSIG,LKTB,2020-05-05T22:30:00Z,49.13,16.68,6.0,1.0,300,7,,6.21,30.059055,,,,,,TRUE,,,,,CAVOK,,,,,,,,VFR,,,,,,,,,,,,METAR,246.0
VVCT 052230Z 10002KT 8000 NSC 26/26 Q1009 NOSIG,VVCT,2020-05-05T22:30:00Z,10.08,105.72,26.0,26.0,100,2,,4.97,29.793306,,,,,,TRUE,,,,,CLR,,,,,,,,MVFR,,,,,,,,,,,,METAR,3.0
OPKC 052230Z 00000KT 6000 SCT020 28/25 Q1006 NOSIG,OPKC,2020-05-05T22:30:00Z,24.88,67.17,28.0,25.0,0,0,,3.73,29.704725,,,,,,TRUE,,,,,SCT,2000,,,,,,,MVFR,,,,,,,,,,,,METAR,22.0
LKMT 052230Z 23005KT CAVOK 04/02 Q1017 NOSIG,LKMT,2020-05-05T22:30:00Z,49.67,18.12,4.0,2.0,230,5,,6.21,30.029528,,,,,,TRUE,,,,,CAVOK,,,,,,,,VFR,,,,,,,,,,,,METAR,256.0
LKPR 052230Z 29007KT CAVOK 02/M02 Q1020 NOSIG,LKPR,2020-05-05T22:30:00Z,50.1,14.27,2.0,-2.0,290,7,,6.21,30.11811,,,,,,TRUE,,,,,CAVOK,,,,,,,,VFR,,,,,,,,,,,,METAR,365.0
WAJJ 052230Z 00000KT 9999 FEW012 28/23 Q1009 NOSIG,WAJJ,2020-05-05T22:30:00Z,-2.58,140.52,28.0,23.0,0,0,,6.21,29.793306,,,,,,TRUE,,,,,FEW,1200,,,,,,,VFR,,,,,,,,,,,,METAR,88.0
LFMN 052230Z AUTO 08008KT 9999 OVC012 18/16 Q1014 BECMG OVC007,LFMN,2020-05-05T22:30:00Z,43.63,7.2,18.0,16.0,80,8,,6.21,29.940945,,,TRUE,,,,,,,,OVC,1200,,,,,,,MVFR,,,,,,,,,,,,METAR,10.0
TFFF 052230Z AUTO 11014KT 9999 FEW026 BKN052 28/23 Q1014 NOSIG,TFFF,2020-05-05T22:30:00Z,14.6,-61.0,28.0,23.0,110,14,,6.21,29.940945,,,TRUE,,,TRUE,,,,,FEW,2600,BKN,5200,,,,,VFR,,,,,,,,,,,,METAR,5.0
VVNB 052230Z 06005KT 8000 FEW012 26/24 Q1005 NOSIG,VVNB,2020-05-05T22:30:00Z,21.22,105.8,26.0,24.0,60,5,,4.97,29.675198,,,,,,TRUE,,,,,FEW,1200,,,,,,,MVFR,,,,,,,,,,,,METAR,12.0
KWYS 052230Z AUTO 00000KT 10SM SCT090 BKN110 13/M08 A3027 RMK AO2,KWYS,2020-05-05T22:30:00Z,44.67,-111.12,13.0,-8.0,0,0,,10.0,30.268702,,,TRUE,TRUE,,,,,,,SCT,9000,BKN,11000,,,,,VFR,,,,,,,,,,,,METAR,2025.0
VVCI 052230Z 12005KT 9999 BKN011 26/25 Q1005 NOSIG,VVCI,2020-05-05T22:30:00Z,20.82,106.73,26.0,25.0,120,5,,6.21,29.675198,,,,,,TRUE,,,,,BKN,1100,,,,,,,MVFR,,,,,,,,,,,,METAR,3.0
WAMM 052230Z 00000KT 9999 FEW022 24/24 Q1010 NOSIG,WAMM,2020-05-05T22:30:00Z,1.55,124.92,24.0,24.0,0,0,,6.21,29.822834,,,,,,TRUE,,,,,FEW,2200,,,,,,,VFR,,,,,,,,,,,,METAR,80.0
ZBAD 052230Z 07002MPS 2000 BR NSC 15/14 Q1014 NOSIG,ZBAD,2020-05-05T22:30:00Z,39.5,116.42,15.0,14.0,70,4,,1.24,29.940945,,,,,,TRUE,,,,BR,CLR,,,,,,,,IFR,,,,,,,,,,,,METAR,25.0
ZBAA 052230Z 05002MPS 010V080 3500 BR SCT033 17/14 Q1015 NOSIG,ZBAA,2020-05-05T22:30:00Z,40.07,116.58,17.0,14.0,50,4,,2.17,29.970472,,,,,,TRUE,,,,BR,SCT,3300,,,,,,,IFR,,,,,,,,,,,,METAR,30.0
LFPV 052230Z AUTO 36003KT 330V030 9999 BKN035 OVC042 13/08 Q1019 NOSIG,LFPV,2020-05-05T22:30:00Z,48.77,2.2,13.0,8.0,360,3,,6.21,30.088583,,,TRUE,,,TRUE,,,,,BKN,3500,OVC,4200,,,,,VFR,,,,,,,,,,,,METAR,179.0
LFOA 052230Z AUTO 05003KT 8000 NSC 12/10 Q1019 TEMPO 0300 FG VV///,LFOA,2020-05-05T22:30:00Z,47.03,2.63,12.0,10.0,50,3,,4.97,30.088583,,,TRUE,,,,,,,,CLR,,,,,,,,MVFR,,,,,,,,,,,,METAR,179.0
ZBTJ 052230Z 12001MPS 2500 BR NSC 16/14 Q1014 NOSIG,ZBTJ,2020-05-05T22:30:00Z,39.12,117.35,16.0,14.0,120,2,,1.55,29.940945,,,,,,TRUE,,,,BR,CLR,,,,,,,,IFR,,,,,,,,,,,,METAR,3.0
ZBYN 052230Z 08001MPS CAVOK 11/05 Q1013 NOSIG,ZBYN,2020-05-05T22:30:00Z,37.77,112.63,11.0,5.0,80,2,,6.21,29.911417,,,,,,TRUE,,,,,CAVOK,,,,,,,,VFR,,,,,,,,,,,,METAR,779.0
VGHS 052230Z 08006KT 3500 HZ SCT012 BKN100 25/22 Q1007 NOSIG,VGHS,2020-05-05T22:30:00Z,23.85,90.4,25.0,22.0,80,6,,2.17,29.734253,,,,,,TRUE,,,,HZ,SCT,1200,BKN,10000,,,,,IFR,,,,,,,,,,,,METAR,10.0
KC99 052229Z AUTO 31011G19KT 10SM CLR 06/M13 A3041 RMK AO2 LTG DSNT NE,KC99,2020-05-05T22:29:00Z,39.87,-105.55,6.0,-13.0,310,11,19,10.0,30.410433,,,TRUE,TRUE,,,,,,,CLR,,,,,,,,VFR,,,,,,,,,,,,METAR,3334.0
KOTG 052229Z AUTO 34008KT 10SM -RA BKN008 BKN015 OVC050 08/07 A3011 RMK AO2 CIG 007V010 P0000,KOTG,2020-05-05T22:29:00Z,43.63,-95.57,8.0,7.0,340,8,,10.0,30.109253,,,TRUE,TRUE,,,,,,-RA,BKN,800,BKN,1500,OVC,5000,,,IFR,,,,,,0.005,,,,,,SPECI,480.0
K2V6 052229Z AUTO 34009G16KT 10SM SCT110 20/M17 A3015 RMK AO2 LTG DSNT NE,K2V6,2020-05-05T22:29:00Z,40.1,-102.72,20.0,-17.0,340,9,16,10.0,30.15059,,,TRUE,TRUE,,,,,,,SCT,11000,,,,,,,VFR,,,,,,,,,,,,METAR,1261.0
FAGG 052228Z AUTO 31004KT 8000 DZ SCT024/// BKN028/// OVC033/// 15/14 Q1027,FAGG,2020-05-05T22:28:00Z,-34.0,22.37,15.0,14.0,310,4,,4.97,30.324802,,,TRUE,,,,,,,DZ,SCT,2400,BKN,2800,OVC,3300,,,MVFR,,,,,,,,,,,,SPECI,193.0
KOTH 052228Z 24008KT 10SM SCT012 OVC026 14/12 A3016 RMK AO2,KOTH,2020-05-05T22:28:00Z,43.42,-124.25,14.0,12.0,240,8,,10.0,30.159449,,,,TRUE,,,,,,,SCT,1200,OVC,2600,,,,,MVFR,,,,,,,,,,,,SPECI,4.0
KCAR 052228Z AUTO 01010KT 10SM -RA SCT014 BKN038 OVC050 03/01 A2981 RMK AO2 RAB2155 P0000 T00330006,KCAR,2020-05-05T22:28:00Z,46.87,-68.02,3.3,0.6,10,10,,10.0,29.811024,,,TRUE,TRUE,,,,,,-RA,SCT,1400,BKN,3800,OVC,5000,,,VFR,,,,,,0.005,,,,,,SPECI,191.0
RJKN 052228Z AUTO 17011KT 1700 +RA BR FEW005 SCT008 BKN021 //////TCU 23/22 Q1005 RMK A2969 RI018 TCU OHD AND 25KM NE MOV E AND 20KM N MOV NE AND 40KM NW MOV UNKNOWN,RJKN,2020-05-05T22:28:00Z,27.82,128.87,23.0,22.0,170,11,,1.06,29.675198,,,TRUE,,,,,,,+RA BR,FEW,500,SCT,800,BKN,2100,,,IFR,,,,,,,,,,,,SPECI,5.0
YLIS 052227Z AUTO 20009KT 9999 // SCT006 SCT016 BKN027 17/15 Q1028,YLIS,2020-05-05T22:27:00Z,-28.83,153.27,17.0,15.0,200,9,,6.21,30.35433,,,TRUE,,,,,,,,SCT,600,SCT,1600,BKN,2700,,,MVFR,,,,,,,,,,,,SPECI,11.0
KMML 052227Z AUTO 33010KT 10SM -RA BKN011 BKN026 OVC032 09/07 A3011 RMK AO2 P0000,KMML,2020-05-05T22:27:00Z,44.45,-95.82,9.0,7.0,330,10,,10.0,30.109253,,,TRUE,TRUE,,,,,,-RA,BKN,1100,BKN,2600,OVC,3200,,,MVFR,,,,,,0.005,,,,,,SPECI,359.0
K5SM 052226Z AUTO 24005KT 10SM CLR 07/M13 A3047 RMK AO2 LTG DSNT NE,K5SM,2020-05-05T22:26:00Z,39.43,-107.38,7.0,-13.0,240,5,,10.0,30.469488,,,TRUE,TRUE,,,,,,,CLR,,,,,,,,VFR,,,,,,,,,,,,METAR,3232.0
CYXJ 052226Z 24010G17KT 190V270 60SM -RA BKN055 BKN120 12/M00 A3011 RMK SC5AC2 SLP222 DENSITY ALT 2300FT,CYXJ,2020-05-05T22:26:00Z,56.25,-120.73,12.0,0.0,240,10,17,60.0,30.109253,1022.2,,,,,,,,,-RA,BKN,5500,BKN,12000,,,,,VFR,,,,,,,,,,,,SPECI,695.0
CYYQ 052226Z 34017G28KT 15SM BKN025 M06/M09 A3033 RMK SC7 SLP275,CYYQ,2020-05-05T22:26:00Z,58.75,-94.07,-6.0,-9.0,340,17,28,15.0,30.33071,1027.5,,,,,,,,,,BKN,2500,,,,,,,MVFR,,,,,,,,,,,,SPECI,29.0
RKPC 052226Z 05SPECI,RKPC,2020-05-05T22:26:00Z,33.5,126.48,,,,,,,,,,,,,,,,,PE,,,,,,,,,,,,,,,,,,,,,METAR,27.0
PGUM 052226Z 09010KT 10SM FEW015 BKN020 BKN029 28/24 A2992 RMK AO2 T02830239,PGUM,2020-05-05T22:26:00Z,13.48,144.8,28.3,23.9,90,10,,10.0,29.920275,,,,TRUE,,,,,,,FEW,1500,BKN,2000,BKN,2900,,,MVFR,,,,,,,,,,,,METAR,91.0
PADE 052226Z AUTO 30009KT 10SM SCT007 M02/M06 A3010 RMK AO2 T10221056 TSNO,PADE,2020-05-05T22:26:00Z,66.07,-162.77,-2.2,-5.6,300,9,,10.0,30.100393,,,TRUE,TRUE,,,TRUE,,,,SCT,700,,,,,,,VFR,,,,,,,,,,,,SPECI,5.0
KROS 052226Z AUTO 02006KT 10SM SCT120 14/M02 A3005 RMK AO2,KROS,2020-05-05T22:26:00Z,45.7,-92.95,14.0,-2.0,20,6,,10.0,30.050198,,,TRUE,TRUE,,,,,,,SCT,12000,,,,,,,VFR,,,,,,,,,,,,SPECI,281.0
CYQU 052226Z 26022G31KT 25SM BKN040TCU BKN100 08/03 A3017 RMK TCU5AC2 SH SE-NW SLP245,CYQU,2020-05-05T22:26:00Z,55.18,-118.88,8.0,3.0,260,22,31,25.0,30.171259,1024.5,,,,,,,,,,BKN,4000,BKN,10000,,,,,VFR,,,,,,,,,,,,SPECI,669.0
EBBE 052225Z AUTO 06004KT 9999 NCD 08/00 Q1022 BLU,EBBE,2020-05-05T22:25:00Z,50.75,4.77,8.0,0.0,60,4,,6.21,30.177166,,,TRUE,,,,,,,,CLR,,,,,,,,VFR,,,,,,,,,,,,SPECI,127.0
EBCV 052225Z AUTO 03003KT 9999 NCD 07/01 Q1022 BLU,EBCV,2020-05-05T22:25:00Z,50.57,3.82,7.0,1.0,30,3,,6.21,30.177166,,,TRUE,,,,,,,,CLR,,,,,,,,VFR,,,,,,,,,,,,SPECI,63.0
EBBL 052225Z AUTO VRB01KT 9999 NCD 07/00 Q1023 BLU,EBBL,2020-05-05T22:25:00Z,51.17,5.47,7.0,0.0,0,1,,6.21,30.206694,,,TRUE,,,,,,,,CLR,,,,,,,,VFR,,,,,,,,,,,,SPECI,64.0
EBDT 052225Z AUTO 05004KT 9999 SCT100/// BKN120/// BKN140/// 08/00 Q1023 BLU,EBDT,2020-05-05T22:25:00Z,51.02,5.07,8.0,0.0,50,4,,6.21,30.206694,,,TRUE,,,,,,,,SCT,10000,BKN,12000,BKN,14000,,,VFR,,,,,,,,,,,,SPECI,54.0
EBFS 052225Z AUTO 07006KT 9999 SCT085/// BKN100/// OVC110/// 07/M01 Q1021 BLU,EBFS,2020-05-05T22:25:00Z,50.22,4.65,7.0,-1.0,70,6,,6.21,30.147638,,,TRUE,,,,,,,,SCT,8500,BKN,10000,OVC,11000,,,VFR,,,,,,,,,,,,SPECI,299.0
EBFN 052225Z AUTO 05010KT 9999 NCD 09/06 Q1023 BLU,EBFN,2020-05-05T22:25:00Z,51.07,2.63,9.0,6.0,50,10,,6.21,30.206694,,,TRUE,,,,,,,,CLR,,,,,,,,VFR,,,,,,,,,,,,SPECI,9.0
EBLB 052225Z AUTO 08003KT 9999 NCD 02/M01 Q1022 BLU,EBLB,2020-05-05T22:25:00Z,50.47,6.17,2.0,-1.0,80,3,,6.21,30.177166,,,TRUE,,,,,,,,CLR,,,,,,,,VFR,,,,,,,,,,,,SPECI,570.0
SBPL 052225Z 17008KT 9999 FEW025 BKN070 30/17 Q1014,SBPL,2020-05-05T22:25:00Z,-9.37,-40.57,30.0,17.0,170,8,,6.21,29.940945,,,,,,,,,,,FEW,2500,BKN,7000,,,,,VFR,,,,,,,,,,,,SPECI,375.0
K2G4 052225Z AUTO 12011G17KT 10SM SCT008 SCT011 BKN046 05/01 A2979 RMK AO1,K2G4,2020-05-05T22:25:00Z,39.58,-79.33,5.0,1.0,120,11,17,10.0,29.790354,,,TRUE,TRUE,,,,,,,SCT,800,SCT,1100,BKN,4600,,,VFR,,,,,,,,,,,,SPECI,894.0
KGHW 052225Z AUTO 02003KT 10SM SCT048 11/02 A3009 RMK AO2,KGHW,2020-05-05T22:25:00Z,45.63,-95.32,11.0,2.0,20,3,,10.0,30.088583,,,TRUE,TRUE,,,,,,,SCT,4800,,,,,,,VFR,,,,,,,,,,,,SPECI,425.0
EHDL 052225Z AUTO 03010KT 340V070 9999 NCD 07/03 Q1024 BLU,EHDL,2020-05-05T22:25:00Z,52.07,5.87,7.0,3.0,30,10,,6.21,30.236221,,,TRUE,,,,,,,,CLR,,,,,,,,VFR,,,,,,,,,,,,METAR,52.0
EHGR 052225Z AUTO 02006KT 340V070 9999 NCD 07/03 Q1023 BLU,EHGR,2020-05-05T22:25:00Z,51.57,4.92,7.0,3.0,20,6,,6.21,30.206694,,,TRUE,,,,,,,,CLR,,,,,,,,VFR,,,,,,,,,,,,METAR,13.0
EHLW 052225Z AUTO 32002KT 9999 NCD 04/03 Q1025 BLU,EHLW,2020-05-05T22:25:00Z,53.22,5.75,4.0,3.0,320,2,,6.21,30.265747,,,TRUE,,,,,,,,CLR,,,,,,,,VFR,,,,,,,,,,,,METAR,2.0
EHVK 052225Z AUTO 03005KT 9999 NCD 09/02 Q1023 BLU,EHVK,2020-05-05T22:25:00Z,51.63,5.7,9.0,2.0,30,5,,6.21,30.206694,,,TRUE,,,,,,,,CLR,,,,,,,,VFR,,,,,,,,,,,,METAR,21.0
EHAM 052225Z 04007KT 010V070 CAVOK 08/04 Q1024 NOSIG,EHAM,2020-05-05T22:25:00Z,52.32,4.78,8.0,4.0,40,7,,6.21,30.236221,,,,,,TRUE,,,,,CAVOK,,,,,,,,VFR,,,,,,,,,,,,METAR,9.0
EHWO 052225Z AUTO 04007KT 360V060 9999 NCD 08/03 Q1023 BLU,EHWO,2020-05-05T22:25:00Z,51.45,4.32,8.0,3.0,40,7,,6.21,30.206694,,,TRUE,,,,,,,,CLR,,,,,,,,VFR,,,,,,,,,,,,METAR,17.0
EHVL 052225Z AUTO 03010KT 9999 NCD 06/03 Q1025 BLU,EHVL,2020-05-05T22:25:00Z,53.28,5.08,6.0,3.0,30,10,,6.21,30.265747,,,TRUE,,,,,,,,CLR,,,,,,,,VFR,,,,,,,,,,,,METAR,2.0
EHGG 052225Z AUTO VRB02KT 9999 NCD 03/02 Q1025,EHGG,2020-05-05T22:25:00Z,53.12,6.57,3.0,2.0,0,2,,6.21,30.265747,,,TRUE,,,,,,,,CLR,,,,,,,,VFR,,,,,,,,,,,,METAR,4.0
EHBK 052225Z AUTO 09004KT 9999 NCD 07/02 Q1022,EHBK,2020-05-05T22:25:00Z,50.92,5.77,7.0,2.0,90,4,,6.21,30.177166,,,TRUE,,,,,,,,CLR,,,,,,,,VFR,,,,,,,,,,,,METAR,116.0
EHLE 052225Z AUTO 05009KT 9999 NCD 07/04 Q1024,EHLE,2020-05-05T22:25:00Z,52.45,5.52,7.0,4.0,50,9,,6.21,30.236221,,,TRUE,,,,,,,,CLR,,,,,,,,VFR,,,,,,,,,,,,METAR,-6.0
EHRD 052225Z AUTO 03004KT 360V060 9999 NCD 07/04 Q1024 NOSIG,EHRD,2020-05-05T22:25:00Z,51.95,4.45,7.0,4.0,30,4,,6.21,30.236221,,,TRUE,,,TRUE,,,,,CLR,,,,,,,,VFR,,,,,,,,,,,,METAR,-5.0
KLXL 052225Z AUTO 01003KT 10SM BKN060 14/01 A3006 RMK AO2,KLXL,2020-05-05T22:25:00Z,45.95,-94.33,14.0,1.0,10,3,,10.0,30.059055,,,TRUE,TRUE,,,,,,,BKN,6000,,,,,,,VFR,,,,,,,,,,,,SPECI,342.0
PACZ 052225Z AUTO 03011KT 10SM FEW150 07/M07 A3004 RMK AO2 WSHFT 2204 SLP177,PACZ,2020-05-05T22:25:00Z,61.78,-166.03,7.0,-7.0,30,11,,10.0,30.041338,1017.7,,TRUE,TRUE,,,,,,,FEW,15000,,,,,,,VFR,,,,,,,,,,,,SPECI,146.0
KUAO 052225Z 19008KT 10SM FEW085 22/10 A3005 RMK AO2 T02170100,KUAO,2020-05-05T22:25:00Z,45.25,-122.77,21.7,10.0,190,8,,10.0,30.050198,,,,TRUE,,,,,,,FEW,8500,,,,,,,VFR,,,,,,,,,,,,SPECI,59.0
EHEH 052225Z AUTO 02007KT 9999 NCD 07/01 Q1023 BLU,EHEH,2020-05-05T22:25:00Z,51.45,5.38,7.0,1.0,20,7,,6.21,30.206694,,,TRUE,,,,,,,,CLR,,,,,,,,VFR,,,,,,,,,,,,METAR,22.0
EHKD 052225Z AUTO 04010KT 010V090 9999 NCD 08/04 Q1025 BLU,EHKD,2020-05-05T22:25:00Z,52.92,4.77,8.0,4.0,40,10,,6.21,30.265747,,,TRUE,,,,,,,,CLR,,,,,,,,VFR,,,,,,,,,,,,METAR,14.0
EHAK 052225Z AUTO 02007KT 350V050 9999 SCT026/// 07/01 Q1026,EHAK,2020-05-05T22:25:00Z,55.42,3.82,7.0,1.0,20,7,,6.21,30.295275,,,TRUE,,,,,,,,SCT,2600,,,,,,,VFR,,,,,,,,,,,,METAR,50.0
EHFD 052225Z AUTO /////KT 9999 SCT026/// 08/01 Q1026,EHFD,2020-05-05T22:25:00Z,54.85,4.7,8.0,1.0,,,,6.21,30.295275,,,TRUE,,,,,,,,SCT,2600,,,,,,,VFR,,,,,,,,,,,,METAR,50.0
EHDV 052225Z AUTO VRB09KT 9999 BKN031/// 08/01 Q1026,EHDV,2020-05-05T22:25:00Z,54.32,2.93,8.0,1.0,0,9,,6.21,30.295275,,,TRUE,,,,,,,,BKN,3100,,,,,,,VFR,,,,,,,,,,,,METAR,50.0
EHFZ 052225Z AUTO 03006KT 9999 BKN028 08/01 Q1026,EHFZ,2020-05-05T22:25:00Z,54.12,4.02,8.0,1.0,30,6,,6.21,30.295275,,,TRUE,,,,,,,,BKN,2800,,,,,,,MVFR,,,,,,,,,,,,METAR,50.0
EHHW 052225Z AUTO 03008KT 9999 NCD 08/04 Q1025,EHHW,2020-05-05T22:25:00Z,54.03,6.03,8.0,4.0,30,8,,6.21,30.265747,,,TRUE,,,,,,,,CLR,,,,,,,,VFR,,,,,,,,,,,,METAR,0.0
EHJR 052225Z AUTO 05017KT //// // ///////// 08/01 Q1026 RE// W10/H11,EHJR,2020-05-05T22:25:00Z,53.22,3.22,8.0,1.0,50,17,,,30.295275,,,TRUE,,,,,,,,,,,,,,,,,,,,,,,,,,,,METAR,50.0
EHJA 052225Z AUTO 03012KT 350V050 9999 NCD 08/01 Q1025,EHJA,2020-05-05T22:25:00Z,53.82,2.95,8.0,1.0,30,12,,6.21,30.265747,,,TRUE,,,,,,,,CLR,,,,,,,,VFR,,,,,,,,,,,,METAR,50.0
EHMA 052225Z AUTO VRB10KT 9999 NCD 09/04 Q1025,EHMA,2020-05-05T22:25:00Z,53.5,5.95,9.0,4.0,0,10,,6.21,30.265747,,,TRUE,,,,,,,,CLR,,,,,,,,VFR,,,,,,,,,,,,METAR,50.0
EHKV 052225Z AUTO 03017KT 9999 NCD 08/02 Q////,EHKV,2020-05-05T22:25:00Z,53.27,3.63,8.0,2.0,30,17,,6.21,,,,TRUE,,,,,,,,CLR,,,,,,,,VFR,,,,,,,,,,,,METAR,50.0
EHPG 052225Z AUTO 05019KT 9999 NCD 09/03 Q1025,EHPG,2020-05-05T22:25:00Z,52.37,3.35,9.0,3.0,50,19,,6.21,30.265747,,,TRUE,,,,,,,,CLR,,,,,,,,VFR,,,,,,,,,,,,METAR,50.0
EHMG 052225Z AUTO 01006KT 9999 FEW027 08/03 Q1026,EHMG,2020-05-05T22:25:00Z,53.62,4.97,8.0,3.0,10,6,,6.21,30.295275,,,TRUE,,,,,,,,FEW,2700,,,,,,,VFR,,,,,,,,,,,,METAR,50.0
EHQE 052225Z AUTO 02018KT 9999 NCD 09/03 Q1025,EHQE,2020-05-05T22:25:00Z,52.92,4.15,9.0,3.0,20,18,,6.21,30.265747,,,TRUE,,,,,,,,CLR,,,,,,,,VFR,,,,,,,,,,,,METAR,50.0
EHSA 052225Z AUTO 03022KT 9999 ///////// 09/05 Q1024 W09/H16,EHSA,2020-05-05T22:25:00Z,52.0,3.28,9.0,5.0,30,22,,6.21,30.236221,,,TRUE,,,,,,,,,,,,,,,,,,,,,,,,,,,,METAR,50.0
EHSC 052225Z AUTO 06021KT 9999 ///////// 09/05 Q1024 W11/H14,EHSC,2020-05-05T22:25:00Z,51.93,3.67,9.0,5.0,60,21,,6.21,30.236221,,,TRUE,,,,,,,,,,,,,,,,,,,,,,,,,,,,METAR,50.0
K2W6 052225Z AUTO 00000KT 10SM OVC060 11/08 A2989 RMK AO1,K2W6,2020-05-05T22:25:00Z,38.32,-76.55,11.0,8.0,0,0,,10.0,29.890747,,,TRUE,TRUE,,,,,,,OVC,6000,,,,,,,VFR,,,,,,,,,,,,SPECI,44.0
K7S1 052225Z AUTO 00000KT 10SM CLR 19/M07 A3022 RMK AO2 Twin Bridges ,K7S1,2020-05-05T22:25:00Z,45.53,-112.3,19.0,-7.0,0,0,,10.0,30.221457,,,TRUE,TRUE,,,,,,,CLR,,,,,,,,VFR,,,,,,,,,,,,METAR,1456.0
KCII 052225Z AUTO VRB03KT 10SM 16/M06 A3023 RMK A01 Choteau ,KCII,2020-05-05T22:25:00Z,,,16.0,-6.0,0,3,,10.0,30.230314,,,TRUE,TRUE,,,,,,,,,,,,,,,,,,,,,,,,,,,METAR,
K6S0 052225Z AUTO 08008KT 10SM BKN090 17/M05 A3023 RMK A01 Big Timber ,K6S0,2020-05-05T22:25:00Z,45.8,-109.97,17.0,-5.0,80,8,,10.0,30.230314,,,TRUE,TRUE,,,,,,,BKN,9000,,,,,,,VFR,,,,,,,,,,,,METAR,1363.0
K7S0 052225Z AUTO 33007KT 10SM 19/M02 A3017 RMK A01 Ronan ,K7S0,2020-05-05T22:25:00Z,,,19.0,-2.0,330,7,,10.0,30.171259,,,TRUE,TRUE,,,,,,,,,,,,,,,,,,,,,,,,,,,METAR,
K7S6 052225Z AUTO VRB03KT 10SM 15/M06 A3023 RMK A01 White Sulphur Spgs ,K7S6,2020-05-05T22:25:00Z,,,15.0,-6.0,0,3,,10.0,30.230314,,,TRUE,TRUE,,,,,,,,,,,,,,,,,,,,,,,,,,,METAR,
KS85 052225Z AUTO VRB04G11KT 9SM 16/02 A3021 RMK A01 Culbertson ,KS85,2020-05-05T22:25:00Z,,,16.0,2.0,0,4,11,9.0,30.209646,,,TRUE,TRUE,,,,,,,,,,,,,,,,,,,,,,,,,,,METAR,
K6S5 052225Z AUTO VRB05KT 10SM CLR 21/M02 A3015 RMK AO2 Hamilton ,K6S5,2020-05-05T22:25:00Z,46.25,-114.13,21.0,-2.0,0,5,,10.0,30.15059,,,TRUE,TRUE,,,,,,,CLR,,,,,,,,VFR,,,,,,,,,,,,METAR,1110.0
K00U 052225Z AUTO 33013G26KT 10SM CLR 17/M02 A3024 RMK A01 Hardin ,K00U,2020-05-05T22:25:00Z,,,17.0,-2.0,330,13,26,10.0,30.239174,,,TRUE,TRUE,,,,,,,CLR,,,,,,,,VFR,,,,,,,,,,,,METAR,
K6S8 052225Z AUTO 02008G16KT 10SM 18/M06 A3024 RMK A01 LAUREL,K6S8,2020-05-05T22:25:00Z,45.7,-108.77,18.0,-6.0,20,8,16,10.0,30.239174,,,TRUE,TRUE,,,,,,,,,,,,,,,,,,,,,,,,,,,SPECI,1072.0
K4U6 052225Z AUTO 34014KT 10SM 16/00 A3022 RMK A01 Circle ,K4U6,2020-05-05T22:25:00Z,,,16.0,0.0,340,14,,10.0,30.221457,,,TRUE,TRUE,,,,,,,,,,,,,,,,,,,,,,,,,,,METAR,
KPWD 052225Z AUTO 36004KT 10SM FEW100 14/00 A3022 RMK A01 Plentywood ,KPWD,2020-05-05T22:25:00Z,48.78,-104.52,14.0,0.0,360,4,,10.0,30.221457,,,TRUE,TRUE,,,,,,,FEW,10000,,,,,,,VFR,,,,,,,,,,,,METAR,686.0
KDMW 052225Z AUTO 00000KT 10SM OVC090 13/01 A2987 RMK AO2,KDMW,2020-05-05T22:25:00Z,39.6,-77.0,13.0,1.0,0,0,,10.0,29.870079,,,TRUE,TRUE,,,,,,,OVC,9000,,,,,,,VFR,,,,,,,,,,,,SPECI,241.0
EHFS 052225Z AUTO 03012KT 360V060 9999 NCD 09/04 Q1023,EHFS,2020-05-05T22:25:00Z,51.45,3.6,9.0,4.0,30,12,,6.21,30.206694,,,TRUE,,,,,,,,CLR,,,,,,,,VFR,,,,,,,,,,,,METAR,32.0
OPIS 052225Z 31004KT 8000 FEW040 18/13 Q1008 NOSIG,OPIS,2020-05-05T22:25:00Z,33.55,72.83,18.0,13.0,310,4,,4.97,29.763779,,,,,,TRUE,,,,,FEW,4000,,,,,,,MVFR,,,,,,,,,,,,METAR,537.0
OPLA 052225Z 00000KT 5000 FU FEW100 25/16 Q1006 RMK QFE980 RMK A29.72,OPLA,2020-05-05T22:25:00Z,31.52,74.4,25.0,16.0,0,0,,3.11,29.704725,,,,,,,,,,FU,FEW,10000,,,,,,,MVFR,,,,,,,,,,,,SPECI,217.0
RJFU 052224Z 33004KT 300V360 6000 FEW004 SCT006 BKN/// 18/18 Q1009 RMK 1ST004 3ST006 A2982,RJFU,2020-05-05T22:24:00Z,32.92,129.92,18.0,18.0,330,4,,3.73,29.793306,,,,,,,,,,,FEW,400,SCT,600,,,,,MVFR,,,,,,,,,,,,SPECI,5.0
KBOK 052224Z AUTO 16005KT 1 1/4SM -RA BR OVC003 12/12 A3019 RMK AO2 P0002,KBOK,2020-05-05T22:24:00Z,42.07,-124.28,12.0,12.0,160,5,,1.25,30.188976,,,TRUE,TRUE,,,,,,-RA BR,OVC,300,,,,,,,LIFR,,,,,,0.02,,,,,,METAR,140.0
PABA 052224Z AUTO 28015KT 1 3/4SM -SN BR OVC006 M08/M10 A3012 RMK AO2 CIG 003V008 P0000 FZRANO TSNO,PABA,2020-05-05T22:24:00Z,70.13,-143.58,-8.0,-10.0,280,15,,1.75,30.121063,,,TRUE,TRUE,,,TRUE,TRUE,,-SN BR,OVC,600,,,,,,,IFR,,,,,,0.005,,,,,,SPECI,2.0
KDEC 052224Z 05010KT 1 3/4SM -RA BR BKN006 OVC011 08/07 A2992 RMK AO2 RAE2157B21 CIG 003V008 P0000 T00780067,KDEC,2020-05-05T22:24:00Z,39.83,-88.85,7.8,6.7,50,10,,1.75,29.920275,,,,TRUE,,,,,,-RA BR,BKN,600,OVC,1100,,,,,IFR,,,,,,0.005,,,,,,SPECI,207.0
KUZA 052224Z AUTO 02006KT 1SM TSRA BR FEW047 BKN075 OVC100 18/17 A2979 RMK AO2 LTG DSNT ALQDS TSB2155 P0013 T01780167,KUZA,2020-05-05T22:24:00Z,34.98,-81.05,17.8,16.7,20,6,,1.0,29.790354,,,TRUE,TRUE,,,,,,TSRA BR,FEW,4700,BKN,7500,OVC,10000,,,IFR,,,,,,0.13,,,,,,SPECI,202.0
KCEC 052224Z AUTO 14007KT 3SM -RA BR SCT005 BKN013 OVC018 12/12 A3019 RMK AO2 P0001 T01220117,KCEC,2020-05-05T22:24:00Z,41.77,-124.22,12.2,11.7,140,7,,3.0,30.188976,,,TRUE,TRUE,,,,,,-RA BR,SCT,500,BKN,1300,OVC,1800,,,MVFR,,,,,,0.01,,,,,,SPECI,17.0
ROAH 052223Z 26020KT 5000 -SHRA FEW003 SCT007 FEW025CB BKN030 24/24 Q1006 RMK 1ST003 3ST007 2CB025 6CU030 A2972 CB 10KM NE-SE MOV E,ROAH,2020-05-05T22:23:00Z,26.17,127.65,24.0,24.0,260,20,,3.11,29.704725,,,,,,,,,,-SHRA,FEW,300,SCT,700,FEW,2500,BKN,3000,MVFR,,,,,,,,,,,,SPECI,8.0
CZBF 052223Z AUTO 33007G15KT 300V360 9SM -RA BKN037 02/00 A2976 RMK SLP083,CZBF,2020-05-05T22:23:00Z,47.62,-65.75,2.0,0.0,330,7,15,9.0,29.760826,1008.3,,TRUE,,,,,,,-RA,BKN,3700,,,,,,,VFR,,,,,,,,,,,,SPECI,59.0
KRRT 052223Z AUTO 25004KT 10SM CLR 14/02 A3009 RMK AO2,KRRT,2020-05-05T22:23:00Z,48.93,-95.33,14.0,2.0,250,4,,10.0,30.088583,,,TRUE,TRUE,,,,,,,CLR,,,,,,,,VFR,,,,,,,,,,,,SPECI,327.0
KACV 052223Z AUTO 22006KT 10SM BKN008 BKN017 OVC033 14/12 A3019 RMK AO2 CIG 006V012 T01390117,KACV,2020-05-05T22:23:00Z,40.98,-124.1,13.9,11.7,220,6,,10.0,30.188976,,,TRUE,TRUE,,,,,,,BKN,800,BKN,1700,OVC,3300,,,IFR,,,,,,,,,,,,SPECI,67.0
KCGS 052223Z AUTO 00000KT 10SM OVC080 14/00 A2986 RMK AO1 T01371005,KCGS,2020-05-05T22:23:00Z,38.98,-76.92,13.7,-0.5,0,0,,10.0,29.861221,,,TRUE,TRUE,,,,,,,OVC,8000,,,,,,,VFR,,,,,,,,,,,,SPECI,15.0
PAEH 052223Z AUTO 34005KT 3/4SM -RA BR VV002 02/01 A3004 RMK AO2 SLP180,PAEH,2020-05-05T22:23:00Z,58.65,-162.07,2.0,1.0,340,5,,0.75,30.041338,1018.0,,TRUE,TRUE,,,,,,-RA BR,OVX,0,,,,,,,LIFR,,,,,,,,,,,200,SPECI,161.0
OERR 052223Z 30020KT 5000 BLDU NSC 21/07 Q1008,OERR,2020-05-05T22:23:00Z,30.88,41.12,21.0,7.0,300,20,,3.11,29.763779,,,,,,,,,,BLDU,CLR,,,,,,,,MVFR,,,,,,,,,,,,SPECI,552.0
KBBB 052222Z AUTO 34006KT 10SM SCT024 SCT050 11/06 A3010 RMK AO2,KBBB,2020-05-05T22:22:00Z,45.32,-95.65,11.0,6.0,340,6,,10.0,30.100393,,,TRUE,TRUE,,,,,,,SCT,2400,SCT,5000,,,,,VFR,,,,,,,,,,,,SPECI,317.0
CYUX 052222Z 35012KT 10SM -SN FEW011 OVC022 M09/M10 A3009 RMK ST3SC5 WSHFT 2203 BR OVR BASIN -SN INTMT SLP192,CYUX,2020-05-05T22:22:00Z,68.77,-81.25,-9.0,-10.0,350,12,,10.0,30.088583,1019.2,,,,,,,,,-SN,FEW,1100,OVC,2200,,,,,MVFR,,,,,,,,,,,,SPECI,8.0
KGLS 052222Z 16013KT 6SM HZ BKN007 28/24 A2992 RMK AO2 T02830244,KGLS,2020-05-05T22:22:00Z,29.27,-94.87,28.3,24.4,160,13,,6.0,29.920275,,,,TRUE,,,,,,HZ,BKN,700,,,,,,,IFR,,,,,,,,,,,,SPECI,6.0
EGDY 052222Z 09005KT CAVOK 09/01 Q1022 NOSIG RMK BLU BLU,EGDY,2020-05-05T22:22:00Z,51.0,-2.62,9.0,1.0,90,5,,6.21,30.177166,,,,,,TRUE,,,,,CAVOK,,,,,,,,VFR,,,,,,,,,,,,METAR,23.0
EGUB 052222Z 05008KT CAVOK 07/02 Q1024 NOSIG RMK BLU BLU,EGUB,2020-05-05T22:22:00Z,51.62,-1.07,7.0,2.0,50,8,,6.21,30.236221,,,,,,TRUE,,,,,CAVOK,,,,,,,,VFR,,,,,,,,,,,,METAR,63.0
RJFY 052222Z 02003KT 350V070 5000 BR FEW010 BKN150 20/17 Q1009 RMK 2ST010 7AC150 A2980,RJFY,2020-05-05T22:22:00Z,31.37,130.82,20.0,17.0,20,3,,3.11,29.793306,,,,,,,,,,BR,FEW,1000,BKN,15000,,,,,MVFR,,,,,,,,,,,,SPECI,68.0
EGOS 052221Z 09010KT CAVOK 08/02 Q1024 NOSIG RMK BLU BLU,EGOS,2020-05-05T22:21:00Z,52.8,-2.67,8.0,2.0,90,10,,6.21,30.236221,,,,,,TRUE,,,,,CAVOK,,,,,,,,VFR,,,,,,,,,,,,METAR,76.0
KFME 052221Z AUTO 00000KT 10SM OVC090 13/05 A2990 RMK AO1,KFME,2020-05-05T22:21:00Z,39.08,-76.77,13.0,5.0,0,0,,10.0,29.899607,,,TRUE,TRUE,,,,,,,OVC,9000,,,,,,,VFR,,,,,,,,,,,,SPECI,46.0
KPAM 052221Z AUTO 28008KT 10SM BKN020 27/22 A2990 RMK AO2 BKN V SCT SLP128,KPAM,2020-05-05T22:21:00Z,30.07,-85.57,27.0,22.0,280,8,,10.0,29.899607,1012.8,,TRUE,TRUE,,,,,,,BKN,2000,,,,,,,MVFR,,,,,,,,,,,,SPECI,5.0
CYAY 052221Z AUTO 02030G38KT 1/2SM SN SCT005 OVC009 00/M01 A2958 RMK SLP021,CYAY,2020-05-05T22:21:00Z,51.38,-56.07,0.0,-1.0,20,30,38,0.5,29.58071,1002.1,,TRUE,,,,,,,SN,SCT,500,OVC,900,,,,,LIFR,,,,,,,,,,,,SPECI,28.0
YSDU 052221Z AUTO 12006KT 9999 // SCT006 13/11 Q1030 RF00/0/000/0,YSDU,2020-05-05T22:21:00Z,-32.22,148.57,13.0,11.0,120,6,,6.21,30.413385,,,TRUE,,,,,,,,SCT,600,,,,,,,VFR,,,,,,,,,,,,SPECI,275.0
EDMA 052220Z AUTO 05005KT 9999 // SCT060/// 07/01 Q1020,EDMA,2020-05-05T22:20:00Z,48.42,10.92,7.0,1.0,50,5,,6.21,30.11811,,,TRUE,,,,,,,,SCT,6000,,,,,,,VFR,,,,,,,,,,,,METAR,463.0
ENHD 052220Z AUTO 29010KT 9999 SCT021/// BKN032/// 07/03 Q1024,ENHD,2020-05-05T22:20:00Z,59.35,5.22,7.0,3.0,290,10,,6.21,30.236221,,,TRUE,,,,,,,,SCT,2100,BKN,3200,,,,,VFR,,,,,,,,,,,,METAR,24.0
ENCN 052220Z AUTO VRB01KT 9999 NCD 06/M02 Q1021,ENCN,2020-05-05T22:20:00Z,58.2,8.07,6.0,-2.0,0,1,,6.21,30.147638,,,TRUE,,,,,,,,CLR,,,,,,,,VFR,,,,,,,,,,,,METAR,17.0
ENAL 052220Z AUTO 24020KT 9999 BKN017/// OVC033/// 08/05 Q1018,ENAL,2020-05-05T22:20:00Z,62.57,6.12,8.0,5.0,240,20,,6.21,30.059055,,,TRUE,,,,,,,,BKN,1700,OVC,3300,,,,,MVFR,,,,,,,,,,,,METAR,22.0
ENZV 052220Z 32008KT 9999 FEW021 07/02 Q1024,ENZV,2020-05-05T22:20:00Z,58.87,5.62,7.0,2.0,320,8,,6.21,30.236221,,,,,,,,,,,FEW,2100,,,,,,,VFR,,,,,,,,,,,,METAR,9.0
ENVA 052220Z 25018KT 9999 -RA BKN029 OVC035 07/02 Q1014 RMK WIND 670FT 25017G29KT,ENVA,2020-05-05T22:20:00Z,63.47,10.92,7.0,2.0,250,18,,6.21,29.940945,,,,,,,,,,-RA,BKN,2900,OVC,3500,,,,,MVFR,,,,,,,,,,,,SPECI,17.0
ENGM 052220Z 29004KT 240V320 CAVOK 06/M05 Q1017,ENGM,2020-05-05T22:20:00Z,60.2,11.1,6.0,-5.0,290,4,,6.21,30.029528,,,,,,,,,,,CAVOK,,,,,,,,VFR,,,,,,,,,,,,METAR,204.0
ENDU 052220Z AUTO 22005KT 9999 -RA FEW017/// 03/01 Q0997 RMK WIND 1100FT 20010KT WIND 2200FT 23021KT,ENDU,2020-05-05T22:20:00Z,69.03,18.55,3.0,1.0,220,5,,6.21,29.438976,,,TRUE,,,,,,,-RA,FEW,1700,,,,,,,VFR,,,1.0,,,,,,,,,SPECI,79.0
ENBR 052220Z 24005KT 9999 FEW018 BKN042 07/04 Q1023 RMK WIND 1200FT 25010KT,ENBR,2020-05-05T22:20:00Z,60.28,5.22,7.0,4.0,240,5,,6.21,30.206694,,,,,,,,,,,FEW,1800,BKN,4200,,,,,VFR,,,,,,,,,,,,SPECI,50.0
LSZR 052220Z AUTO VRB03KT 8000 -RA BKN037 10/09 Q1019,LSZR,2020-05-05T22:20:00Z,47.48,9.57,10.0,9.0,0,3,,4.97,30.088583,,,TRUE,,,,,,,-RA,BKN,3700,,,,,,,MVFR,,,,,,,,,,,,METAR,398.0
ENRY 052220Z AUTO 23005KT 200V270 9999NDV FEW170/// 06/02 Q1019,ENRY,2020-05-05T22:20:00Z,59.37,10.77,6.0,2.0,230,5,,,30.088583,,,TRUE,,,,,,,,FEW,17000,,,,,,,,,,,,,,,,,,,SPECI,53.0
ENRO 052220Z AUTO 21006KT 180V240 9999NDV OVC048/// 04/M04 Q1013,ENRO,2020-05-05T22:20:00Z,62.57,11.33,4.0,-4.0,210,6,,,29.911417,,,TRUE,,,,,,,,OVC,4800,,,,,,,,,,,,,,,,,,,SPECI,626.0
EVRA 052220Z 36007KT CAVOK 09/05 Q1011 NOSIG,EVRA,2020-05-05T22:20:00Z,56.92,23.97,9.0,5.0,360,7,,6.21,29.852362,,,,,,TRUE,,,,,CAVOK,,,,,,,,VFR,,,,,,,,,,,,METAR,10.0
EKVG 052220Z AUTO 28017KT 9999 BKN018/// BKN180/// 08/04 Q1021,EKVG,2020-05-05T22:20:00Z,62.07,-7.3,8.0,4.0,280,17,,6.21,30.147638,,,TRUE,,,,,,,,BKN,1800,BKN,18000,,,,,MVFR,,,,,,,,,,,,METAR,85.0
LSZC 052220Z AUTO 34010KT 310V020 9999 BKN010 12/10 Q1019,LSZC,2020-05-05T22:20:00Z,46.97,8.38,12.0,10.0,340,10,,6.21,30.088583,,,TRUE,,,,,,,,BKN,1000,,,,,,,MVFR,,,,,,,,,,,,METAR,450.0
EETN 052220Z 31004KT 9999 NSC 08/04 Q1013,EETN,2020-05-05T22:20:00Z,59.4,24.82,8.0,4.0,310,4,,6.21,29.911417,,,,,,,,,,,CLR,,,,,,,,VFR,,,,,,,,,,,,METAR,40.0
KPKB 052220Z 03004KT 1 1/2SM -RA BR FEW005 BKN010 OVC016 09/07 A2977 RMK AO2 P0002 T00890072,KPKB,2020-05-05T22:20:00Z,39.35,-81.42,8.9,7.2,30,4,,1.5,29.769686,,,,TRUE,,,,,,-RA BR,FEW,500,BKN,1000,OVC,1600,,,IFR,,,,,,0.02,,,,,,SPECI,262.0
KRIC 052220Z 11006KT 10SM -RA SCT020 BKN055 OVC080 13/11 A2988 RMK AO2 RAB17 P0000 T01330106,KRIC,2020-05-05T22:20:00Z,37.52,-77.32,13.3,10.6,110,6,,10.0,29.878937,,,,TRUE,,,,,,-RA,SCT,2000,BKN,5500,OVC,8000,,,VFR,,,,,,0.005,,,,,,SPECI,50.0
LGAV 052220Z VRB02KT CAVOK 16/10 Q1015 NOSIG,LGAV,2020-05-05T22:20:00Z,37.93,23.95,16.0,10.0,0,2,,6.21,29.970472,,,,,,TRUE,,,,,CAVOK,,,,,,,,VFR,,,,,,,,,,,,METAR,94.0
LGRP 052220Z 23014KT 9999 FEW018 18/15 Q1013 NOSIG,LGRP,2020-05-05T22:20:00Z,36.4,28.08,18.0,15.0,230,14,,6.21,29.911417,,,,,,TRUE,,,,,FEW,1800,,,,,,,VFR,,,,,,,,,,,,METAR,5.0
LGKR 052220Z 25002KT CAVOK 13/10 Q1016 NOSIG,LGKR,2020-05-05T22:20:00Z,39.62,19.92,13.0,10.0,250,2,,6.21,30.0,,,,,,TRUE,,,,,CAVOK,,,,,,,,VFR,,,,,,,,,,,,METAR,2.0
LLBG 052220Z 22008KT 9999 -RA SCT025 18/13 Q1012 NOSIG RMK BKN080,LLBG,2020-05-05T22:20:00Z,32.0,34.88,18.0,13.0,220,8,,6.21,29.88189,,,,,,TRUE,,,,-RA,SCT,2500,,,,,,,VFR,,,,,,,,,,,,METAR,49.0
LGIR 052220Z 17006KT CAVOK 12/08 Q1016 NOSIG,LGIR,2020-05-05T22:20:00Z,35.32,25.17,12.0,8.0,170,6,,6.21,30.0,,,,,,TRUE,,,,,CAVOK,,,,,,,,VFR,,,,,,,,,,,,METAR,39.0
EKRN 052220Z AUTO 31005KT 9999 OVC062/// 08/05 Q1019,EKRN,2020-05-05T22:20:00Z,55.07,14.75,8.0,5.0,310,5,,6.21,30.088583,,,TRUE,,,,,,,,OVC,6200,,,,,,,VFR,,,,,,,,,,,,METAR,16.0
EKAH 052220Z AUTO 29005KT 9999NDV FEW210/// 05/01 Q1023,EKAH,2020-05-05T22:20:00Z,56.28,10.62,5.0,1.0,290,5,,,30.206694,,,TRUE,,,,,,,,FEW,21000,,,,,,,,,,,,,,,,,,,SPECI,25.0
EKRK 052220Z AUTO 34006KT 9999 NCD 06/03 Q1021,EKRK,2020-05-05T22:20:00Z,55.57,12.12,6.0,3.0,340,6,,6.21,30.147638,,,TRUE,,,,,,,,CLR,,,,,,,,VFR,,,,,,,,,,,,METAR,44.0
EKEB 052220Z AUTO 33003KT 9999 NCD 04/03 Q1024,EKEB,2020-05-05T22:20:00Z,55.52,8.55,4.0,3.0,330,3,,6.21,30.236221,,,TRUE,,,,,,,,CLR,,,,,,,,VFR,,,,,,,,,,,,METAR,29.0
EKCH 052220Z AUTO 33010KT 9999 NCD 08/02 Q1021 NOSIG,EKCH,2020-05-05T22:20:00Z,55.62,12.67,8.0,2.0,330,10,,6.21,30.147638,,,TRUE,,,TRUE,,,,,CLR,,,,,,,,VFR,,,,,,,,,,,,METAR,5.0
EKYT 052220Z AUTO 25007KT 9999 NCD 06/03 Q1022,EKYT,2020-05-05T22:20:00Z,57.1,9.87,6.0,3.0,250,7,,6.21,30.177166,,,TRUE,,,,,,,,CLR,,,,,,,,VFR,,,,,,,,,,,,METAR,3.0
EKRS 052220Z AUTO VRB03KT 9999 NCD 06/// Q1022,EKRS,2020-05-05T22:20:00Z,55.42,11.8,,,0,3,,6.21,30.177166,,,TRUE,,,,,,,,CLR,,,,,,,,VFR,,,,,,,,,,,,METAR,34.0
EKBI 052220Z AUTO 33005KT 9999 NCD 05/00 Q1024,EKBI,2020-05-05T22:20:00Z,55.72,9.15,5.0,0.0,330,5,,6.21,30.236221,,,TRUE,,,,,,,,CLR,,,,,,,,VFR,,,,,,,,,,,,METAR,66.0
ESGJ 052220Z VRB01KT CAVOK 00/M01 Q1019,ESGJ,2020-05-05T22:20:00Z,57.77,14.07,0.0,-1.0,0,1,,6.21,30.088583,,,,,,,,,,,CAVOK,,,,,,,,VFR,,,,,,,,,,,,METAR,232.0
ESGT 052220Z AUTO 16005KT 9999 NCD 04/M00 Q1020,ESGT,2020-05-05T22:20:00Z,58.32,12.33,4.0,0.0,160,5,,6.21,30.11811,,,TRUE,,,,,,,,CLR,,,,,,,,VFR,,,,,,,,,,,,METAR,41.0
ESMK 052220Z AUTO 28006KT 9999 NCD 05/03 Q1020,ESMK,2020-05-05T22:20:00Z,55.92,14.07,5.0,3.0,280,6,,6.21,30.11811,,,TRUE,,,,,,,,CLR,,,,,,,,VFR,,,,,,,,,,,,METAR,23.0
ESMQ 052220Z AUTO 32005KT 9999 NCD 03/03 Q1018,ESMQ,2020-05-05T22:20:00Z,56.68,16.3,3.0,3.0,320,5,,6.21,30.059055,,,TRUE,,,,,,,,CLR,,,,,,,,VFR,,,,,,,,,,,,METAR,16.0
ESMX 052220Z AUTO 20002KT 9999 NCD 00/00 Q1019,ESMX,2020-05-05T22:20:00Z,56.92,14.72,0.0,0.0,200,2,,6.21,30.088583,,,TRUE,,,,,,,,CLR,,,,,,,,VFR,,,,,,,,,,,,METAR,186.0
ESMT 052220Z AUTO 35005KT 9999 NCD 06/M01 Q1021,ESMT,2020-05-05T22:20:00Z,56.67,12.82,6.0,-1.0,350,5,,6.21,30.147638,,,TRUE,,,,,,,,CLR,,,,,,,,VFR,,,,,,,,,,,,METAR,30.0
ESTA 052220Z AUTO 35010KT 9999 NCD 08/00 Q1021,ESTA,2020-05-05T22:20:00Z,56.28,12.83,8.0,0.0,350,10,,6.21,30.147638,,,TRUE,,,,,,,,CLR,,,,,,,,VFR,,,,,,,,,,,,METAR,47.0
ESGG 052220Z 27003KT CAVOK 05/01 Q1020,ESGG,2020-05-05T22:20:00Z,57.67,12.3,5.0,1.0,270,3,,6.21,30.11811,,,,,,,,,,,CAVOK,,,,,,,,VFR,,,,,,,,,,,,METAR,169.0
ESMS 052220Z 33003KT CAVOK 04/02 Q1020,ESMS,2020-05-05T22:20:00Z,55.53,13.37,4.0,2.0,330,3,,6.21,30.11811,,,,,,,,,,,CAVOK,,,,,,,,VFR,,,,,,,,,,,,METAR,106.0
EDDF 052220Z 01010KT CAVOK 09/00 Q1022 NOSIG,EDDF,2020-05-05T22:20:00Z,50.05,8.6,9.0,0.0,10,10,,6.21,30.177166,,,,,,TRUE,,,,,CAVOK,,,,,,,,VFR,,,,,,,,,,,,METAR,113.0
ESTL 052220Z AUTO 00000KT 9999 NCD 04/02 Q1020,ESTL,2020-05-05T22:20:00Z,56.07,13.2,4.0,2.0,0,0,,6.21,30.11811,,,TRUE,,,,,,,,CLR,,,,,,,,VFR,,,,,,,,,,,,METAR,43.0
EFRO 052220Z AUTO 19012KT CAVOK 02/M03 Q1006,EFRO,2020-05-05T22:20:00Z,66.57,25.82,2.0,-3.0,190,12,,6.21,29.704725,,,TRUE,,,,,,,,CAVOK,,,,,,,,VFR,,,,,,,,,,,,METAR,201.0
EDDH 052220Z 33003KT CAVOK 04/02 Q1023 NOSIG,EDDH,2020-05-05T22:20:00Z,53.63,10.0,4.0,2.0,330,3,,6.21,30.206694,,,,,,TRUE,,,,,CAVOK,,,,,,,,VFR,,,,,,,,,,,,METAR,16.0
EDDL 052220Z 07005KT CAVOK 05/02 Q1023 NOSIG,EDDL,2020-05-05T22:20:00Z,51.3,6.77,5.0,2.0,70,5,,6.21,30.206694,,,,,,TRUE,,,,,CAVOK,,,,,,,,VFR,,,,,,,,,,,,METAR,44.0
EDDK 052220Z VRB02KT CAVOK 06/01 Q1023 NOSIG,EDDK,2020-05-05T22:20:00Z,50.87,7.15,6.0,1.0,0,2,,6.21,30.206694,,,,,,TRUE,,,,,CAVOK,,,,,,,,VFR,,,,,,,,,,,,METAR,99.0
EDDM 052220Z 03006KT 360V080 CAVOK 07/01 Q1020 NOSIG,EDDM,2020-05-05T22:20:00Z,48.35,11.82,7.0,1.0,30,6,,6.21,30.11811,,,,,,TRUE,,,,,CAVOK,,,,,,,,VFR,,,,,,,,,,,,METAR,447.0
EDDN 052220Z VRB02KT CAVOK 04/M00 Q1021,EDDN,2020-05-05T22:20:00Z,49.5,11.08,4.0,0.0,0,2,,6.21,30.147638,,,,,,,,,,,CAVOK,,,,,,,,VFR,,,,,,,,,,,,METAR,312.0
EDDT 052220Z 31003KT 280V350 CAVOK 05/03 Q1021,EDDT,2020-05-05T22:20:00Z,52.57,13.32,5.0,3.0,310,3,,6.21,30.147638,,,,,,,,,,,CAVOK,,,,,,,,VFR,,,,,,,,,,,,METAR,37.0
EDDV 052220Z 32004KT CAVOK 06/02 Q1023,EDDV,2020-05-05T22:20:00Z,52.47,9.68,6.0,2.0,320,4,,6.21,30.206694,,,,,,,,,,,CAVOK,,,,,,,,VFR,,,,,,,,,,,,METAR,54.0
EDDB 052220Z 30006KT CAVOK 06/03 Q1020 NOSIG,EDDB,2020-05-05T22:20:00Z,52.38,13.53,6.0,3.0,300,6,,6.21,30.11811,,,,,,TRUE,,,,,CAVOK,,,,,,,,VFR,,,,,,,,,,,,METAR,48.0
EDDC 052220Z 28005KT CAVOK 03/01 Q1020,EDDC,2020-05-05T22:20:00Z,51.13,13.75,3.0,1.0,280,5,,6.21,30.11811,,,,,,,,,,,CAVOK,,,,,,,,VFR,,,,,,,,,,,,METAR,226.0
EDDG 052220Z VRB01KT CAVOK 06/01 Q1024 NOSIG,EDDG,2020-05-05T22:20:00Z,52.13,7.7,6.0,1.0,0,1,,6.21,30.236221,,,,,,TRUE,,,,,CAVOK,,,,,,,,VFR,,,,,,,,,,,,METAR,52.0
EDDE 052220Z VRB02KT CAVOK 04/M01 Q1022,EDDE,2020-05-05T22:20:00Z,50.98,10.97,4.0,-1.0,0,2,,6.21,30.177166,,,,,,,,,,,CAVOK,,,,,,,,VFR,,,,,,,,,,,,METAR,323.0
EDDS 052220Z VRB02KT CAVOK 07/03 Q1020,EDDS,2020-05-05T22:20:00Z,48.67,9.22,7.0,3.0,0,2,,6.21,30.11811,,,,,,,,,,,CAVOK,,,,,,,,VFR,,,,,,,,,,,,METAR,419.0
EDDR 052220Z 04007KT CAVOK 07/M01 Q1021,EDDR,2020-05-05T22:20:00Z,49.22,7.1,7.0,-1.0,40,7,,6.21,30.147638,,,,,,,,,,,CAVOK,,,,,,,,VFR,,,,,,,,,,,,METAR,320.0
EDDW 052220Z 34003KT CAVOK 08/02 Q1024,EDDW,2020-05-05T22:20:00Z,53.03,8.8,8.0,2.0,340,3,,6.21,30.236221,,,,,,,,,,,CAVOK,,,,,,,,VFR,,,,,,,,,,,,METAR,5.0
EDDP 052220Z 30005KT CAVOK 04/01 Q1021 NOSIG,EDDP,2020-05-05T22:20:00Z,51.43,12.23,4.0,1.0,300,5,,6.21,30.147638,,,,,,TRUE,,,,,CAVOK,,,,,,,,VFR,,,,,,,,,,,,METAR,149.0
EKSB 052220Z AUTO 30004KT 9999NDV NCD 07/04 Q1023,EKSB,2020-05-05T22:20:00Z,54.97,9.8,7.0,4.0,300,4,,,30.206694,,,TRUE,,,,,,,,CLR,,,,,,,,,,,,,,,,,,,,SPECI,23.0
EKVD 052220Z AUTO 32003KT //// ///////// 05/M01 Q1024,EKVD,2020-05-05T22:20:00Z,55.42,9.32,5.0,-1.0,320,3,,,30.236221,,,TRUE,,,,,,,,,,,,,,,,,,,,,,,,,,,,METAR,45.0
EFJY 052220Z AUTO 30003KT CAVOK 02/M03 Q1013,EFJY,2020-05-05T22:20:00Z,62.4,25.68,2.0,-3.0,300,3,,6.21,29.911417,,,TRUE,,,,,,,,CAVOK,,,,,,,,VFR,,,,,,,,,,,,METAR,145.0
EFKK 052220Z AUTO 20006KT CAVOK 04/M02 Q1012,EFKK,2020-05-05T22:20:00Z,63.72,23.13,4.0,-2.0,200,6,,6.21,29.88189,,,TRUE,,,,,,,,CAVOK,,,,,,,,VFR,,,,,,,,,,,,METAR,25.0
EFPO 052220Z AUTO 27002KT CAVOK 02/M01 Q1015,EFPO,2020-05-05T22:20:00Z,61.47,21.8,2.0,-1.0,270,2,,6.21,29.970472,,,TRUE,,,,,,,,CAVOK,,,,,,,,VFR,,,,,,,,,,,,METAR,17.0
EFHA 052220Z AUTO 31005KT CAVOK 04/M02 Q1014,EFHA,2020-05-05T22:20:00Z,61.85,24.8,4.0,-2.0,310,5,,6.21,29.940945,,,TRUE,,,,,,,,CAVOK,,,,,,,,VFR,,,,,,,,,,,,METAR,145.0
EFJO 052220Z AUTO VRB01KT CAVOK 02/M03 Q1013,EFJO,2020-05-05T22:20:00Z,62.67,29.62,2.0,-3.0,0,1,,6.21,29.911417,,,TRUE,,,,,,,,CAVOK,,,,,,,,VFR,,,,,,,,,,,,METAR,117.0
EFSA 052220Z AUTO VRB01KT CAVOK 02/01 Q1013,EFSA,2020-05-05T22:20:00Z,61.95,28.93,2.0,1.0,0,1,,6.21,29.911417,,,TRUE,,,,,,,,CAVOK,,,,,,,,VFR,,,,,,,,,,,,METAR,95.0
EFMI 052220Z AUTO 27001KT CAVOK 02/01 Q1013,EFMI,2020-05-05T22:20:00Z,61.68,27.2,2.0,1.0,270,1,,6.21,29.911417,,,TRUE,,,,,,,,CAVOK,,,,,,,,VFR,,,,,,,,,,,,METAR,138.0
EFLP 052220Z AUTO 35002KT CAVOK 05/02 Q1013,EFLP,2020-05-05T22:20:00Z,61.07,28.13,5.0,2.0,350,2,,6.21,29.911417,,,TRUE,,,,,,,,CAVOK,,,,,,,,VFR,,,,,,,,,,,,METAR,106.0
EFUT 052220Z AUTO VRB02KT CAVOK 07/01 Q1013,EFUT,2020-05-05T22:20:00Z,60.88,26.92,7.0,1.0,0,2,,6.21,29.911417,,,TRUE,,,,,,,,CAVOK,,,,,,,,VFR,,,,,,,,,,,,METAR,100.0
EFKI 052220Z AUTO 15002KT CAVOK M01/M04 Q1012,EFKI,2020-05-05T22:20:00Z,64.27,27.67,-1.0,-4.0,150,2,,6.21,29.88189,,,TRUE,,,,,,,,CAVOK,,,,,,,,VFR,,,,,,,,,,,,METAR,136.0
EFKE 052220Z AUTO 20010KT CAVOK 03/M01 Q1008,EFKE,2020-05-05T22:20:00Z,65.77,24.57,3.0,-1.0,200,10,,6.21,29.763779,,,TRUE,,,,,,,,CAVOK,,,,,,,,VFR,,,,,,,,,,,,METAR,15.0
EFET 052220Z AUTO 19010KT 9999 OVC024 02/M02 Q0999,EFET,2020-05-05T22:20:00Z,68.37,23.43,2.0,-2.0,190,10,,6.21,29.498032,,,TRUE,,,,,,,,OVC,2400,,,,,,,MVFR,,,,,,,,,,,,METAR,306.0
EFKS 052220Z AUTO 19002KT CAVOK 01/M05 Q1009,EFKS,2020-05-05T22:20:00Z,66.0,29.23,1.0,-5.0,190,2,,6.21,29.793306,,,TRUE,,,,,,,,CAVOK,,,,,,,,VFR,,,,,,,,,,,,METAR,263.0
EFKT 052220Z AUTO 18007KT 150V210 CAVOK 02/M03 Q1002,EFKT,2020-05-05T22:20:00Z,67.7,24.85,2.0,-3.0,180,7,,6.21,29.586615,,,TRUE,,,,,,,,CAVOK,,,,,,,,VFR,,,,,,,,,,,,METAR,643.0
EGPA 052220Z AUTO 27004KT 9999 NCD 02/01 Q1025,EGPA,2020-05-05T22:20:00Z,58.95,-2.88,2.0,1.0,270,4,,6.21,30.265747,,,TRUE,,,,,,,,CLR,,,,,,,,VFR,,,,,,,,,,,,METAR,21.0
EFKU 052220Z AUTO VRB02KT CAVOK 04/02 Q1012,EFKU,2020-05-05T22:20:00Z,63.02,27.8,4.0,2.0,0,2,,6.21,29.88189,,,TRUE,,,,,,,,CAVOK,,,,,,,,VFR,,,,,,,,,,,,METAR,102.0
EGPC 052220Z AUTO 27003KT 9999 NCD 05/02 Q1026,EGPC,2020-05-05T22:20:00Z,58.45,-3.07,5.0,2.0,270,3,,6.21,30.295275,,,TRUE,,,,,,,,CLR,,,,,,,,VFR,,,,,,,,,,,,METAR,39.0
EGPM 052220Z AUTO 26012KT 9999 OVC023/// 09/05 Q1023,EGPM,2020-05-05T22:20:00Z,60.42,-1.3,9.0,5.0,260,12,,6.21,30.206694,,,TRUE,,,,,,,,OVC,2300,,,,,,,MVFR,,,,,,,,,,,,METAR,22.0
EGCN 052220Z 05003KT CAVOK 05/02 Q1027,EGCN,2020-05-05T22:20:00Z,53.48,-1.0,5.0,2.0,50,3,,6.21,30.324802,,,,,,,,,,,CAVOK,,,,,,,,VFR,,,,,,,,,,,,METAR,17.0
EGPO 052220Z AUTO 00000KT 9999 NCD 04/02 Q1026,EGPO,2020-05-05T22:20:00Z,58.22,-6.32,4.0,2.0,0,0,,6.21,30.295275,,,TRUE,,,,,,,,CLR,,,,,,,,VFR,,,,,,,,,,,,METAR,13.0
EGSH 052220Z AUTO 04003KT 9999 NCD 06/02 Q1026,EGSH,2020-05-05T22:20:00Z,52.68,1.28,6.0,2.0,40,3,,6.21,30.295275,,,TRUE,,,,,,,,CLR,,,,,,,,VFR,,,,,,,,,,,,METAR,36.0
EGHQ 052220Z 11017KT 9999 BKN029 10/07 Q1020,EGHQ,2020-05-05T22:20:00Z,50.43,-5.0,10.0,7.0,110,17,,6.21,30.11811,,,,,,,,,,,BKN,2900,,,,,,,MVFR,,,,,,,,,,,,METAR,119.0
EGJJ 052220Z AUTO 10013KT 9999 BKN037/// 10/09 Q1020,EGJJ,2020-05-05T22:20:00Z,49.22,-2.2,10.0,9.0,100,13,,6.21,30.11811,,,TRUE,,,,,,,,BKN,3700,,,,,,,VFR,,,,,,,,,,,,METAR,84.0
EGKK 052220Z 05008KT CAVOK 07/05 Q1023,EGKK,2020-05-05T22:20:00Z,51.13,-0.17,7.0,5.0,50,8,,6.21,30.206694,,,,,,,,,,,CAVOK,,,,,,,,VFR,,,,,,,,,,,,METAR,62.0
EGBB 052220Z 08009KT CAVOK 07/03 Q1025,EGBB,2020-05-05T22:20:00Z,52.47,-1.75,7.0,3.0,80,9,,6.21,30.265747,,,,,,,,,,,CAVOK,,,,,,,,VFR,,,,,,,,,,,,METAR,99.0
EGPF 052220Z AUTO 06005KT 9999 NCD 06/03 Q1026,EGPF,2020-05-05T22:20:00Z,55.87,-4.42,6.0,3.0,60,5,,6.21,30.295275,,,TRUE,,,,,,,,CLR,,,,,,,,VFR,,,,,,,,,,,,METAR,8.0
EGTE 052220Z 29003KT CAVOK 07/05 Q1022,EGTE,2020-05-05T22:20:00Z,50.72,-3.42,7.0,5.0,290,3,,6.21,30.177166,,,,,,,,,,,CAVOK,,,,,,,,VFR,,,,,,,,,,,,METAR,30.0
EGSS 052220Z AUTO 05008KT 9999 NCD 04/02 Q1025,EGSS,2020-05-05T22:20:00Z,51.88,0.22,4.0,2.0,50,8,,6.21,30.265747,,,TRUE,,,,,,,,CLR,,,,,,,,VFR,,,,,,,,,,,,METAR,106.0
EGPK 052220Z 09003KT CAVOK 07/02 Q1026,EGPK,2020-05-05T22:20:00Z,55.5,-4.57,7.0,2.0,90,3,,6.21,30.295275,,,,,,,,,,,CAVOK,,,,,,,,VFR,,,,,,,,,,,,METAR,20.0
EGPH 052220Z VRB03KT CAVOK 04/04 Q1025,EGPH,2020-05-05T22:20:00Z,55.95,-3.35,4.0,4.0,0,3,,6.21,30.265747,,,,,,,,,,,CAVOK,,,,,,,,VFR,,,,,,,,,,,,METAR,41.0
EGCC 052220Z AUTO 09006KT 050V120 9999 NCD 07/02 Q1025 NOSIG,EGCC,2020-05-05T22:20:00Z,53.35,-2.27,7.0,2.0,90,6,,6.21,30.265747,,,TRUE,,,TRUE,,,,,CLR,,,,,,,,VFR,,,,,,,,,,,,METAR,78.0
EGLL 052220Z AUTO 07010KT 9999 NCD 08/03 Q1024 NOSIG,EGLL,2020-05-05T22:20:00Z,51.48,-0.45,8.0,3.0,70,10,,6.21,30.236221,,,TRUE,,,TRUE,,,,,CLR,,,,,,,,VFR,,,,,,,,,,,,METAR,24.0
EGAA 052220Z 11007KT CAVOK 06/03 Q1024,EGAA,2020-05-05T22:20:00Z,54.63,-6.22,6.0,3.0,110,7,,6.21,30.236221,,,,,,,,,,,CAVOK,,,,,,,,VFR,,,,,,,,,,,,METAR,81.0
EGAC 052220Z AUTO 06008KT 9999 NCD 08/05 Q1025,EGAC,2020-05-05T22:20:00Z,54.62,-5.87,8.0,5.0,60,8,,6.21,30.265747,,,TRUE,,,,,,,,CLR,,,,,,,,VFR,,,,,,,,,,,,METAR,5.0
EGGW 052220Z AUTO 07008KT 9999 NCD 05/02 Q1024,EGGW,2020-05-05T22:20:00Z,51.87,-0.37,5.0,2.0,70,8,,6.21,30.236221,,,TRUE,,,,,,,,CLR,,,,,,,,VFR,,,,,,,,,,,,METAR,160.0
EGFF 052220Z AUTO 09012KT 9999 NCD 11/01 Q1023,EGFF,2020-05-05T22:20:00Z,51.38,-3.35,11.0,1.0,90,12,,6.21,30.206694,,,TRUE,,,,,,,,CLR,,,,,,,,VFR,,,,,,,,,,,,METAR,67.0
EGPL 052220Z AUTO 02002KT 9999 NCD 06/06 Q1026,EGPL,2020-05-05T22:20:00Z,57.47,-7.37,6.0,6.0,20,2,,6.21,30.295275,,,TRUE,,,,,,,,CLR,,,,,,,,VFR,,,,,,,,,,,,METAR,6.0
EGLC 052220Z AUTO 06008KT 030V100 9999 NCD 09/04 Q1025,EGLC,2020-05-05T22:20:00Z,51.5,0.05,9.0,4.0,60,8,,6.21,30.265747,,,TRUE,,,,,,,,CLR,,,,,,,,VFR,,,,,,,,,,,,METAR,5.0
EGNJ 052220Z AUTO VRB01KT 9999 FEW026/// BKN033/// 04/02 Q1027,EGNJ,2020-05-05T22:20:00Z,53.57,-0.35,4.0,2.0,0,1,,6.21,30.324802,,,TRUE,,,,,,,,FEW,2600,BKN,3300,,,,,VFR,,,,,,,,,,,,METAR,31.0
EGPD 052220Z AUTO 15003KT 9999 NCD 05/03 Q1026 NOSIG,EGPD,2020-05-05T22:20:00Z,57.2,-2.22,5.0,3.0,150,3,,6.21,30.295275,,,TRUE,,,TRUE,,,,,CLR,,,,,,,,VFR,,,,,,,,,,,,METAR,65.0
EGLF 052220Z AUTO 07009KT 9999 NCD 07/03 Q1024,EGLF,2020-05-05T22:20:00Z,51.28,-0.77,7.0,3.0,70,9,,6.21,30.236221,,,TRUE,,,,,,,,CLR,,,,,,,,VFR,,,,,,,,,,,,METAR,65.0
EGMC 052220Z 04005KT CAVOK 05/04 Q1024,EGMC,2020-05-05T22:20:00Z,51.57,0.7,5.0,4.0,40,5,,6.21,30.236221,,,,,,,,,,,CAVOK,,,,,,,,VFR,,,,,,,,,,,,METAR,15.0
EGMD 052220Z AUTO 06018KT 9999 NCD 09/08 Q1023,EGMD,2020-05-05T22:20:00Z,50.95,0.92,9.0,8.0,60,18,,6.21,30.206694,,,TRUE,,,,,,,,CLR,,,,,,,,VFR,,,,,,,,,,,,METAR,3.0
EGGD 052220Z AUTO 09008KT 9999 NCD 07/M00 Q1023,EGGD,2020-05-05T22:20:00Z,51.37,-2.72,7.0,0.0,90,8,,6.21,30.206694,,,TRUE,,,,,,,,CLR,,,,,,,,VFR,,,,,,,,,,,,METAR,189.0
EGPE 052220Z AUTO 00000KT 9999 NCD 05/03 Q1026,EGPE,2020-05-05T22:20:00Z,57.52,-4.03,5.0,3.0,0,0,,6.21,30.295275,,,TRUE,,,,,,,,CLR,,,,,,,,VFR,,,,,,,,,,,,METAR,9.0
EGNX 052220Z VRB03KT CAVOK 05/01 Q1026,EGNX,2020-05-05T22:20:00Z,52.82,-1.32,5.0,1.0,0,3,,6.21,30.295275,,,,,,,,,,,CAVOK,,,,,,,,VFR,,,,,,,,,,,,METAR,94.0
EGPB 052220Z AUTO 26012KT 9999 OVC025/// 09/06 Q1024,EGPB,2020-05-05T22:20:00Z,59.87,-1.3,9.0,6.0,260,12,,6.21,30.236221,,,TRUE,,,,,,,,OVC,2500,,,,,,,MVFR,,,,,,,,,,,,METAR,5.0
EGNT 052220Z AUTO VRB01KT 9999 NCD 03/M01 Q1027,EGNT,2020-05-05T22:20:00Z,55.02,-1.7,3.0,-1.0,0,1,,6.21,30.324802,,,TRUE,,,,,,,,CLR,,,,,,,,VFR,,,,,,,,,,,,METAR,81.0
CWZQ 052220Z AUTO 01/01 RMK AO1 T00140014,CWZQ,2020-05-05T22:20:00Z,46.53,-61.05,1.4,1.4,,,,,,,,TRUE,TRUE,,,,,,,,,,,,,,,,,,,,,,,,,,,METAR,17.0
ESKN 052220Z 27003KT CAVOK 06/05 Q1018,ESKN,2020-05-05T22:20:00Z,58.78,16.9,6.0,5.0,270,3,,6.21,30.059055,,,,,,,,,,,CAVOK,,,,,,,,VFR,,,,,,,,,,,,METAR,43.0
ESOK 052220Z AUTO 23005KT 9999 NCD 06/M01 Q1018,ESOK,2020-05-05T22:20:00Z,59.45,13.33,6.0,-1.0,230,5,,6.21,30.059055,,,TRUE,,,,,,,,CLR,,,,,,,,VFR,,,,,,,,,,,,METAR,107.0
ESOE 052220Z AUTO 22006KT 9999 R01///// R19///// NCD 06/M00 Q1018,ESOE,2020-05-05T22:20:00Z,59.22,15.05,6.0,0.0,220,6,,6.21,30.059055,,,TRUE,,,,,,,,CLR,,,,,,,,VFR,,,,,,,,,,,,SPECI,57.0
ESOW 052220Z AUTO 00000KT 9999 NCD 04/01 Q1017,ESOW,2020-05-05T22:20:00Z,59.57,16.62,4.0,1.0,0,0,,6.21,30.029528,,,TRUE,,,,,,,,CLR,,,,,,,,VFR,,,,,,,,,,,,METAR,31.0
ESSA 052220Z 17004KT CAVOK 04/M01 Q1017 NOSIG,ESSA,2020-05-05T22:20:00Z,59.63,17.93,4.0,-1.0,170,4,,6.21,30.029528,,,,,,TRUE,,,,,CAVOK,,,,,,,,VFR,,,,,,,,,,,,METAR,61.0
ESSB 052220Z AUTO 00000KT 9999 FEW190/// 03/01 Q1017,ESSB,2020-05-05T22:20:00Z,59.35,17.93,3.0,1.0,0,0,,6.21,30.029528,,,TRUE,,,,,,,,FEW,19000,,,,,,,VFR,,,,,,,,,,,,METAR,11.0
ESSP 052220Z AUTO 00000KT 9999 NCD 04/03 Q1018,ESSP,2020-05-05T22:20:00Z,58.57,16.25,4.0,3.0,0,0,,6.21,30.059055,,,TRUE,,,,,,,,CLR,,,,,,,,VFR,,,,,,,,,,,,METAR,8.0
ESSD 052220Z AUTO 26006KT 9999 OVC100/// 06/M00 Q1016,ESSD,2020-05-05T22:20:00Z,60.42,15.5,6.0,0.0,260,6,,6.21,30.0,,,TRUE,,,,,,,,OVC,10000,,,,,,,VFR,,,,,,,,,,,,METAR,161.0
ESSV 052220Z AUTO 35006KT 9999 NCD 05/05 Q1017,ESSV,2020-05-05T22:20:00Z,57.67,18.35,5.0,5.0,350,6,,6.21,30.029528,,,TRUE,,,,,,,,CLR,,,,,,,,VFR,,,,,,,,,,,,METAR,47.0
ESKS 052220Z AUTO /////KT //// R15///// R33///// // ///////// ///// Q////,ESKS,2020-05-05T22:20:00Z,61.17,12.83,,,,,,,,,,TRUE,,,,,,,,,,,,,,,,,,,,,,,,,,,,METAR,503.0
ESOH 052220Z AUTO VRB02KT 9999 BKN100/// 05/01 Q1017,ESOH,2020-05-05T22:20:00Z,60.02,13.58,5.0,1.0,0,2,,6.21,30.029528,,,TRUE,,,,,,,,BKN,10000,,,,,,,VFR,,,,,,,,,,,,METAR,145.0
ESNG 052220Z AUTO 21007KT 170V280 9999 SCT090/// 02/M03 Q1001,ESNG,2020-05-05T22:20:00Z,67.13,20.82,2.0,-3.0,210,7,,6.21,29.557087,,,TRUE,,,,,,,,SCT,9000,,,,,,,VFR,,,,,,,,,,,,METAR,310.0
ESNK 052220Z AUTO 14004KT 9999 OVC074/// 05/M01 Q1013,ESNK,2020-05-05T22:20:00Z,63.03,17.77,5.0,-1.0,140,4,,6.21,29.911417,,,TRUE,,,,,,,,OVC,7400,,,,,,,VFR,,,,,,,,,,,,METAR,19.0
ESNN 052220Z AUTO 34002KT 9999 BKN086/// 02/02 Q1014,ESNN,2020-05-05T22:20:00Z,62.52,17.43,2.0,2.0,340,2,,6.21,29.940945,,,TRUE,,,,,,,,BKN,8600,,,,,,,VFR,,,,,,,,,,,,METAR,10.0
ESNO 052220Z AUTO VRB02KT 9999 BKN084/// OVC096/// 04/M02 Q1012,ESNO,2020-05-05T22:20:00Z,63.38,18.97,4.0,-2.0,0,2,,6.21,29.88189,,,TRUE,,,,,,,,BKN,8400,OVC,9600,,,,,VFR,,,,,,,,,,,,METAR,103.0
ESNS 052220Z AUTO 22008KT 9999 FEW061/// OVC084/// 06/M03 Q1009,ESNS,2020-05-05T22:20:00Z,64.62,21.07,6.0,-3.0,220,8,,6.21,29.793306,,,TRUE,,,,,,,,FEW,6100,OVC,8400,,,,,VFR,,,,,,,,,,,,METAR,49.0
ESNQ 052220Z AUTO 22016KT 9999 BKN076/// 01/M02 Q0998,ESNQ,2020-05-05T22:20:00Z,67.82,20.32,1.0,-2.0,220,16,,6.21,29.468504,,,TRUE,,,,,,,,BKN,7600,,,,,,,VFR,,,,,,,,,,,,METAR,452.0
ESNU 052220Z AUTO VRB02KT 9999 SCT062/// OVC082/// 04/01 Q1011,ESNU,2020-05-05T22:20:00Z,63.78,20.27,4.0,1.0,0,2,,6.21,29.852362,,,TRUE,,,,,,,,SCT,6200,OVC,8200,,,,,VFR,,,,,,,,,,,,METAR,14.0
ESNZ 052220Z AUTO 26010KT 9999 FEW041/// OVC088/// 06/M03 Q1012,ESNZ,2020-05-05T22:20:00Z,63.17,14.5,6.0,-3.0,260,10,,6.21,29.88189,,,TRUE,,,,,,,,FEW,4100,OVC,8800,,,,,VFR,,,,,,,,,,,,METAR,370.0
ESDF 052220Z AUTO VRB02KT 9999 NCD 04/02 Q1019,ESDF,2020-05-05T22:20:00Z,56.27,15.27,4.0,2.0,0,2,,6.21,30.088583,,,TRUE,,,,,,,,CLR,,,,,,,,VFR,,,,,,,,,,,,METAR,74.0
ESCF 052220Z AUTO VRB02KT 9999 NCD 04/02 Q1018,ESCF,2020-05-05T22:20:00Z,58.38,15.52,4.0,2.0,0,2,,6.21,30.059055,,,TRUE,,,,,,,,CLR,,,,,,,,VFR,,,,,,,,,,,,METAR,117.0
ESPA 052220Z AUTO 21008KT 9999 OVC058/// 05/M02 Q1007,ESPA,2020-05-05T22:20:00Z,65.53,22.12,5.0,-2.0,210,8,,6.21,29.734253,,,TRUE,,,,,,,,OVC,5800,,,,,,,VFR,,,,,,,,,,,,METAR,34.0
ESIB 052220Z AUTO 26006KT 9999 NCD 07/03 Q1020,ESIB,2020-05-05T22:20:00Z,58.42,12.68,7.0,3.0,260,6,,6.21,30.11811,,,TRUE,,,,,,,,CLR,,,,,,,,VFR,,,,,,,,,,,,METAR,74.0
ESPE 052220Z AUTO 23006KT 150V300 9999 OVC100/// 04/M02 Q1005,ESPE,2020-05-05T22:20:00Z,65.88,20.15,4.0,-2.0,230,6,,6.21,29.675198,,,TRUE,,,,,,,,OVC,10000,,,,,,,VFR,,,,,,,,,,,,METAR,182.0
ESIA 052220Z 27005KT CAVOK 07/01 Q1019,ESIA,2020-05-05T22:20:00Z,58.52,14.5,7.0,1.0,270,5,,6.21,30.088583,,,,,,,,,,,CAVOK,,,,,,,,VFR,,,,,,,,,,,,METAR,94.0
ESSL 052220Z AUTO 24003KT 9999 NCD 07/03 Q1018,ESSL,2020-05-05T22:20:00Z,58.38,15.67,7.0,3.0,240,3,,6.21,30.059055,,,TRUE,,,,,,,,CLR,,,,,,,,VFR,,,,,,,,,,,,METAR,52.0
ESCM 052220Z AUTO 18002KT 9999 NCD 04/M01 Q1017,ESCM,2020-05-05T22:20:00Z,59.87,17.6,4.0,-1.0,180,2,,6.21,30.029528,,,TRUE,,,,,,,,CLR,,,,,,,,VFR,,,,,,,,,,,,METAR,41.0
EGCK 052220Z AUTO 09005KT 9999 NCD 11/03 Q1023,EGCK,2020-05-05T22:20:00Z,53.1,-4.33,11.0,3.0,90,5,,6.21,30.206694,,,TRUE,,,,,,,,CLR,,,,,,,,VFR,,,,,,,,,,,,METAR,0.0
LOWL 052220Z AUTO 34004KT 9999 BKN060 08/00 Q1020,LOWL,2020-05-05T22:20:00Z,48.22,14.18,8.0,0.0,340,4,,6.21,30.11811,,,TRUE,,,,,,,,BKN,6000,,,,,,,VFR,,,,,,,,,,,,METAR,313.0
LOWS 052220Z AUTO 15004KT 9999 FEW038 BKN060 06/05 Q1020,LOWS,2020-05-05T22:20:00Z,47.78,13.02,6.0,5.0,150,4,,6.21,30.11811,,,TRUE,,,,,,,,FEW,3800,BKN,6000,,,,,VFR,,,,,,,,,,,,METAR,430.0
LOWI 052220Z AUTO VRB02KT 9999 -RA FEW007 SCT010 BKN026 08/07 Q1019,LOWI,2020-05-05T22:20:00Z,47.27,11.33,8.0,7.0,0,2,,6.21,30.088583,,,TRUE,,,,,,,-RA,FEW,700,SCT,1000,BKN,2600,,,MVFR,,,,,,,,,,,,METAR,581.0
LOWK 052220Z AUTO 08006KT 060V120 9999 FEW018 BKN050 10/09 Q1016,LOWK,2020-05-05T22:20:00Z,46.65,14.32,10.0,9.0,80,6,,6.21,30.0,,,TRUE,,,,,,,,FEW,1800,BKN,5000,,,,,VFR,,,,,,,,,,,,METAR,441.0
LOWG 052220Z AUTO 26003KT 230V030 1100 0300W R17/P1500U R35/P1500U BCFG FEW001 08/07 Q1017,LOWG,2020-05-05T22:20:00Z,47.0,15.42,8.0,7.0,260,3,,0.68,30.029528,,,TRUE,,,,,,,BCFG,FEW,100,,,,,,,LIFR,,,,,,,,,,,,SPECI,347.0
LGTS 052220Z 10005KT CAVOK 11/06 Q1012 NOSIG,LGTS,2020-05-05T22:20:00Z,40.52,22.97,11.0,6.0,100,5,,6.21,29.88189,,,,,,TRUE,,,,,CAVOK,,,,,,,,VFR,,,,,,,,,,,,METAR,7.0
LGKO 052220Z 34011KT CAVOK 16/14 Q1014,LGKO,2020-05-05T22:20:00Z,36.8,27.08,16.0,14.0,340,11,,6.21,29.940945,,,,,,,,,,,CAVOK,,,,,,,,VFR,,,,,,,,,,,,METAR,125.0
LGKL 052220Z 00000KT CAVOK 13/10 Q1017,LGKL,2020-05-05T22:20:00Z,37.07,22.02,13.0,10.0,0,0,,6.21,30.029528,,,,,,,,,,,CAVOK,,,,,,,,VFR,,,,,,,,,,,,METAR,8.0
LGAD 052220Z AUTO VRB03KT //// // ////// 12/11 Q1018 RERA,LGAD,2020-05-05T22:20:00Z,37.92,21.27,12.0,11.0,0,3,,,30.059055,,,TRUE,,,,,,,,,,,,,,,,,,,,,,,,,,,,SPECI,12.0
LIBD 052220Z AUTO 20007KT 9999 NCD 18/07 Q1013,LIBD,2020-05-05T22:20:00Z,41.12,16.77,18.0,7.0,200,7,,6.21,29.911417,,,TRUE,,,,,,,,CLR,,,,,,,,VFR,,,,,,,,,,,,METAR,44.0
LIPE 052220Z AUTO 11003KT 020V190 9999 NCD 16/13 Q1012,LIPE,2020-05-05T22:20:00Z,44.52,11.3,16.0,13.0,110,3,,6.21,29.88189,,,TRUE,,,,,,,,CLR,,,,,,,,VFR,,,,,,,,,,,,METAR,42.0
LICC 052220Z 25004KT CAVOK 15/14 Q1017,LICC,2020-05-05T22:20:00Z,37.47,15.05,15.0,14.0,250,4,,6.21,30.029528,,,,,,,,,,,CAVOK,,,,,,,,VFR,,,,,,,,,,,,METAR,17.0
LIPX 052220Z AUTO 08005KT 040V130 9999 BKN056/// 18/11 Q1013,LIPX,2020-05-05T22:20:00Z,45.38,10.87,18.0,11.0,80,5,,6.21,29.911417,,,TRUE,,,,,,,,BKN,5600,,,,,,,VFR,,,,,,,,,,,,METAR,68.0
LIPR 052220Z AUTO VRB01KT 9999 FEW120/// BKN220/// 17/12 Q1012,LIPR,2020-05-05T22:20:00Z,44.02,12.62,17.0,12.0,0,1,,6.21,29.88189,,,TRUE,,,,,,,,FEW,12000,BKN,22000,,,,,VFR,,,,,,,,,,,,METAR,13.0
LIPZ 052220Z 36004KT 9999 SCT060 16/13 Q1013 NOSIG,LIPZ,2020-05-05T22:20:00Z,45.5,12.35,16.0,13.0,360,4,,6.21,29.911417,,,,,,TRUE,,,,,SCT,6000,,,,,,,VFR,,,,,,,,,,,,METAR,6.0
LIPY 052220Z AUTO 24007KT 9999 BKN220/// 18/12 Q1012,LIPY,2020-05-05T22:20:00Z,43.62,13.37,18.0,12.0,240,7,,6.21,29.88189,,,TRUE,,,,,,,,BKN,22000,,,,,,,VFR,,,,,,,,,,,,METAR,10.0
EFIV 052220Z AUTO 20013KT 160V230 CAVOK 04/M03 Q1001,EFIV,2020-05-05T22:20:00Z,68.62,27.42,4.0,-3.0,200,13,,6.21,29.557087,,,TRUE,,,,,,,,CAVOK,,,,,,,,VFR,,,,,,,,,,,,METAR,148.0
EFMA 052220Z AUTO VRB01KT CAVOK 00/M01 Q1016,EFMA,2020-05-05T22:20:00Z,60.12,19.88,0.0,-1.0,0,1,,6.21,30.0,,,TRUE,,,,,,,,CAVOK,,,,,,,,VFR,,,,,,,,,,,,METAR,6.0
ESGR 052220Z AUTO 16003KT 9999 NCD 01/M00 Q1019,ESGR,2020-05-05T22:20:00Z,58.45,13.97,1.0,0.0,160,3,,6.21,30.088583,,,TRUE,,,,,,,,CLR,,,,,,,,VFR,,,,,,,,,,,,METAR,105.0
ESNV 052220Z AUTO 22011KT 9999 FEW019/// SCT037/// BKN088/// ///// Q1008,ESNV,2020-05-05T22:20:00Z,64.58,16.83,,,220,11,,6.21,29.763779,,,TRUE,,,,,,,,FEW,1900,SCT,3700,BKN,8800,,,VFR,,,,,,,,,,,,METAR,348.0
ESKM 052220Z AUTO 19003KT 9999 NCD 06/M02 Q1015,ESKM,2020-05-05T22:20:00Z,60.97,14.52,6.0,-2.0,190,3,,6.21,29.970472,,,TRUE,,,,,,,,CLR,,,,,,,,VFR,,,,,,,,,,,,METAR,193.0
ESND 052220Z AUTO 00000KT 9999 OVC072/// 02/M04 Q1014,ESND,2020-05-05T22:20:00Z,62.05,14.42,2.0,-4.0,0,0,,6.21,29.940945,,,TRUE,,,,,,,,OVC,7200,,,,,,,VFR,,,,,,,,,,,,METAR,359.0
ESUP 052220Z AUTO 20012KT 9999 FEW110/// 03/M02 Q1002,ESUP,2020-05-05T22:20:00Z,67.25,23.07,3.0,-2.0,200,12,,6.21,29.586615,,,TRUE,,,,,,,,FEW,11000,,,,,,,VFR,,,,,,,,,,,,METAR,165.0
ESST 052220Z AUTO 19004KT 140V250 9999 NCD 07/M02 Q1017,ESST,2020-05-05T22:20:00Z,60.15,12.98,7.0,-2.0,190,4,,6.21,30.029528,,,TRUE,,,,,,,,CLR,,,,,,,,VFR,,,,,,,,,,,,METAR,120.0
LOWW 052220Z 31011KT CAVOK 08/03 Q1019 NOSIG,LOWW,2020-05-05T22:20:00Z,48.12,16.57,8.0,3.0,310,11,,6.21,30.088583,,,,,,TRUE,,,,,CAVOK,,,,,,,,VFR,,,,,,,,,,,,METAR,190.0
ENSE 052220Z AUTO 26024KT 9999NDV OVC021/// 09/06 Q1020 W///S5,ENSE,2020-05-05T22:20:00Z,61.45,2.15,9.0,6.0,260,24,,,30.11811,,,TRUE,,,,,,,,OVC,2100,,,,,,,,,,,,,,,,,,,METAR,10.0
ENQR 052220Z AUTO 26018KT 9999NDV BKN012/// BKN025/// OVC040/// 08/06 Q1019 W///S5,ENQR,2020-05-05T22:20:00Z,61.52,2.22,8.0,6.0,260,18,,,30.088583,,,TRUE,,,,,,,,BKN,1200,BKN,2500,OVC,4000,,,,,,,,,,,,,,,METAR,10.0
ENNE 052220Z AUTO 29034KT 9999NDV FEW029/// BKN038/// 04/M01 Q1008 W///S6,ENNE,2020-05-05T22:20:00Z,66.03,8.08,4.0,-1.0,290,34,,,29.763779,,,TRUE,,,,,,,,FEW,2900,BKN,3800,,,,,,,,,,,,,,,,,METAR,10.0
KTNB 052220Z AUTO 18003KT 10SM 16/10 A2984 RMK AO2 LTG DSNT S AND SW T01610100,KTNB,2020-05-05T22:20:00Z,36.2,-81.65,16.1,10.0,180,3,,10.0,29.840551,,,TRUE,TRUE,,,,,,,,,,,,,,,,,,,,,,,,,,,SPECI,911.0
ENHM 052220Z AUTO 26017KT 9999NDV FEW018/// BKN220/// 08/06 Q1023 W08/S4,ENHM,2020-05-05T22:20:00Z,59.57,2.23,8.0,6.0,260,17,,,30.206694,,,TRUE,,,,,,,,FEW,1800,BKN,22000,,,,,,,,,,,,,,,,,METAR,10.0
ENQA 052220Z AUTO 24018KT 9999NDV OVC032/// 07/05 Q1022 W06/S4,ENQA,2020-05-05T22:20:00Z,60.65,3.72,7.0,5.0,240,18,,,30.177166,,,TRUE,,,,,,,,OVC,3200,,,,,,,,,,,,,,,,,,,METAR,20.0
ENQC 052220Z AUTO 22020KT 9999NDV OVC025/// 08/06 Q1021 W///S4,ENQC,2020-05-05T22:20:00Z,60.88,3.62,8.0,6.0,220,20,,,30.147638,,,TRUE,,,,,,,,OVC,2500,,,,,,,,,,,,,,,,,,,METAR,20.0
ENLA 052220Z AUTO 27010KT 9999NDV FEW024/// 07/02 Q1026 W///S3,ENLA,2020-05-05T22:20:00Z,57.1,2.83,7.0,2.0,270,10,,,30.295275,,,TRUE,,,,,,,,FEW,2400,,,,,,,,,,,,,,,,,,,METAR,4.0
ENUG 052220Z AUTO 22030KT 8000NDV -SHRA OVC018/// 04/// Q0991 W///S6,ENUG,2020-05-05T22:20:00Z,71.3,22.25,,,220,30,,,29.26181,,,TRUE,,,,,,,-SHRA,OVC,1800,,,,,,,,,,,,,,,,,,,METAR,30.0
ENWV 052220Z AUTO /////KT 9999NDV FEW025/// 06/01 Q1026 W///S3,ENWV,2020-05-05T22:20:00Z,56.28,3.4,6.0,1.0,,,,,30.295275,,,TRUE,,,,,,,,FEW,2500,,,,,,,,,,,,,,,,,,,METAR,30.0
LGIO 052220Z AUTO VRB01KT //// // ////// 09/07 Q1018 RE//,LGIO,2020-05-05T22:20:00Z,39.7,20.82,9.0,7.0,0,1,,,30.059055,,,TRUE,,,,,,,,,,,,,,,,,,,,,,,,,,,,METAR,476.0
LGEL 052220Z 00000KT CAVOK 14/09 Q1013,LGEL,2020-05-05T22:20:00Z,38.07,23.55,14.0,9.0,0,0,,6.21,29.911417,,,,,,,,,,,CAVOK,,,,,,,,VFR,,,,,,,,,,,,METAR,31.0
LICD 052220Z AUTO 15007KT 9000 NCD 19/18 Q1016,LICD,2020-05-05T22:20:00Z,35.5,12.62,19.0,18.0,150,7,,5.59,30.0,,,TRUE,,,,,,,,CLR,,,,,,,,VFR,,,,,,,,,,,,METAR,20.0
LICA 052220Z AUTO 27005KT 240V300 9999 NCD 16/13 Q1017,LICA,2020-05-05T22:20:00Z,38.88,16.25,16.0,13.0,270,5,,6.21,30.029528,,,TRUE,,,,,,,,CLR,,,,,,,,VFR,,,,,,,,,,,,METAR,15.0
EBAW 052220Z AUTO 03006KT CAVOK 09/03 Q1023,EBAW,2020-05-05T22:20:00Z,51.2,4.47,9.0,3.0,30,6,,6.21,30.206694,,,TRUE,,,,,,,,CAVOK,,,,,,,,VFR,,,,,,,,,,,,METAR,14.0
EBLG 052220Z 08005KT CAVOK 09/M00 Q1022 NOSIG,EBLG,2020-05-05T22:20:00Z,50.63,5.45,9.0,0.0,80,5,,6.21,30.177166,,,,,,TRUE,,,,,CAVOK,,,,,,,,VFR,,,,,,,,,,,,METAR,178.0
EBCI 052220Z AUTO 06007KT CAVOK 08/00 Q1022,EBCI,2020-05-05T22:20:00Z,50.47,4.45,8.0,0.0,60,7,,6.21,30.177166,,,TRUE,,,,,,,,CAVOK,,,,,,,,VFR,,,,,,,,,,,,METAR,192.0
EBBR 052220Z 07003KT CAVOK 08/00 Q1023 NOSIG,EBBR,2020-05-05T22:20:00Z,50.9,4.5,8.0,0.0,70,3,,6.21,30.206694,,,,,,TRUE,,,,,CAVOK,,,,,,,,VFR,,,,,,,,,,,,METAR,58.0
ELLX 052220Z 04012KT CAVOK 09/M03 Q1021 NOSIG,ELLX,2020-05-05T22:20:00Z,49.63,6.2,9.0,-3.0,40,12,,6.21,30.147638,,,,,,TRUE,,,,,CAVOK,,,,,,,,VFR,,,,,,,,,,,,METAR,379.0
LIEA 052220Z 31002KT CAVOK 17/15 Q1013,LIEA,2020-05-05T22:20:00Z,40.62,8.27,17.0,15.0,310,2,,6.21,29.911417,,,,,,,,,,,CAVOK,,,,,,,,VFR,,,,,,,,,,,,METAR,23.0
LIMC 052220Z VRB02KT CAVOK 14/13 Q1013 NOSIG,LIMC,2020-05-05T22:20:00Z,45.62,8.72,14.0,13.0,0,2,,6.21,29.911417,,,,,,TRUE,,,,,CAVOK,,,,,,,,VFR,,,,,,,,,,,,METAR,211.0
LIEE 052220Z 14004KT 0400 R32/1400U FG FEW002 17/17 Q1015,LIEE,2020-05-05T22:20:00Z,39.25,9.07,17.0,17.0,140,4,,0.25,29.970472,,,,,,,,,,FG,FEW,200,,,,,,,LIFR,,,,,,,,,,,,METAR,4.0
LIME 052220Z 27007KT CAVOK 16/13 Q1013 NOSIG,LIME,2020-05-05T22:20:00Z,45.67,9.68,16.0,13.0,270,7,,6.21,29.911417,,,,,,TRUE,,,,,CAVOK,,,,,,,,VFR,,,,,,,,,,,,METAR,237.0
LIML 052220Z AUTO 30004KT 9999 NCD 18/13 Q1013,LIML,2020-05-05T22:20:00Z,45.47,9.27,18.0,13.0,300,4,,6.21,29.911417,,,TRUE,,,,,,,,CLR,,,,,,,,VFR,,,,,,,,,,,,METAR,103.0
LIRN 052220Z AUTO 20002KT 9999 // NCD 16/14 Q1016,LIRN,2020-05-05T22:20:00Z,40.88,14.3,16.0,14.0,200,2,,6.21,30.0,,,TRUE,,,,,,,,CLR,,,,,,,,VFR,,,,,,,,,,,,METAR,72.0
LIMF 052220Z AUTO VRB02KT 9999 NCD 16/13 Q1013,LIMF,2020-05-05T22:20:00Z,45.22,7.65,16.0,13.0,0,2,,6.21,29.911417,,,TRUE,,,,,,,,CLR,,,,,,,,VFR,,,,,,,,,,,,METAR,287.0
LIRQ 052220Z VRB02KT 9999 FEW020 17/14 Q1014,LIRQ,2020-05-05T22:20:00Z,43.78,11.18,17.0,14.0,0,2,,6.21,29.940945,,,,,,,,,,,FEW,2000,,,,,,,VFR,,,,,,,,,,,,METAR,38.0
ENAT 052220Z AUTO VRB06KT 9999 FEW033/// SCT070/// OVC120/// 05/M01 Q0996 RMK WIND 700FT 19014KT,ENAT,2020-05-05T22:20:00Z,69.97,23.37,5.0,-1.0,0,6,,6.21,29.409449,,,TRUE,,,,,,,,FEW,3300,SCT,7000,OVC,12000,,,VFR,,,,,,,,,,,,SPECI,3.0
ENFL 052220Z AUTO 21013KT 9999NDV SCT028/// OVC037/// 07/05 Q1021,ENFL,2020-05-05T22:20:00Z,61.57,5.02,7.0,5.0,210,13,,,30.147638,,,TRUE,,,,,,,,SCT,2800,OVC,3700,,,,,,,,,,,,,,,,,SPECI,9.0
LIRF 052220Z 12005KT CAVOK 16/14 Q1015 NOSIG,LIRF,2020-05-05T22:20:00Z,41.78,12.22,16.0,14.0,120,5,,6.21,29.970472,,,,,,TRUE,,,,,CAVOK,,,,,,,,VFR,,,,,,,,,,,,METAR,3.0
ENKR 052220Z 20018KT CAVOK 04/M02 Q1001 RMK WIND 731FT 20025KT,ENKR,2020-05-05T22:20:00Z,69.72,29.88,4.0,-2.0,200,18,,6.21,29.557087,,,,,,,,,,,CAVOK,,,,,,,,VFR,,,2.5,,,,,,,,,SPECI,91.0
ENML 052220Z AUTO 25022KT 9999NDV -DZ OVC027/// 07/04 Q1017,ENML,2020-05-05T22:20:00Z,62.75,7.27,7.0,4.0,250,22,,,30.029528,,,TRUE,,,,,,,-DZ,OVC,2700,,,,,,,,,,,,,,,,,,,SPECI,3.0
ENKB 052220Z AUTO 24019KT 4500 -RA FEW005/// SCT013/// BKN017/// 06/04 Q1015 RMK WIND 745FT 25033G44KT,ENKB,2020-05-05T22:20:00Z,63.12,7.82,6.0,4.0,240,19,,2.8,29.970472,,,TRUE,,,,,,,-RA,FEW,500,SCT,1300,BKN,1700,,,IFR,,,,,,,,,,,,SPECI,62.0
ENBN 052220Z 26010KT 9999 VCSH FEW010 BKN030 05/02 Q1008,ENBN,2020-05-05T22:20:00Z,65.47,12.22,5.0,2.0,260,10,,6.21,29.763779,,,,,,,,,,VCSH,FEW,1000,BKN,3000,,,,,MVFR,,,,,,,,,,,,METAR,9.0
ENNA 052220Z AUTO 18022G33KT 9999 OVC030/// 04/M02 Q0996 RMK WIND 1800FT 24046KT,ENNA,2020-05-05T22:20:00Z,70.07,24.97,4.0,-2.0,180,22,33,6.21,29.409449,,,TRUE,,,,,,,,OVC,3000,,,,,,,MVFR,,,,,,,,,,,,SPECI,8.0
EBOS 052220Z 06011KT CAVOK 09/05 Q1023 NOSIG,EBOS,2020-05-05T22:20:00Z,51.2,2.87,9.0,5.0,60,11,,6.21,30.206694,,,,,,TRUE,,,,,CAVOK,,,,,,,,VFR,,,,,,,,,,,,METAR,5.0
ENHF 052220Z 21011KT 180V240 CAVOK 04/M01 Q0993 RMK WIND 1254FT 19020KT,ENHF,2020-05-05T22:20:00Z,70.67,23.67,4.0,-1.0,210,11,,6.21,29.320866,,,,,,,,,,,CAVOK,,,,,,,,VFR,,,,,,,,,,,,SPECI,81.0
LGKZ 052220Z AUTO VRB03KT //// // ////// 10/01 Q1015 RE//,LGKZ,2020-05-05T22:20:00Z,40.28,21.83,10.0,1.0,0,3,,,29.970472,,,TRUE,,,,,,,,,,,,,,,,,,,,,,,,,,,,SPECI,628.0
LGKP 052220Z AUTO 30023KT //// // ////// 17/13 Q1013 RE//,LGKP,2020-05-05T22:20:00Z,35.42,27.15,17.0,13.0,300,23,,,29.911417,,,TRUE,,,,,,,,,,,,,,,,,,,,,,,,,,,,SPECI,20.0
LGPA 052220Z AUTO 12006KT //// // ////// 14/09 Q1015 RE//,LGPA,2020-05-05T22:20:00Z,37.0,25.13,14.0,9.0,120,6,,,29.970472,,,TRUE,,,,,,,,,,,,,,,,,,,,,,,,,,,,SPECI,36.0
LIBP 052220Z AUTO 24004KT 9999 BKN210/// 15/14 Q1013,LIBP,2020-05-05T22:20:00Z,42.42,14.18,15.0,14.0,240,4,,6.21,29.911417,,,TRUE,,,,,,,,BKN,21000,,,,,,,VFR,,,,,,,,,,,,METAR,11.0
LGSO 052220Z AUTO 23005KT //// // ////// 16/10 Q1015 RE//,LGSO,2020-05-05T22:20:00Z,37.42,24.95,16.0,10.0,230,5,,,29.970472,,,TRUE,,,,,,,,,,,,,,,,,,,,,,,,,,,,SPECI,72.0
EDHI 052220Z AUTO 33007KT 300V010 9999 // NCD 09/02 Q1023,EDHI,2020-05-05T22:20:00Z,53.53,9.83,9.0,2.0,330,7,,6.21,30.206694,,,TRUE,,,,,,,,CLR,,,,,,,,VFR,,,,,,,,,,,,METAR,13.0
EDJA 052220Z AUTO 06003KT 0300 R06/0600N // VV002 04/04 Q1019,EDJA,2020-05-05T22:20:00Z,47.98,10.23,4.0,4.0,60,3,,0.19,30.088583,,,TRUE,,,,,,,,OVX,0,,,,,,,LIFR,,,,,,,,,,,200,SPECI,633.0
EDMO 052220Z AUTO 17003KT 7000 // FEW002/// SCT057/// 02/02 Q1019,EDMO,2020-05-05T22:20:00Z,48.07,11.27,2.0,2.0,170,3,,4.35,30.088583,,,TRUE,,,,,,,,FEW,200,SCT,5700,,,,,MVFR,,,,,,,,,,,,METAR,600.0
ENLE 052220Z 30007KT 9999 FEW030 07/01 Q1026 W09/S3,ENLE,2020-05-05T22:20:00Z,56.53,3.22,7.0,1.0,300,7,,6.21,30.295275,,,,,,,,,,,FEW,3000,,,,,,,VFR,,,,,,,,,,,,METAR,3.0
EDTY 052220Z AUTO 08005KT 9999 // NCD 04/M02 Q1021,EDTY,2020-05-05T22:20:00Z,49.12,9.78,4.0,-2.0,80,5,,6.21,30.147638,,,TRUE,,,,,,,,CLR,,,,,,,,VFR,,,,,,,,,,,,SPECI,400.0
ENSL 052220Z AUTO 27019KT 9999NDV FEW017/// 08/05 Q1025 W05/S3,ENSL,2020-05-05T22:20:00Z,58.37,1.9,8.0,5.0,270,19,,,30.265747,,,TRUE,,,,,,,,FEW,1700,,,,,,,,,,,,,,,,,,,METAR,50.0
ENSF 052220Z AUTO 25027KT 9999NDV BKN027/// 09/04 Q1020 W///S4,ENSF,2020-05-05T22:20:00Z,61.25,1.85,9.0,4.0,250,27,,,30.11811,,,TRUE,,,,,,,,BKN,2700,,,,,,,,,,,,,,,,,,,METAR,10.0
ENFB 052220Z AUTO 26025KT 9999NDV BKN029/// ///// Q//// W///S4,ENFB,2020-05-05T22:20:00Z,61.2,1.83,,,260,25,,,,,,TRUE,,,,,,,,BKN,2900,,,,,,,,,,,,,,,,,,,SPECI,10.0
ENUN 052220Z AUTO 30036KT 9999NDV -SHRA OVC025/// 02/M02 Q1003 WM18/S/,ENUN,2020-05-05T22:20:00Z,,,2.0,-2.0,300,36,,,29.616142,,,TRUE,,,,,,,-SHRA,OVC,2500,,,,,,,,,,,,,,,,,,,METAR,
EDFH 052220Z 10005KT 050V130 CAVOK 05/M02 Q1021,EDFH,2020-05-05T22:20:00Z,49.95,7.27,5.0,-2.0,100,5,,6.21,30.147638,,,,,,,,,,,CAVOK,,,,,,,,VFR,,,,,,,,,,,,METAR,498.0
EDFM 052220Z 34004KT CAVOK 08/M00 Q1021,EDFM,2020-05-05T22:20:00Z,49.47,8.52,8.0,0.0,340,4,,6.21,30.147638,,,,,,,,,,,CAVOK,,,,,,,,VFR,,,,,,,,,,,,METAR,100.0
EDAC 052220Z AUTO 17003KT 9999 // NCD 02/01 Q1021,EDAC,2020-05-05T22:20:00Z,50.98,12.5,2.0,1.0,170,3,,6.21,30.147638,,,TRUE,,,,,,,,CLR,,,,,,,,VFR,,,,,,,,,,,,METAR,195.0
EDLN 052220Z AUTO 04003KT 9999 // NCD 05/02 Q1023,EDLN,2020-05-05T22:20:00Z,51.23,6.5,5.0,2.0,40,3,,6.21,30.206694,,,TRUE,,,,,,,,CLR,,,,,,,,VFR,,,,,,,,,,,,METAR,38.0
EDLW 052220Z AUTO 08003KT 9999 // NCD 07/00 Q1023,EDLW,2020-05-05T22:20:00Z,51.52,7.62,7.0,0.0,80,3,,6.21,30.206694,,,TRUE,,,,,,,,CLR,,,,,,,,VFR,,,,,,,,,,,,METAR,127.0
EDNY 052220Z AUTO 03003KT 9999 // OVC046/// 10/07 Q1019,EDNY,2020-05-05T22:20:00Z,47.67,9.52,10.0,7.0,30,3,,6.21,30.088583,,,TRUE,,,,,,,,OVC,4600,,,,,,,VFR,,,,,,,,,,,,METAR,424.0
EDSB 052220Z AUTO 02006KT 9999 NCD 09/01 Q1020,EDSB,2020-05-05T22:20:00Z,48.78,8.08,9.0,1.0,20,6,,6.21,30.11811,,,TRUE,,,,,,,,CLR,,,,,,,,VFR,,,,,,,,,,,,METAR,124.0
EGGP 052220Z AUTO 09011KT 9999 NCD 09/03 Q1025,EGGP,2020-05-05T22:20:00Z,53.32,-2.85,9.0,3.0,90,11,,6.21,30.265747,,,TRUE,,,,,,,,CLR,,,,,,,,VFR,,,,,,,,,,,,METAR,26.0
EGVO 052220Z 06006KT CAVOK 07/03 Q1023 NOSIG RMK BLU BLU,EGVO,2020-05-05T22:20:00Z,51.23,-0.95,7.0,3.0,60,6,,6.21,30.206694,,,,,,TRUE,,,,,CAVOK,,,,,,,,VFR,,,,,,,,,,,,METAR,123.0
EGUW 052220Z 05007KT CAVOK 05/02 Q1025 NOSIG RMK BLU BLU,EGUW,2020-05-05T22:20:00Z,52.12,0.97,5.0,2.0,50,7,,6.21,30.265747,,,,,,TRUE,,,,,CAVOK,,,,,,,,VFR,,,,,,,,,,,,METAR,87.0
LSZL 052220Z AUTO VRB01KT 9999NDV NCD 13/11 Q1013 RMK,LSZL,2020-05-05T22:20:00Z,46.17,8.88,13.0,11.0,0,1,,,29.911417,,,TRUE,,,,,,,,CLR,,,,,,,,,,,,,,,,,,,,SPECI,600.0
LGSA 052220Z 31007KT CAVOK 14/12 Q1016,LGSA,2020-05-05T22:20:00Z,35.53,24.13,14.0,12.0,310,7,,6.21,30.0,,,,,,,,,,,CAVOK,,,,,,,,VFR,,,,,,,,,,,,METAR,135.0
EGVN 052220Z 07008KT CAVOK 08/01 Q1024 NOSIG RMK BLU BLU,EGVN,2020-05-05T22:20:00Z,51.77,-1.58,8.0,1.0,70,8,,6.21,30.236221,,,,,,TRUE,,,,,CAVOK,,,,,,,,VFR,,,,,,,,,,,,METAR,88.0
KCGE 052220Z AUTO 00000KT 10SM OVC070 14/06 A2989 RMK A01,KCGE,2020-05-05T22:20:00Z,38.53,-76.03,14.0,6.0,0,0,,10.0,29.890747,,,TRUE,TRUE,,,,,,,OVC,7000,,,,,,,VFR,,,,,,,,,,,,SPECI,6.0
ETHN 052220Z 07009KT 9999 FEW280 05/M02 Q1021 BLU+,ETHN,2020-05-05T22:20:00Z,49.38,9.97,5.0,-2.0,70,9,,6.21,30.147638,,,,,,,,,,,FEW,28000,,,,,,,VFR,,,,,,,,,,,,METAR,473.0
ETHL 052220Z 09002KT 7000 MIFG FEW035 05/05 Q1019 WHT,ETHL,2020-05-05T22:20:00Z,48.22,9.92,5.0,5.0,90,2,,4.35,30.088583,,,,,,,,,,MIFG,FEW,3500,,,,,,,MVFR,,,,,,,,,,,,METAR,549.0
ETHA 052220Z AUTO 25001KT //// // ////// 05/04 Q1019 ///,ETHA,2020-05-05T22:20:00Z,47.82,10.87,5.0,4.0,250,1,,,30.088583,,,TRUE,,,,,,,,,,,,,,,,,,,,,,,,,,,,METAR,760.0
KW29 052220Z AUTO 12004KT 10SM OVC090 14/04 A2988 RMK AO2,KW29,2020-05-05T22:20:00Z,38.98,-76.33,14.0,4.0,120,4,,10.0,29.878937,,,TRUE,TRUE,,,,,,,OVC,9000,,,,,,,VFR,,,,,,,,,,,,SPECI,15.0
ETSB 052220Z AUTO 05008KT 9999 // ////// 06/M01 Q1021 ///,ETSB,2020-05-05T22:20:00Z,50.17,7.07,6.0,-1.0,50,8,,6.21,30.147638,,,TRUE,,,,,,,,,,,,,,,,,,,,,,,,,,,,METAR,486.0
ETNN 052220Z 00000KT 9999 FEW300 05/01 Q1023 BLU+,ETNN,2020-05-05T22:20:00Z,50.82,6.67,5.0,1.0,0,0,,6.21,30.206694,,,,,,,,,,,FEW,30000,,,,,,,VFR,,,,,,,,,,,,METAR,135.0
ETSL 052220Z AUTO 20001KT 0100 // ////// 02/01 Q1019 ///,ETSL,2020-05-05T22:20:00Z,48.17,10.87,2.0,1.0,200,1,,0.06,30.088583,,,TRUE,,,,,,,,,,,,,,,,,,,,,,,,,,,,METAR,562.0
ETSI 052220Z AUTO 05006KT 8000 // ////// 08/M01 Q1020 ///,ETSI,2020-05-05T22:20:00Z,48.72,11.52,8.0,-1.0,50,6,,4.97,30.11811,,,TRUE,,,,,,,,,,,,,,,,,,,,,,,,,,,,METAR,370.0
ETSN 052220Z 03003KT 9999 FEW060 06/00 Q1020 BLU+,ETSN,2020-05-05T22:20:00Z,48.72,11.22,6.0,0.0,30,3,,6.21,30.11811,,,,,,,,,,,FEW,6000,,,,,,,VFR,,,,,,,,,,,,METAR,387.0
ETHS 052220Z 12001KT 9999 FEW300 02/M01 Q1023 BLU+BLU+,ETHS,2020-05-05T22:20:00Z,52.92,10.18,2.0,-1.0,120,1,,6.21,30.206694,,,,,,,,,,,FEW,30000,,,,,,,VFR,,,,,,,,,,,,METAR,88.0
ETHF 052220Z AUTO 30003KT 9999 // ////// 04/M00 Q1023 ///,ETHF,2020-05-05T22:20:00Z,51.12,9.27,4.0,0.0,300,3,,6.21,30.206694,,,TRUE,,,,,,,,,,,,,,,,,,,,,,,,,,,,METAR,181.0
ETHC 052220Z AUTO 30003KT 7000 // ////// 05/01 Q1023 ///,ETHC,2020-05-05T22:20:00Z,52.6,10.02,5.0,1.0,300,3,,4.35,30.206694,,,TRUE,,,,,,,,,,,,,,,,,,,,,,,,,,,,METAR,52.0
ETHB 052220Z AUTO 25001KT 9999 // ////// 06/02 Q1023 ///,ETHB,2020-05-05T22:20:00Z,52.27,9.07,6.0,2.0,250,1,,6.21,30.206694,,,TRUE,,,,,,,,,,,,,,,,,,,,,,,,,,,,METAR,78.0
ETGG 052220Z AUTO 34003KT //// // ////// 07/02 Q1023 ///,ETGG,2020-05-05T22:20:00Z,54.83,9.5,7.0,2.0,340,3,,,30.206694,,,TRUE,,,,,,,,,,,,,,,,,,,,,,,,,,,,METAR,33.0
ETNL 052220Z 30006KT 9999 04/02 Q1021 BLU+,ETNL,2020-05-05T22:20:00Z,53.92,12.27,4.0,2.0,300,6,,6.21,30.147638,,,,,,,,,,,,,,,,,,,,,,,,,,,,,,,METAR,40.0
ETNH 052220Z 27006KT 9999 04/01 Q1023 BLU+,ETNH,2020-05-05T22:20:00Z,54.32,9.55,4.0,1.0,270,6,,6.21,30.206694,,,,,,,,,,,,,,,,,,,,,,,,,,,,,,,METAR,17.0
ETMN 052220Z AUTO 32003KT 9999 // ////// 07/02 Q1024 ///,ETMN,2020-05-05T22:20:00Z,53.77,8.67,7.0,2.0,320,3,,6.21,30.236221,,,TRUE,,,,,,,,,,,,,,,,,,,,,,,,,,,,METAR,31.0
ETNT 052220Z 00000KT 9999 FEW250 04/02 Q1024 BLU+,ETNT,2020-05-05T22:20:00Z,53.53,7.67,4.0,2.0,0,0,,6.21,30.236221,,,,,,,,,,,FEW,25000,,,,,,,VFR,,,,,,,,,,,,METAR,12.0
ETNS 052220Z AUTO 30004KT 6000 // ////// 06/01 Q1023 ///,ETNS,2020-05-05T22:20:00Z,54.47,9.52,6.0,1.0,300,4,,3.73,30.206694,,,TRUE,,,,,,,,,,,,,,,,,,,,,,,,,,,,METAR,25.0
ETSH 052220Z 31003KT 9999 FEW060 02/M00 Q1021 BLU+,ETSH,2020-05-05T22:20:00Z,51.77,13.17,2.0,0.0,310,3,,6.21,30.147638,,,,,,,,,,,FEW,6000,,,,,,,VFR,,,,,,,,,,,,METAR,79.0
ETNW 052220Z AUTO 01006KT //// // ////// 06/02 Q1023 ///,ETNW,2020-05-05T22:20:00Z,52.45,9.42,6.0,2.0,10,6,,,30.206694,,,TRUE,,,,,,,,,,,,,,,,,,,,,,,,,,,,SPECI,70.0
ETWM 052220Z AUTO 03003KT //// // ////// 04/M01 Q1024 ///,ETWM,2020-05-05T22:20:00Z,52.72,7.33,4.0,-1.0,30,3,,,30.236221,,,TRUE,,,,,,,,,,,,,,,,,,,,,,,,,,,,METAR,21.0
LCRA 052220Z 28012KT CAVOK 18/12 Q1009 NOSIG,LCRA,2020-05-05T22:20:00Z,34.57,32.97,18.0,12.0,280,12,,6.21,29.793306,,,,,,TRUE,,,,,CAVOK,,,,,,,,VFR,,,,,,,,,,,,METAR,23.0
LSMA 052220Z AUTO 03008KT 350V060 9999NDV -RA BKN009 BKN011 OVC014 12/10 Q1018 RMK,LSMA,2020-05-05T22:20:00Z,46.95,8.28,12.0,10.0,30,8,,,30.059055,,,TRUE,,,,,,,-RA,BKN,900,BKN,1100,OVC,1400,,,,,,,,,,,,,,,METAR,444.0
LSME 052220Z AUTO 01004KT 9999NDV SCT008 BKN011 OVC015 11/10 Q1019 RMK,LSME,2020-05-05T22:20:00Z,47.1,8.3,11.0,10.0,10,4,,,30.088583,,,TRUE,,,,,,,,SCT,800,BKN,1100,OVC,1500,,,,,,,,,,,,,,,METAR,427.0
LSMD 052220Z AUTO VRB02KT 5000NDV R11/M0050N R29/P2000N -RA BKN023 BKN057 09/08 Q1019 RMK,LSMD,2020-05-05T22:20:00Z,47.4,8.65,9.0,8.0,0,2,,0.03,30.088583,,,TRUE,,,,,,,-RA,BKN,2300,BKN,5700,,,,,LIFR,,,,,,,,,,,,METAR,448.0
LSMM 052220Z AUTO 00000KT 0600NDV R10/0700V1500U R28/0800V1800D FG BKN002 10/10 Q1018 RMK,LSMM,2020-05-05T22:20:00Z,46.75,8.12,10.0,10.0,0,0,,,30.059055,,,TRUE,,,,,,,FG,BKN,200,,,,,,,,,,,,,,,,,,,METAR,577.0
LSMP 052220Z AUTO 07003KT 030V100 7000NDV SCT003 OVC006 12/11 Q1018 RMK,LSMP,2020-05-05T22:20:00Z,46.82,6.92,12.0,11.0,70,3,,,30.059055,,,TRUE,,,,,,,,SCT,300,OVC,600,,,,,,,,,,,,,,,,,METAR,491.0
LCEN 052220Z 29011KT 9999 FEW025 15/13 Q1009 NOSIG RMK RWY11 29010KT,LCEN,2020-05-05T22:20:00Z,35.13,33.5,15.0,13.0,290,11,,6.21,29.793306,,,,,,TRUE,,,,,FEW,2500,,,,,,,VFR,,,,,,,,,,,,SPECI,91.0
LTAG 052220Z 01004KT 9999 FEW040 14/14 Q1007 NOSIG,LTAG,2020-05-05T22:20:00Z,37.0,35.42,14.0,14.0,10,4,,6.21,29.734253,,,,,,TRUE,,,,,FEW,4000,,,,,,,VFR,,,,,,,,,,,,METAR,66.0
LTBU 052220Z 00000KT CAVOK 11/10 Q1013 RMK RWY22 13003KT,LTBU,2020-05-05T22:20:00Z,41.12,27.92,11.0,10.0,0,0,,6.21,29.911417,,,,,,,,,,,CAVOK,,,,,,,,VFR,,,,,,,,,,,,SPECI,173.0
LTAP 052220Z 01006KT 9999 SCT040 12/10 Q1011 NOSIG RMK RWY23 36006KT,LTAP,2020-05-05T22:20:00Z,40.83,35.52,12.0,10.0,10,6,,6.21,29.852362,,,,,,TRUE,,,,,SCT,4000,,,,,,,VFR,,,,,,,,,,,,SPECI,535.0
LSZG 052220Z AUTO 07005KT 9999 SCT016 SCT044 OVC055 11/10 Q1019,LSZG,2020-05-05T22:20:00Z,47.17,7.42,11.0,10.0,70,5,,6.21,30.088583,,,TRUE,,,,,,,,SCT,1600,SCT,4400,OVC,5500,,,VFR,,,,,,,,,,,,METAR,430.0
LTCC 052220Z 26005KT 170V310 9999 SCT040 BKN100 17/08 Q1006 NOSIG RMK RWY16 VRB02KT,LTCC,2020-05-05T22:20:00Z,37.87,40.2,17.0,8.0,260,5,,6.21,29.704725,,,,,,TRUE,,,,,SCT,4000,BKN,10000,,,,,VFR,,,,,,,,,,,,SPECI,677.0
LTCE 052220Z 33005KT 9999 BKN035 BKN070 09/04 Q1011 BECMG TL2250 09015KT,LTCE,2020-05-05T22:20:00Z,39.95,41.17,9.0,4.0,330,5,,6.21,29.852362,,,,,,,,,,,BKN,3500,BKN,7000,,,,,VFR,,,,,,,,,,,,SPECI,1758.0
LTBS 052220Z 28004KT 230V310 CAVOK 16/12 Q1012 NOSIG RMK RWY19 36011KT,LTBS,2020-05-05T22:20:00Z,36.7,28.77,16.0,12.0,280,4,,6.21,29.88189,,,,,,TRUE,,,,,CAVOK,,,,,,,,VFR,,,,,,,,,,,,SPECI,2.0
LTAC 052220Z 32004KT 280V350 9999 SCT040 SCT100 09/05 Q1013 NOSIG RMK RWY21L 09004KT RWY03L VRB02KT RWY21R 09003KT 030V120,LTAC,2020-05-05T22:20:00Z,40.12,32.97,9.0,5.0,320,4,,6.21,29.911417,,,,,,TRUE,,,,,SCT,4000,SCT,10000,,,,,VFR,,,,,,,,,,,,SPECI,949.0
LTCS 052220Z 13006KT 9999 FEW040 BKN100 13/11 Q1008 RMK RWY22 16007KT,LTCS,2020-05-05T22:20:00Z,37.45,38.9,13.0,11.0,130,6,,6.21,29.763779,,,,,,,,,,,FEW,4000,BKN,10000,,,,,VFR,,,,,,,,,,,,METAR,825.0
LTFJ 052220Z VRB02KT CAVOK 12/11 Q1013 NOSIG RMK RWY24 VRB01KT,LTFJ,2020-05-05T22:20:00Z,40.9,29.3,12.0,11.0,0,2,,6.21,29.911417,,,,,,TRUE,,,,,CAVOK,,,,,,,,VFR,,,,,,,,,,,,SPECI,98.0
LTCG 052220Z 00000KT 9999 -SHRA BKN011 BKN030 14/13 Q1012 NOSIG RMK RWY29 32001KT,LTCG,2020-05-05T22:20:00Z,41.0,39.8,14.0,13.0,0,0,,6.21,29.88189,,,,,,TRUE,,,,-SHRA,BKN,1100,BKN,3000,,,,,MVFR,,,,,,,,,,,,SPECI,30.0
LTFM 052220Z 19008KT CAVOK 13/11 Q1013 NOSIG RMK RWY17L 20012KT RWY34L 19010KT RWY16R 20010KT,LTFM,2020-05-05T22:20:00Z,41.27,28.75,13.0,11.0,190,8,,6.21,29.911417,,,,,,TRUE,,,,,CAVOK,,,,,,,,VFR,,,1.2,,,,,,,,,METAR,99.0
ENHE 052220Z 29034KT 7000 -SHRA FEW030 BKN040 04/00 Q1009 W///S6,ENHE,2020-05-05T22:20:00Z,65.33,2.33,4.0,0.0,290,34,,4.35,29.793306,,,,,,,,,,-SHRA,FEW,3000,BKN,4000,,,,,MVFR,,,,,,,,,,,,SPECI,1.0
EYSA 052220Z 36006KT 9999 -RA FEW044 BKN058 OVC066 10/06 Q1011 BLU NOSIG,EYSA,2020-05-05T22:20:00Z,55.9,23.4,10.0,6.0,360,6,,6.21,29.852362,,,,,,TRUE,,,,-RA,FEW,4400,BKN,5800,OVC,6600,,,VFR,,,,,,,,,,,,METAR,135.0
ENTO 052220Z AUTO 29006KT 9999 NCD 06/02 Q1019,ENTO,2020-05-05T22:20:00Z,59.2,10.27,6.0,2.0,290,6,,6.21,30.088583,,,TRUE,,,,,,,,CLR,,,,,,,,VFR,,,,,,,,,,,,METAR,88.0
ENTC 052220Z 22017KT 9999 FEW024 SCT034 BKN049 03/01 Q0995 RMK WIND 2600FT 21014G40KT,ENTC,2020-05-05T22:20:00Z,69.68,18.92,3.0,1.0,220,17,,6.21,29.379921,,,,,,,,,,,FEW,2400,SCT,3400,BKN,4900,,,VFR,,,-1.4,,,,,,,,,SPECI,10.0
KDVP 052220Z AUTO 33007KT 3SM -RA SCT012 BKN020 OVC026 08/06 A3011 RMK AO2 T00750059,KDVP,2020-05-05T22:20:00Z,43.98,-95.78,7.5,5.9,330,7,,3.0,30.109253,,,TRUE,TRUE,,,,,,-RA,SCT,1200,BKN,2000,OVC,2600,,,MVFR,,,,,,,,,,,,SPECI,495.0
LSZS 052220Z AUTO VRB03KT 9999 FEW050 05/05 Q1017,LSZS,2020-05-05T22:20:00Z,46.53,9.88,5.0,5.0,0,3,,6.21,30.029528,,,TRUE,,,,,,,,FEW,5000,,,,,,,VFR,,,,,,,,,,,,METAR,1706.0
LTAJ 052220Z 23003KT 200V260 9999 FEW045 SCT120 13/09 Q1006 NOSIG RMK RWY10 29003KT,LTAJ,2020-05-05T22:20:00Z,36.95,37.48,13.0,9.0,230,3,,6.21,29.704725,,,,,,TRUE,,,,,FEW,4500,SCT,12000,,,,,VFR,,,,,,,,,,,,SPECI,855.0
LTAI 052220Z 30003KT 270V360 9999 FEW030 18/09 Q1011 NOSIG RMK RWY18C 32010KT RWY36R 35003KT RWY18L 35006KT,LTAI,2020-05-05T22:20:00Z,36.9,30.8,18.0,9.0,300,3,,6.21,29.852362,,,,,,TRUE,,,,,FEW,3000,,,,,,,VFR,,,,,,,,,,,,SPECI,54.0
LTAF 052220Z 06002KT 9999 SCT040 15/14 Q1007 NOSIG RMK RWY23 05002KT,LTAF,2020-05-05T22:20:00Z,36.97,35.28,15.0,14.0,60,2,,6.21,29.734253,,,,,,TRUE,,,,,SCT,4000,,,,,,,VFR,,,,,,,,,,,,SPECI,20.0
LTAU 052220Z 00000KT 9999 BKN035 BKN080 10/08 Q1011 NOSIG RMK RWY07 20005KT 170V230,LTAU,2020-05-05T22:20:00Z,38.77,35.47,10.0,8.0,0,0,,6.21,29.852362,,,,,,TRUE,,,,,BKN,3500,BKN,8000,,,,,VFR,,,0.5,,,,,,,,,SPECI,1054.0
LTAT 052220Z 14005KT CAVOK 12/08 Q1008 NOSIG RMK RWY03 11008KT,LTAT,2020-05-05T22:20:00Z,38.42,38.07,12.0,8.0,140,5,,6.21,29.763779,,,,,,TRUE,,,,,CAVOK,,,,,,,,VFR,,-0.8,,,,,,,,,,SPECI,849.0
LTBJ 052220Z VRB01KT CAVOK 13/11 Q1014 NOSIG RMK RWY16 VRB02KT,LTBJ,2020-05-05T22:20:00Z,38.28,27.15,13.0,11.0,0,1,,6.21,29.940945,,,,,,TRUE,,,,,CAVOK,,,,,,,,VFR,,,,,,,,,,,,SPECI,120.0
LTBA 052220Z 09003KT 6000 NSC 13/12 Q1013 NOSIG RMK RWY17L VRB02KT RWY05 12003KT RWY23 12003KT,LTBA,2020-05-05T22:20:00Z,40.97,28.82,13.0,12.0,90,3,,3.73,29.911417,,,,,,TRUE,,,,,CLR,,,,,,,,MVFR,,,,,,,,,,,,SPECI,37.0
LATI 052220Z 18004KT 9999 BKN096 14/09 Q1016 NOSIG,LATI,2020-05-05T22:20:00Z,41.42,19.72,14.0,9.0,180,4,,6.21,30.0,,,,,,TRUE,,,,,BKN,9600,,,,,,,VFR,,,,,,,,,,,,METAR,90.0
LTCJ 052220Z 27006KT 200V310 9999 -SHRA FEW030CB BKN035 16/11 Q1007 RMK RWY20 22006KT 190V270,LTCJ,2020-05-05T22:20:00Z,37.93,41.12,16.0,11.0,270,6,,6.21,29.734253,,,,,,,,,,-SHRA,FEW,3000,BKN,3500,,,,,VFR,,,,,,,,,,,,SPECI,540.0
LTBR 052220Z 00000KT CAVOK 08/07 Q1014 NOSIG RMK RWY07 00000KT,LTBR,2020-05-05T22:20:00Z,40.25,29.57,8.0,7.0,0,0,,6.21,29.940945,,,,,,TRUE,,,,,CAVOK,,,,,,,,VFR,,,,,,,,,,,,SPECI,232.0
LTFE 052220Z 11003KT CAVOK 13/12 Q1014 NOSIG RMK RWY10 11004KT 040V120,LTFE,2020-05-05T22:20:00Z,37.25,27.67,13.0,12.0,110,3,,6.21,29.940945,,,,,,TRUE,,,,,CAVOK,,,,,,,,VFR,,-0.4,,,,,,,,,,SPECI,6.0
LTFC 052220Z 33006KT 9999 FEW035 10/06 Q1015 RMK RWY23 VRB01KT,LTFC,2020-05-05T22:20:00Z,37.87,30.38,10.0,6.0,330,6,,6.21,29.970472,,,,,,,,,,,FEW,3500,,,,,,,VFR,,,,,,,,,,,,SPECI,864.0
EYKA 052220Z AUTO 34006KT 290V020 9999 -RA OVC035/// 09/07 Q1009,EYKA,2020-05-05T22:20:00Z,54.97,24.08,9.0,7.0,340,6,,6.21,29.793306,,,TRUE,,,,,,,-RA,OVC,3500,,,,,,,VFR,,,,,,,,,,,,METAR,77.0
EKSP 052220Z 30002KT CAVOK 04/00 Q1023 RMK FEW230,EKSP,2020-05-05T22:20:00Z,55.22,9.27,4.0,0.0,300,2,,6.21,30.206694,,,,,,,,,,,CAVOK,,,,,,,,VFR,,,,,,,,,,,,METAR,40.0
KWBF 052220Z AUTO 00000KT 8SM FEW024 29/22 A2995 RMK A01,KWBF,2020-05-05T22:20:00Z,26.93,-90.5,29.0,22.0,0,0,,8.0,29.949802,,,TRUE,TRUE,,,,,,,FEW,2400,,,,,,,VFR,,,,,,,,,,,,SPECI,10.0
KHHV 052220Z AUTO 10009KT 10SM CLR 30/24 A2992 RMK A01,KHHV,2020-05-05T22:20:00Z,26.93,-94.68,30.0,24.0,100,9,,10.0,29.920275,,,TRUE,TRUE,,,,,,,CLR,,,,,,,,VFR,,,,,,,,,,,,SPECI,25.0
KHQI 052220Z AUTO 14005KT 9SM CLR 26/24 A2993 RMK A01,KHQI,2020-05-05T22:20:00Z,27.93,-93.67,26.0,24.0,140,5,,9.0,29.929134,,,TRUE,TRUE,,,,,,,CLR,,,,,,,,VFR,,,,,,,,,,,,SPECI,26.0
EFOU 052220Z AUTO 22007KT CAVOK 05/M03 Q1010,EFOU,2020-05-05T22:20:00Z,64.92,25.37,5.0,-3.0,220,7,,6.21,29.822834,,,TRUE,,,,,,,,CAVOK,,,,,,,,VFR,,,,,,,,,,,,METAR,15.0
EFVA 052220Z AUTO 21006KT CAVOK 04/M01 Q1013,EFVA,2020-05-05T22:20:00Z,63.03,21.77,4.0,-1.0,210,6,,6.21,29.911417,,,TRUE,,,,,,,,CAVOK,,,,,,,,VFR,,,,,,,,,,,,METAR,4.0
EFTU 052220Z AUTO VRB01KT CAVOK 04/M04 Q1015,EFTU,2020-05-05T22:20:00Z,60.52,22.27,4.0,-4.0,0,1,,6.21,29.970472,,,TRUE,,,,,,,,CAVOK,,,,,,,,VFR,,,,,,,,,,,,METAR,59.0
EFTP 052220Z AUTO 33004KT CAVOK 06/M04 Q1014,EFTP,2020-05-05T22:20:00Z,61.42,23.62,6.0,-4.0,330,4,,6.21,29.940945,,,TRUE,,,,,,,,CAVOK,,,,,,,,VFR,,,,,,,,,,,,METAR,112.0
EFHK 052220Z VRB01KT CAVOK 03/01 Q1013 NOSIG,EFHK,2020-05-05T22:20:00Z,60.32,24.97,3.0,1.0,0,1,,6.21,29.911417,,,,,,TRUE,,,,,CAVOK,,,,,,,,VFR,,,,,,,,,,,,METAR,56.0
KDZB 052220Z AUTO 05006KT 10SM SCT041 OVC049 25/12 A3004 RMK AO2,KDZB,2020-05-05T22:20:00Z,30.53,-98.37,25.0,12.0,50,6,,10.0,30.041338,,,TRUE,TRUE,,,,,,,SCT,4100,OVC,4900,,,,,VFR,,,,,,,,,,,,SPECI,334.0
ESNX 052220Z AUTO 20010KT 9999 FEW057/// 03/M03 Q1005,ESNX,2020-05-05T22:20:00Z,65.58,19.28,3.0,-3.0,200,10,,6.21,29.675198,,,TRUE,,,,,,,,FEW,5700,,,,,,,VFR,,,,,,,,,,,,METAR,379.0
ESUT 052220Z AUTO VRB05KT 9999 DZ FEW010/// SCT012/// BKN028/// 02/M00 Q1004 RESHUP RESN,ESUT,2020-05-05T22:20:00Z,65.8,15.08,2.0,0.0,0,5,,6.21,29.64567,,,TRUE,,,,,,,DZ SN,FEW,1000,SCT,1200,BKN,2800,,,MVFR,,,,,,,,,,,,METAR,463.0
LSZB 052220Z AUTO 31004KT 3900 BR OVC003 OVC005 12/12 Q1018,LSZB,2020-05-05T22:20:00Z,46.92,7.5,12.0,12.0,310,4,,2.42,30.059055,,,TRUE,,,,,,,BR,OVC,300,OVC,500,,,,,LIFR,,,,,,,,,,,,METAR,505.0
LSGG 052220Z AUTO VRB02KT 9999 FEW095 12/12 Q1017 NOSIG,LSGG,2020-05-05T22:20:00Z,46.25,6.12,12.0,12.0,0,2,,6.21,30.029528,,,TRUE,,,TRUE,,,,,FEW,9500,,,,,,,VFR,,,,,,,,,,,,METAR,416.0
LSZH 052220Z 29004KT 270V340 6000 -RADZ FEW003 BKN027 09/09 Q1019 NOSIG,LSZH,2020-05-05T22:20:00Z,47.48,8.53,9.0,9.0,290,4,,3.73,30.088583,,,,,,TRUE,,,,-RA -DZ,FEW,300,BKN,2700,,,,,MVFR,,,,,,,,,,,,METAR,432.0
LSZA 052220Z AUTO VRB01KT CAVOK 13/12 Q1013,LSZA,2020-05-05T22:20:00Z,46.0,8.92,13.0,12.0,0,1,,6.21,29.911417,,,TRUE,,,,,,,,CAVOK,,,,,,,,VFR,,,,,,,,,,,,METAR,276.0
KMKN 052220Z AUTO 04011G17KT 10SM CLR 26/06 A3010 RMK AO2,KMKN,2020-05-05T22:20:00Z,31.92,-98.6,26.0,6.0,40,11,17,10.0,30.100393,,,TRUE,TRUE,,,,,,,CLR,,,,,,,,VFR,,,,,,,,,,,,SPECI,423.0
EGPI 052220Z AUTO 11005KT 9999 NCD 05/02 Q1025,EGPI,2020-05-05T22:20:00Z,55.68,-6.25,5.0,2.0,110,5,,6.21,30.265747,,,TRUE,,,,,,,,CLR,,,,,,,,VFR,,,,,,,,,,,,METAR,18.0
KMTK 052220Z AUTO 25005KT 10SM CLR 25/19 A2994 RMK A01,KMTK,2020-05-05T22:20:00Z,,,25.0,19.0,250,5,,10.0,29.940945,,,TRUE,TRUE,,,,,,,CLR,,,,,,,,VFR,,,,,,,,,,,,METAR,
LSGS 052220Z AUTO VRB02KT 9999 BKN085 14/11 Q1017,LSGS,2020-05-05T22:20:00Z,46.22,7.32,14.0,11.0,0,2,,6.21,30.029528,,,TRUE,,,,,,,,BKN,8500,,,,,,,VFR,,,,,,,,,,,,METAR,481.0
LSGC 052220Z AUTO 26002KT 9999 FEW027 SCT035 BKN041 10/10 Q1019,LSGC,2020-05-05T22:20:00Z,47.08,6.8,10.0,10.0,260,2,,6.21,30.088583,,,TRUE,,,,,,,,FEW,2700,SCT,3500,BKN,4100,,,VFR,,,,,,,,,,,,METAR,1027.0
EVLA 052220Z AUTO VRB02KT 9999 FEW220/// 08/04 Q1013,EVLA,2020-05-05T22:20:00Z,56.52,21.1,8.0,4.0,0,2,,6.21,29.911417,,,TRUE,,,,,,,,FEW,22000,,,,,,,VFR,,,,,,,,,,,,METAR,4.0
EVVA 052220Z AUTO 36011KT CAVOK 08/07 Q1014,EVVA,2020-05-05T22:20:00Z,57.35,21.55,8.0,7.0,360,11,,6.21,29.940945,,,TRUE,,,,,,,,CAVOK,,,,,,,,VFR,,,,,,,,,,,,METAR,6.0
EKKA 052220Z AUTO 23004KT 9999 NCD 04/01 Q1023,EKKA,2020-05-05T22:20:00Z,56.3,9.12,4.0,1.0,230,4,,6.21,30.206694,,,TRUE,,,,,,,,CLR,,,,,,,,VFR,,,,,,,,,,,,METAR,52.0
EYVI 052220Z 35008KT 9999 -RA OVC005 09/08 Q1007 BECMG OVC005,EYVI,2020-05-05T22:20:00Z,54.63,25.28,9.0,8.0,350,8,,6.21,29.734253,,,,,,,,,,-RA,OVC,500,,,,,,,IFR,,,,,,,,,,,,METAR,197.0
PKWA 052220Z AUTO 06015KT 10SM SCT017 SCT025 BKN046 29/26 A2988 RMK AO2 T02920262,PKWA,2020-05-05T22:20:00Z,8.72,167.72,29.2,26.2,60,15,,10.0,29.878937,,,TRUE,TRUE,,,,,,,SCT,1700,SCT,2500,BKN,4600,,,VFR,,,,,,,,,,,,METAR,8.0
EYPA 052220Z AUTO 36004KT 5000 BKN120/// 09/05 Q1013,EYPA,2020-05-05T22:20:00Z,55.97,21.08,9.0,5.0,360,4,,3.11,29.911417,,,TRUE,,,,,,,,BKN,12000,,,,,,,MVFR,,,,,,,,,,,,METAR,10.0
ENAN 052220Z AUTO 23019KT 9999 FEW021/// SCT027/// BKN036/// 03/01 Q0996 RERA,ENAN,2020-05-05T22:20:00Z,69.28,16.13,3.0,1.0,230,19,,6.21,29.409449,,,TRUE,,,,,,,,FEW,2100,SCT,2700,BKN,3600,,,VFR,,,,,,,,,,,,METAR,14.0
ESNL 052220Z AUTO 22007KT 180V270 9999 FEW100/// 05/M04 Q1008,ESNL,2020-05-05T22:20:00Z,64.55,18.72,5.0,-4.0,220,7,,6.21,29.763779,,,TRUE,,,,,,,,FEW,10000,,,,,,,VFR,,,,,,,,,,,,METAR,214.0
EGPU 052220Z AUTO 04006KT 9999 NCD 06/04 Q1025,EGPU,2020-05-05T22:20:00Z,56.5,-6.87,6.0,4.0,40,6,,6.21,30.265747,,,TRUE,,,,,,,,CLR,,,,,,,,VFR,,,,,,,,,,,,METAR,12.0
KOFF 052219Z AUTO 01019G29KT 10SM SCT042 16/06 A3007 RMK AO2 WSHFT 09 SLP188,KOFF,2020-05-05T22:19:00Z,41.12,-95.92,16.0,6.0,10,19,29,10.0,30.070866,1018.8,,TRUE,TRUE,,,,,,,SCT,4200,,,,,,,VFR,,,,,,,,,,,,SPECI,319.0
KDYS 052219Z AUTO 07012G19KT 10SM CLR 26/02 A3010 RMK AO2 WSHFT 12 SLP153,KDYS,2020-05-05T22:19:00Z,32.42,-99.83,26.0,2.0,70,12,19,10.0,30.100393,1015.3,,TRUE,TRUE,,,,,,,CLR,,,,,,,,VFR,,,,,,,,,,,,SPECI,545.0
KAMW 052219Z AUTO 36009KT 10SM BKN018 OVC025 08/06 A3002 RMK AO2 RAE06 P0000 T00830061,KAMW,2020-05-05T22:19:00Z,41.98,-93.62,8.3,6.1,360,9,,10.0,30.02067,,,TRUE,TRUE,,,,,,,BKN,1800,OVC,2500,,,,,MVFR,,,,,,0.005,,,,,,SPECI,279.0
KAPC 052219Z 28016G21KT 10SM CLR 24/12 A3010 RMK AO2 WSHFT 2159 T02440117,KAPC,2020-05-05T22:19:00Z,38.2,-122.28,24.4,11.7,280,16,21,10.0,30.100393,,,,TRUE,,,,,,,CLR,,,,,,,,VFR,,,,,,,,,,,,SPECI,13.0
RJNG 052219Z 14004KT 030V200 3000 R28/0900VP1800D TSRA BR FEW010 BKN030CB 16/15 Q1011 RMK 1ST010 7CB030 A2987 R1500 VIS W-NW 5KM FBL TS OHD,RJNG,2020-05-05T22:19:00Z,35.37,136.87,16.0,15.0,140,4,,1.86,29.852362,,,,,,,,,,TSRA BR,FEW,1000,BKN,3000,,,,,IFR,,,,,,,,,,,,SPECI,42.0
CYMH 052219Z AUTO 02018G33KT 1/4SM +SN OVC007 M00/M01 A2973 RMK SLP069,CYMH,2020-05-05T22:19:00Z,52.28,-55.85,0.0,-1.0,20,18,33,0.25,29.731298,1006.9,,TRUE,,,,,,,+SN,OVC,700,,,,,,,LIFR,,,,,,,,,,,,SPECI,11.0
CZCP 052219Z AUTO 10019KT ////SM //// FEW004 BKN017 BKN023 M08/M10 A3017,CZCP,2020-05-05T22:19:00Z,70.17,-124.72,-8.0,-10.0,100,19,,,30.171259,,,TRUE,,,,,,,,FEW,400,BKN,1700,BKN,2300,,,,,,,,,,,,,,,SPECI,93.0
UTO8 M M M 240/-16/-17/2715/M/ PK WND 2719 2154Z SOG 16 6006 71MM,UTO8,2020-05-05T22:19:00Z,,,,,,,,3.73,,,,,,,,,,,,,,,,,,,,,,,,,,,,,,,,METAR,
CYCK 052218Z AUTO 01013KT 9SM BKN150 09/M01 A2991 RMK WSHFT AT 2207Z SLP136,CYCK,2020-05-05T22:18:00Z,42.3,-82.08,9.0,-1.0,10,13,,9.0,29.911417,1013.6,,TRUE,,,,,,,,BKN,15000,,,,,,,VFR,,,,,,,,,,,,SPECI,198.0
CYVM 052218Z AUTO 35005KT 9SM OVC010 M09/M10 A3012 RMK SLP202,CYVM,2020-05-05T22:18:00Z,67.53,-64.02,-9.0,-10.0,350,5,,9.0,30.121063,1020.2,,TRUE,,,,,,,,OVC,1000,,,,,,,MVFR,,,,,,,,,,,,SPECI,6.0
KEKY 052218Z AUTO 25007KT 10SM BKN018 23/20 A2989 RMK AO2,KEKY,2020-05-05T22:18:00Z,33.32,-86.93,23.0,20.0,250,7,,10.0,29.890747,,,TRUE,TRUE,,,,,,,BKN,1800,,,,,,,MVFR,,,,,,,,,,,,SPECI,213.0
KBRL 052218Z AUTO 03004KT 4SM -RA BR SCT005 BKN031 OVC050 08/07 A2994 RMK AO2 RAB2154 P0001 T00830072,KBRL,2020-05-05T22:18:00Z,40.77,-91.13,8.3,7.2,30,4,,4.0,29.940945,,,TRUE,TRUE,,,,,,-RA BR,SCT,500,BKN,3100,OVC,5000,,,MVFR,,,,,,0.01,,,,,,SPECI,211.0
KOTM 052218Z AUTO 06010KT 7SM -RA OVC005 08/07 A2994 RMK AO2 P0002 T00780067,KOTM,2020-05-05T22:18:00Z,41.1,-92.45,7.8,6.7,60,10,,7.0,29.940945,,,TRUE,TRUE,,,,,,-RA,OVC,500,,,,,,,IFR,,,,,,0.02,,,,,,SPECI,256.0
RORS 052217Z 24009KT 190V270 9999 -SHRA FEW004 SCT007 BKN030 26/26 Q1007 RMK 1ST004 3ST007 6CU030 A2976,RORS,2020-05-05T22:17:00Z,24.82,125.15,26.0,26.0,240,9,,6.21,29.734253,,,,,,,,,,-SHRA,FEW,400,SCT,700,BKN,3000,,,MVFR,,,,,,,,,,,,SPECI,16.0
CYHZ 052217Z 34020G26KT 8SM -SHSN OVC012 02/01 A2954 RMK SC8 CVCTV CLD EMBD SLP009,CYHZ,2020-05-05T22:17:00Z,44.87,-63.5,2.0,1.0,340,20,26,8.0,29.53937,1000.9,,,,,,,,,-SHSN,OVC,1200,,,,,,,MVFR,,,,,,,,,,,,SPECI,145.0
CYYG 052217Z 34013G26KT 1 1/2SM -SN BR OVC005 01/00 A2955 RMK ST8 SLP011,CYYG,2020-05-05T22:17:00Z,46.27,-63.12,1.0,0.0,340,13,26,1.5,29.551182,1001.1,,,,,,,,,-SN BR,OVC,500,,,,,,,IFR,,,,,,,,,,,,SPECI,54.0
KLBX 052217Z AUTO 17014KT 10SM SCT026 SCT033 31/23 A2990 RMK AO2 T03060233,KLBX,2020-05-05T22:17:00Z,29.12,-95.47,30.6,23.3,170,14,,10.0,29.899607,,,TRUE,TRUE,,,,,,,SCT,2600,SCT,3300,,,,,VFR,,,,,,,,,,,,SPECI,6.0
PHNY 052217Z AUTO VRB03KT 10SM BKN028 OVC037 23/18 A3011 RMK AO2,PHNY,2020-05-05T22:17:00Z,20.77,-156.93,23.0,18.0,0,3,,10.0,30.109253,,,TRUE,TRUE,,,,,,,BKN,2800,OVC,3700,,,,,MVFR,,,,,,,,,,,,SPECI,399.0
RJOS 052216Z 36004KT 3500 BR FEW003 BKN008 BKN012 19/17 Q1010 RMK 1ST003 5ST008 7CU012 A2984 8000W-NW,RJOS,2020-05-05T22:16:00Z,34.12,134.62,19.0,17.0,360,4,,2.17,29.822834,,,,,,,,,,BR,FEW,300,BKN,800,BKN,1200,,,IFR,,,,,,,,,,,,SPECI,11.0
RODN 052216Z 23009KT 9SM -DZ SCT010 BKN024 OVC032 24/24 A2973 RMK AO2A TWR VIS 3 RAE02DZB02 CIG 010V032 BKN V SCT CIG 022 RWY05 SLP073 $,RODN,2020-05-05T22:16:00Z,26.35,127.77,24.0,24.0,230,9,,9.0,29.731298,1007.3,,,TRUE,TRUE,,,,,-DZ,SCT,1000,BKN,2400,OVC,3200,,,MVFR,,,,,,,,,,,,METAR,45.0
KVWU 052216Z AUTO 27007KT 10SM CLR 12/03 A3008 RMK AO2,KVWU,2020-05-05T22:16:00Z,48.15,-94.52,12.0,3.0,270,7,,10.0,30.079725,,,TRUE,TRUE,,,,,,,CLR,,,,,,,,VFR,,,,,,,,,,,,SPECI,360.0
RJFF 052216Z 31004KT 230V040 9000 FEW005 SCT010 BKN030 18/16 Q1011 RMK 1ST005 3ST010 6CU030 A2985,RJFF,2020-05-05T22:16:00Z,33.57,130.43,18.0,16.0,310,4,,5.59,29.852362,,,,,,,,,,,FEW,500,SCT,1000,BKN,3000,,,MVFR,,,,,,,,,,,,METAR,12.0
KIMS 052216Z AUTO 33004KT 5SM OVC011 07/07 A2989 RMK AO1,KIMS,2020-05-05T22:16:00Z,38.75,-85.47,7.0,7.0,330,4,,5.0,29.890747,,,TRUE,TRUE,,,,,,,OVC,1100,,,,,,,MVFR,,,,,,,,,,,,SPECI,250.0
K40B 052216Z AUTO 33007G13KT 260V030 05/M02 A2982 RMK AO1 SLP111 T00551025 53016,K40B,2020-05-05T22:16:00Z,46.62,-69.52,5.5,-2.5,330,7,13,,29.819881,1011.1,,TRUE,TRUE,,,,,,,,,,,,,,,,1.6,,,,,,,,,,,SPECI,314.0
KACQ 052216Z AUTO 04003KT 10SM OVC060 11/01 A3007 RMK AO2,KACQ,2020-05-05T22:16:00Z,44.07,-93.55,11.0,1.0,40,3,,10.0,30.070866,,,TRUE,TRUE,,,,,,,OVC,6000,,,,,,,VFR,,,,,,,,,,,,SPECI,343.0
KCUL 052216Z AUTO 36012G16KT 10SM SCT022 BKN030 BKN036 14/11 A2992 RMK AO2,KCUL,2020-05-05T22:16:00Z,38.08,-88.12,14.0,11.0,360,12,16,10.0,29.920275,,,TRUE,TRUE,,,,,,,SCT,2200,BKN,3000,BKN,3600,,,MVFR,,,,,,,,,,,,METAR,118.0
KHZR 052216Z AUTO 33005KT 10SM CLR 30/19 A2990 RMK AO2,KHZR,2020-05-05T22:16:00Z,30.72,-91.48,30.0,19.0,330,5,,10.0,29.899607,,,TRUE,TRUE,,,,,,,CLR,,,,,,,,VFR,,,,,,,,,,,,SPECI,12.0
KJES 052216Z AUTO 28006KT 10SM CLR 32/16 A2983 RMK AO2,KJES,2020-05-05T22:16:00Z,31.55,-81.88,32.0,16.0,280,6,,10.0,29.828741,,,TRUE,TRUE,,,,,,,CLR,,,,,,,,VFR,,,,,,,,,,,,SPECI,33.0
KBWG 052216Z AUTO VRB05G18KT 10SM SCT028 BKN035 OVC050 18/15 A2987 RMK AO2 T01830150,KBWG,2020-05-05T22:16:00Z,36.97,-86.42,18.3,15.0,0,5,18,10.0,29.870079,,,TRUE,TRUE,,,,,,,SCT,2800,BKN,3500,OVC,5000,,,VFR,,,,,,,,,,,,SPECI,168.0
KAEL 052216Z AUTO 03007KT 10SM OVC050 09/05 A3005 RMK AO2,KAEL,2020-05-05T22:16:00Z,43.68,-93.37,9.0,5.0,30,7,,10.0,30.050198,,,TRUE,TRUE,,,,,,,OVC,5000,,,,,,,VFR,,,,,,,,,,,,SPECI,383.0
KMMH 052216Z AUTO 23011G18KT 10SM CLR 22/M11 A3026 RMK AO2,KMMH,2020-05-05T22:16:00Z,37.62,-118.82,22.0,-11.0,230,11,18,10.0,30.259842,,,TRUE,TRUE,,,,,,,CLR,,,,,,,,VFR,,,,,,,,,,,,SPECI,2173.0
KI19 052216Z AUTO 03007KT 330V050 10SM OVC043 10/00 A2984 RMK AO2 T01000002,KI19,2020-05-05T22:16:00Z,39.7,-83.98,10.0,0.2,30,7,,10.0,29.840551,,,TRUE,TRUE,,,,,,,OVC,4300,,,,,,,VFR,,,,,,,,,,,,SPECI,289.0
KLHZ 052215Z AUTO 06007KT 10SM SCT040 SCT049 17/11 A2985 RMK AO2,KLHZ,2020-05-05T22:15:00Z,36.02,-78.33,17.0,11.0,60,7,,10.0,29.84941,,,TRUE,TRUE,,,,,,,SCT,4000,SCT,4900,,,,,VFR,,,,,,,,,,,,SPECI,113.0
KACJ 052215Z AUTO 25011KT 10SM SCT055 31/14 A2987 RMK AO2,KACJ,2020-05-05T22:15:00Z,32.12,-84.18,31.0,14.0,250,11,,10.0,29.870079,,,TRUE,TRUE,,,,,,,SCT,5500,,,,,,,VFR,,,,,,,,,,,,SPECI,143.0
KRBW 052215Z AUTO 27010G14KT 10SM CLR 30/13 A2979 RMK AO2,KRBW,2020-05-05T22:15:00Z,32.92,-80.63,30.0,13.0,270,10,14,10.0,29.790354,,,TRUE,TRUE,,,,,,,CLR,,,,,,,,VFR,,,,,,,,,,,,SPECI,31.0
KRAS 052215Z AUTO 11008KT 10SM OVC007 28/25 A2992 RMK AO2 T02790249,KRAS,2020-05-05T22:15:00Z,27.82,-97.08,27.9,24.9,110,8,,10.0,29.920275,,,TRUE,TRUE,,,,,,,OVC,700,,,,,,,IFR,,,,,,,,,,,,SPECI,2.0
K1F0 052215Z AUTO 04009KT CLR 23/01 A3010 RMK AO2 PWINO,K1F0,2020-05-05T22:15:00Z,34.15,-97.12,23.0,1.0,40,9,,,30.100393,,,TRUE,TRUE,,,,,TRUE,,CLR,,,,,,,,,,,,,,,,,,,,METAR,257.0
K1A9 052215Z AUTO 24006KT 10SM OVC048 27/18 A2985 RMK AO2 T02740180,K1A9,2020-05-05T22:15:00Z,32.43,-86.52,27.4,18.0,240,6,,10.0,29.84941,,,TRUE,TRUE,,,,,,,OVC,4800,,,,,,,VFR,,,,,,,,,,,,METAR,69.0
K4F2 052215Z AUTO 01008KT 10SM SCT100 26/17 A2999 RMK AO2 T02640167,K4F2,2020-05-05T22:15:00Z,32.18,-94.3,26.4,16.7,10,8,,10.0,29.991142,,,TRUE,TRUE,,,,,,,SCT,10000,,,,,,,VFR,,,,,,,,,,,,METAR,76.0
K49A 052215Z AUTO 30005G19KT 4SM -RA BKN006 BKN037 OVC050 19/18 A2987 RMK AO2 T01940177,K49A,2020-05-05T22:15:00Z,34.63,-84.53,19.4,17.7,300,5,19,4.0,29.870079,,,TRUE,TRUE,,,,,,-RA,BKN,600,BKN,3700,OVC,5000,,,IFR,,,,,,,,,,,,SPECI,453.0
K3T5 052215Z AUTO 01008G14KT 10SM BKN095 27/20 A2996 RMK AO2 T02650195,K3T5,2020-05-05T22:15:00Z,29.9,-96.95,26.5,19.5,10,8,14,10.0,29.958662,,,TRUE,TRUE,,,,,,,BKN,9500,,,,,,,VFR,,,,,,,,,,,,SPECI,99.0
K3LF 052215Z AUTO 33011KT 10SM SCT026 BKN055 OVC065 14/09 A2992 RMK AO2 T01360087,K3LF,2020-05-05T22:15:00Z,39.17,-89.67,13.6,8.7,330,11,,10.0,29.920275,,,TRUE,TRUE,,,,,,,SCT,2600,BKN,5500,OVC,6500,,,VFR,,,,,,,,,,,,SPECI,210.0
K3D2 052215Z AUTO 36008KT 10SM CLR 08/M09 A3005 RMK AO2 T00751093,K3D2,2020-05-05T22:15:00Z,45.13,-87.18,7.5,-9.3,360,8,,10.0,30.050198,,,TRUE,TRUE,,,,,,,CLR,,,,,,,,VFR,,,,,,,,,,,,SPECI,234.0
K2R9 052215Z AUTO 01014KT 10SM SCT055 SCT065 SCT095 32/21 A2990 RMK AO2 T03210211,K2R9,2020-05-05T22:15:00Z,28.82,-97.87,32.1,21.1,10,14,,10.0,29.899607,,,TRUE,TRUE,,,,,,,SCT,5500,SCT,6500,SCT,9500,,,VFR,,,,,,,,,,,,SPECI,88.0
K2P2 052215Z AUTO 36007KT 10SM CLR 08/M06 A3006 RMK AO2 T00791060,K2P2,2020-05-05T22:15:00Z,45.38,-86.92,7.9,-6.0,360,7,,10.0,30.059055,,,TRUE,TRUE,,,,,,,CLR,,,,,,,,VFR,,,,,,,,,,,,SPECI,199.0
K2J5 052215Z AUTO 25008KT 220V280 10SM CLR 29/16 A2979 RMK AO2 T02950159,K2J5,2020-05-05T22:15:00Z,32.9,-81.97,29.5,15.9,250,8,,10.0,29.790354,,,TRUE,TRUE,,,,,,,CLR,,,,,,,,VFR,,,,,,,,,,,,SPECI,72.0
K2J3 052215Z AUTO 25009KT 10SM CLR 30/17 A2980 RMK AO2 T02970168,K2J3,2020-05-05T22:15:00Z,32.98,-82.38,29.7,16.8,250,9,,10.0,29.799213,,,TRUE,TRUE,,,,,,,CLR,,,,,,,,VFR,,,,,,,,,,,,SPECI,100.0
K2IS 052215Z AUTO 06010KT 10SM CLR A2991 RMK AO2,K2IS,2020-05-05T22:15:00Z,,,,,60,10,,10.0,29.911417,,,TRUE,TRUE,,,,,,,CLR,,,,,,,,VFR,,,,,,,,,,,,METAR,
K13K 052215Z AUTO 30017G23KT 10SM CLR 22/05 A3008 RMK AO2 T02220046,K13K,2020-05-05T22:15:00Z,37.85,-96.3,22.2,4.6,300,17,23,10.0,30.079725,,,TRUE,TRUE,,,,,,,CLR,,,,,,,,VFR,,,,,,,,,,,,SPECI,369.0
KFEP 052215Z AUTO 08011KT 10SM OVC050 08/05 A3001 RMK AO2 T00750051,KFEP,2020-05-05T22:15:00Z,42.25,-89.58,7.5,5.1,80,11,,10.0,30.008858,,,TRUE,TRUE,,,,,,,OVC,5000,,,,,,,VFR,,,,,,,,,,,,SPECI,262.0
KF44 052215Z AUTO 36010G15KT 10SM SCT095 26/11 A3001 RMK AO2,KF44,2020-05-05T22:15:00Z,32.17,-95.83,26.0,11.0,360,10,15,10.0,30.008858,,,TRUE,TRUE,,,,,,,SCT,9500,,,,,,,VFR,,,,,,,,,,,,SPECI,135.0
KF05 052215Z AUTO 06004KT 10SM CLR 26/00 A3013 RMK AO1 T02630003,KF05,2020-05-05T22:15:00Z,34.23,-99.28,26.3,0.3,60,4,,10.0,30.129921,,,TRUE,TRUE,,,,,,,CLR,,,,,,,,VFR,,,,,,,,,,,,SPECI,386.0
KF00 052215Z AUTO 36007G14KT 10SM CLR 25/09 A3008 RMK AO2 T02460086,KF00,2020-05-05T22:15:00Z,33.62,-96.18,24.6,8.6,360,7,14,10.0,30.079725,,,TRUE,TRUE,,,,,,,CLR,,,,,,,,VFR,,,,,,,,,,,,SPECI,188.0
KEZZ 052215Z AUTO 33027G34KT 10SM SCT070 18/04 A2999 RMK AO2 T01780042,KEZZ,2020-05-05T22:15:00Z,39.72,-94.28,17.8,4.2,330,27,34,10.0,29.991142,,,TRUE,TRUE,,,,,,,SCT,7000,,,,,,,VFR,,,,,,,,,,,,METAR,317.0
KENL 052215Z AUTO 31011G19KT 10SM SCT028 SCT035 16/11 A2991 RMK AO2 T01640107,KENL,2020-05-05T22:15:00Z,38.52,-89.1,16.4,10.7,310,11,19,10.0,29.911417,,,TRUE,TRUE,,,,,,,SCT,2800,SCT,3500,,,,,VFR,,,,,,,,,,,,SPECI,163.0
KECS 052215Z AUTO 33020G27KT 10SM BKN095 BKN120 13/M08 A3022 RMK AO2,KECS,2020-05-05T22:15:00Z,43.88,-104.32,13.0,-8.0,330,20,27,10.0,30.221457,,,TRUE,TRUE,,,,,,,BKN,9500,BKN,12000,,,,,VFR,,,,,,,,,,,,SPECI,1273.0
KDZJ 052215Z AUTO 00000KT 4SM +TSRA BR SCT005 BKN028 OVC050 17/16 A2987 RMK AO2 LTG DSNT ALQDS P0050 T01660161,KDZJ,2020-05-05T22:15:00Z,34.85,-84.0,16.6,16.1,0,0,,4.0,29.870079,,,TRUE,TRUE,,,,,,+TSRA BR,SCT,500,BKN,2800,OVC,5000,,,MVFR,,,,,,0.5,,,,,,METAR,582.0
KDUX 052215Z AUTO 20003KT 10SM CLR 22/M04 A3021 RMK AO2 T02151039,KDUX,2020-05-05T22:15:00Z,35.85,-102.02,21.5,-3.9,200,3,,10.0,30.209646,,,TRUE,TRUE,,,,,,,CLR,,,,,,,,VFR,,,,,,,,,,,,SPECI,1129.0
KDUC 052215Z AUTO 07004KT 10SM CLR 24/05 A3012 RMK AO2 T02390051,KDUC,2020-05-05T22:15:00Z,34.47,-97.97,23.9,5.1,70,4,,10.0,30.121063,,,TRUE,TRUE,,,,,,,CLR,,,,,,,,VFR,,,,,,,,,,,,METAR,339.0
KDQH 052215Z AUTO 27009KT 10SM CLR 31/17 A2987 RMK AO2 T03050168,KDQH,2020-05-05T22:15:00Z,31.48,-82.87,30.5,16.8,270,9,,10.0,29.870079,,,TRUE,TRUE,,,,,,,CLR,,,,,,,,VFR,,,,,,,,,,,,METAR,78.0
KDNV 052215Z AUTO 00000KT 10SM -RA OVC030 08/04 A2994 RMK AO2 P0001 T00820036,KDNV,2020-05-05T22:15:00Z,40.2,-87.6,8.2,3.6,0,0,,10.0,29.940945,,,TRUE,TRUE,,,,,,-RA,OVC,3000,,,,,,,MVFR,,,,,,0.01,,,,,,SPECI,212.0
KDKB 052215Z AUTO 03008KT 10SM -RA OVC048 07/05 A2999 RMK AO2 T00720049,KDKB,2020-05-05T22:15:00Z,41.93,-88.7,7.2,4.9,30,8,,10.0,29.991142,,,TRUE,TRUE,,,,,,-RA,OVC,4800,,,,,,,VFR,,,,,,,,,,,,SPECI,279.0
KCXU 052215Z AUTO 10SM SCT050 31/18 A2986 RMK AO1 T03100184,KCXU,2020-05-05T22:15:00Z,31.22,-84.23,31.0,18.4,,,,10.0,29.861221,,,TRUE,TRUE,,,,,,,SCT,5000,,,,,,,VFR,,,,,,,,,,,,METAR,53.0
KCXE 052215Z AUTO 00000KT 10SM OVC033 15/10 A2985 RMK AO1 T01500099,KCXE,2020-05-05T22:15:00Z,36.78,-78.5,15.0,9.9,0,0,,10.0,29.84941,,,TRUE,TRUE,,,,,,,OVC,3300,,,,,,,VFR,,,,,,,,,,,,METAR,153.0
KCWV 052215Z AUTO 27008KT 250V310 7SM CLR 31/17 A2982 RMK AO2 T03110166,KCWV,2020-05-05T22:15:00Z,32.2,-81.87,31.1,16.6,270,8,,7.0,29.819881,,,TRUE,TRUE,,,,,,,CLR,,,,,,,,VFR,,,,,,,,,,,,METAR,33.0
KSCD 052215Z AUTO 27008KT 10SM BKN040 OVC046 26/19 A2985 RMK AO2 T02580186,KSCD,2020-05-05T22:15:00Z,33.17,-86.3,25.8,18.6,270,8,,10.0,29.84941,,,TRUE,TRUE,,,,,,,BKN,4000,OVC,4600,,,,,VFR,,,,,,,,,,,,SPECI,173.0
KS52 052215Z AUTO 16013G18KT 10SM CLR 21/01 A3009 RMK AO2 T02150006,KS52,2020-05-05T22:15:00Z,48.38,-120.15,21.5,0.6,160,13,18,10.0,30.088583,,,TRUE,TRUE,,,,,,,CLR,,,,,,,,VFR,,,,,,,,,,,,METAR,520.0
KRZL 052215Z AUTO 03011KT 7SM -RA SCT014 BKN033 OVC039 06/04 A2995 RMK AO2,KRZL,2020-05-05T22:15:00Z,40.95,-87.18,6.0,4.0,30,11,,7.0,29.949802,,,TRUE,TRUE,,,,,,-RA,SCT,1400,BKN,3300,OVC,3900,,,VFR,,,,,,,,,,,,SPECI,213.0
KRYV 052215Z AUTO 07005KT 10SM SCT110 10/M02 A3000 RMK AO2 T01021018,KRYV,2020-05-05T22:15:00Z,43.17,-88.72,10.2,-1.8,70,5,,10.0,30.0,,,TRUE,TRUE,,,,,,,SCT,11000,,,,,,,VFR,,,,,,,,,,,,SPECI,254.0
KRSV 052215Z AUTO 04004KT 4SM BR OVC004 09/09 A2991 RMK AO2 T00870087,KRSV,2020-05-05T22:15:00Z,39.02,-87.65,8.7,8.7,40,4,,4.0,29.911417,,,TRUE,TRUE,,,,,,BR,OVC,400,,,,,,,LIFR,,,,,,,,,,,,SPECI,141.0
LMML 052215Z 18008KT 150V210 9000 BKN004 18/17 Q1018 NOSIG,LMML,2020-05-05T22:15:00Z,35.85,14.47,18.0,17.0,180,8,,5.59,30.059055,,,,,,TRUE,,,,,BKN,400,,,,,,,LIFR,,,,,,,,,,,,METAR,91.0
K54J 052215Z AUTO 17008KT 010V350 10SM SCT060 27/18 A2989 RMK AO2 T02720177,K54J,2020-05-05T22:15:00Z,30.73,-86.15,27.2,17.7,170,8,,10.0,29.890747,,,TRUE,TRUE,,,,,,,SCT,6000,,,,,,,VFR,,,,,,,,,,,,SPECI,88.0
KTVI 052215Z AUTO 23007KT 10SM SCT050 30/17 A2988 RMK AO2,KTVI,2020-05-05T22:15:00Z,30.9,-83.88,30.0,17.0,230,7,,10.0,29.878937,,,TRUE,TRUE,,,,,,,SCT,5000,,,,,,,VFR,,,,,,,,,,,,SPECI,80.0
KTQK 052215Z AUTO 33008KT 10SM CLR 23/M01 A3012 RMK AO1 T02331013,KTQK,2020-05-05T22:15:00Z,38.47,-100.88,23.3,-1.3,330,8,,10.0,30.121063,,,TRUE,TRUE,,,,,,,CLR,,,,,,,,VFR,,,,,,,,,,,,SPECI,904.0
KTQK 052215Z AUTO 33008KT 10SM CLR 23/M01 A3012 RMK AO1 T02331013,KTQK,2020-05-05T22:15:00Z,38.47,-100.88,23.3,-1.3,330,8,,10.0,30.121063,,,TRUE,TRUE,,,,,,,CLR,,,,,,,,VFR,,,,,,,,,,,,SPECI,904.0
KTOC 052215Z AUTO 26010G14KT 10SM BKN035 BKN043 OVC075 26/18 A2979 RMK AO2 T02610184,KTOC,2020-05-05T22:15:00Z,34.6,-83.3,26.1,18.4,260,10,14,10.0,29.790354,,,TRUE,TRUE,,,,,,,BKN,3500,BKN,4300,OVC,7500,,,VFR,,,,,,,,,,,,SPECI,304.0
KTMT 052215Z AUTO 26014G21KT 230V290 10SM CLR 26/M21 A3015 RMK AO2 T02621213,KTMT,2020-05-05T22:15:00Z,39.47,-117.2,26.2,-21.3,260,14,21,10.0,30.15059,,,TRUE,TRUE,,,,,,,CLR,,,,,,,,VFR,,,,,,,,,,,,METAR,1748.0
KTMK 052215Z AUTO 22007KT 10SM SCT009 SCT018 BKN046 18/11 A3010 RMK AO2,KTMK,2020-05-05T22:15:00Z,45.42,-123.82,18.0,11.0,220,7,,10.0,30.100393,,,TRUE,TRUE,,,,,,,SCT,900,SCT,1800,BKN,4600,,,VFR,,,,,,,,,,,,SPECI,11.0
KTIP 052215Z AUTO 01010KT 10SM -RA SCT010 BKN022 OVC032 07/06 A2994 RMK AO2 T00650063,KTIP,2020-05-05T22:15:00Z,40.28,-88.15,6.5,6.3,10,10,,10.0,29.940945,,,TRUE,TRUE,,,,,,-RA,SCT,1000,BKN,2200,OVC,3200,,,MVFR,,,,,,,,,,,,SPECI,225.0
KTIF 052215Z AUTO 34012G17KT 10SM BKN100 18/M02 A3014 RMK AO2 T01761018,KTIF,2020-05-05T22:15:00Z,41.97,-100.57,17.6,-1.8,340,12,17,10.0,30.138779,,,TRUE,TRUE,,,,,,,BKN,10000,,,,,,,VFR,,,,,,,,,,,,SPECI,892.0
KTFP 052215Z AUTO 13010KT 10SM BKN016 BKN022 30/25 A2989 RMK AO2 T03020253 PNO,KTFP,2020-05-05T22:15:00Z,27.92,-97.22,30.2,25.3,130,10,,10.0,29.890747,,,TRUE,TRUE,,,,,,,BKN,1600,BKN,2200,,,,,MVFR,,,,,,,,,,,,SPECI,6.0
K41U 052215Z AUTO 17006KT 10SM CLR 23/M10 A3023 RMK AO1 T02261099,K41U,2020-05-05T22:15:00Z,39.33,-111.6,22.6,-9.9,170,6,,10.0,30.230314,,,TRUE,TRUE,,,,,,,CLR,,,,,,,,VFR,,,,,,,,,,,,METAR,1676.0
KEBS 052215Z AUTO 01012KT 10SM FEW011 SCT017 BKN024 08/07 A3003 RMK AO2,KEBS,2020-05-05T22:15:00Z,42.42,-93.87,8.0,7.0,10,12,,10.0,30.029528,,,TRUE,TRUE,,,,,,,FEW,1100,SCT,1700,BKN,2400,,,MVFR,,,,,,,,,,,,SPECI,342.0
KBWD 052215Z AUTO 03010G18KT 10SM CLR 26/03 A3009 RMK AO1,KBWD,2020-05-05T22:15:00Z,31.8,-98.95,26.0,3.0,30,10,18,10.0,30.088583,,,TRUE,TRUE,,,,,,,CLR,,,,,,,,VFR,,,,,,,,,,,,SPECI,423.0
KFGX 052215Z AUTO 34009KT 4SM BR BKN004 OVC009 08/08 A2983 RMK AO2 T00840084,KFGX,2020-05-05T22:15:00Z,38.55,-83.75,8.4,8.4,340,9,,4.0,29.828741,,,TRUE,TRUE,,,,,,BR,BKN,400,OVC,900,,,,,LIFR,,,,,,,,,,,,SPECI,278.0
KHYW 052215Z AUTO 15005KT 10SM CLR 23/19 A2979 RMK AO2,KHYW,2020-05-05T22:15:00Z,33.83,-79.12,23.0,19.0,150,5,,10.0,29.790354,,,TRUE,TRUE,,,,,,,CLR,,,,,,,,VFR,,,,,,,,,,,,SPECI,11.0
KMBT 052215Z AUTO 28009G16KT 10SM FEW035 BKN045 21/12 A2985 RMK A01,KMBT,2020-05-05T22:15:00Z,35.88,-86.38,21.0,12.0,280,9,16,10.0,29.84941,,,TRUE,TRUE,,,,,,,FEW,3500,BKN,4500,,,,,VFR,,,,,,,,,,,,SPECI,188.0
KM91 052215Z AUTO 31014G22KT 10SM SCT035 BKN042 BKN047 18/11 A2987 RMK A01,KM91,2020-05-05T22:15:00Z,36.53,-86.92,18.0,11.0,310,14,22,10.0,29.870079,,,TRUE,TRUE,,,,,,,SCT,3500,BKN,4200,BKN,4700,,,VFR,,,,,,,,,,,,SPECI,215.0
KCXW 052215Z AUTO 26010KT 10SM CLR 22/12 A2998 RMK A01,KCXW,2020-05-05T22:15:00Z,35.02,-92.55,22.0,12.0,260,10,,10.0,29.97933,,,TRUE,TRUE,,,,,,,CLR,,,,,,,,VFR,,,,,,,,,,,,SPECI,84.0
KAJR 052215Z AUTO 27010KT 10SM SCT033 BKN055 OVC065 24/19 A2982 RMK AO2 LTG DSNT S THRU NW T02350185,KAJR,2020-05-05T22:15:00Z,34.5,-83.55,23.5,18.5,270,10,,10.0,29.819881,,,TRUE,TRUE,,,,,,,SCT,3300,BKN,5500,OVC,6500,,,VFR,,,,,,,,,,,,SPECI,441.0
KAIG 052215Z AUTO 00000KT 10SM CLR 11/M06 A3002 RMK AO2 T01111061,KAIG,2020-05-05T22:15:00Z,45.15,-89.12,11.1,-6.1,0,0,,10.0,30.02067,,,TRUE,TRUE,,,,,,,CLR,,,,,,,,VFR,,,,,,,,,,,,SPECI,464.0
KO54 052215Z AUTO 31011G17KT 290V350 10SM SCT110 24/00 A3007 RMK AO1,KO54,2020-05-05T22:15:00Z,40.75,-122.92,24.0,0.0,310,11,17,10.0,30.070866,,,TRUE,TRUE,,,,,,,SCT,11000,,,,,,,VFR,,,,,,,,,,,,SPECI,717.0
KVUJ 052215Z AUTO 34003KT 10SM BKN028 OVC035 20/17 A2984 RMK AO2 LTG DSNT W T02030166,KVUJ,2020-05-05T22:15:00Z,35.42,-80.15,20.3,16.6,340,3,,10.0,29.840551,,,TRUE,TRUE,,,,,,,BKN,2800,OVC,3500,,,,,MVFR,,,,,,,,,,,,SPECI,186.0
K5R8 052215Z AUTO 28005KT 10SM SCT046 BKN060 BKN090 31/20 A2991 RMK AO2 T03070203,K5R8,2020-05-05T22:15:00Z,30.43,-93.47,30.7,20.3,280,5,,10.0,29.911417,,,TRUE,TRUE,,,,,,,SCT,4600,BKN,6000,BKN,9000,,,VFR,,,,,,,,,,,,SPECI,24.0
K8B0 052215Z AUTO 32011G18KT 10SM BKN020 OVC027 03/00 A2984 RMK AO2,K8B0,2020-05-05T22:15:00Z,,,3.0,0.0,320,11,18,10.0,29.840551,,,TRUE,TRUE,,,,,,,BKN,2000,OVC,2700,,,,,MVFR,,,,,,,,,,,,SPECI,
KANW 052215Z AUTO 02015G21KT 10SM OVC090 17/02 A3014 RMK AO2 T01650023,KANW,2020-05-05T22:15:00Z,42.57,-100.0,16.5,2.3,20,15,21,10.0,30.138779,,,TRUE,TRUE,,,,,,,OVC,9000,,,,,,,VFR,,,,,,,,,,,,SPECI,789.0
KALX 052215Z AUTO 23008KT 10SM SCT043 27/18 A2986 RMK AO2 LTG DSNT NE T02710178,KALX,2020-05-05T22:15:00Z,32.92,-85.97,27.1,17.8,230,8,,10.0,29.861221,,,TRUE,TRUE,,,,,,,SCT,4300,,,,,,,VFR,,,,,,,,,,,,SPECI,198.0
KAPY 052215Z AUTO 05012G17KT 10SM CLR 39/17 A2980 RMK AO2 T03920174,KAPY,2020-05-05T22:15:00Z,26.97,-99.25,39.2,17.4,50,12,17,10.0,29.799213,,,TRUE,TRUE,,,,,,,CLR,,,,,,,,VFR,,,,,,,,,,,,SPECI,129.0
KAQR 052215Z AUTO 01005KT 10SM CLR 21/06 A3009 RMK AO2 T02120057,KAQR,2020-05-05T22:15:00Z,34.4,-96.15,21.2,5.7,10,5,,10.0,30.088583,,,TRUE,TRUE,,,,,,,CLR,,,,,,,,VFR,,,,,,,,,,,,SPECI,189.0
KFHB 052215Z AUTO 25012KT 10SM CLR 31/18 A2985 RMK AO2 T03080176,KFHB,2020-05-05T22:15:00Z,30.62,-81.47,30.8,17.6,250,12,,10.0,29.84941,,,TRUE,TRUE,,,,,,,CLR,,,,,,,,VFR,,,,,,,,,,,,SPECI,5.0
KFKN 052215Z AUTO 04004KT 10SM BKN042 OVC050 14/09 A2990 RMK AO2 T01430087,KFKN,2020-05-05T22:15:00Z,36.7,-76.9,14.3,8.7,40,4,,10.0,29.899607,,,TRUE,TRUE,,,,,,,BKN,4200,OVC,5000,,,,,VFR,,,,,,,,,,,,SPECI,12.0
KFRH 052215Z AUTO 00000KT 7SM BKN008 OVC014 10/08 A2987 RMK AO1,KFRH,2020-05-05T22:15:00Z,38.5,-86.63,10.0,8.0,0,0,,7.0,29.870079,,,TRUE,TRUE,,,,,,,BKN,800,OVC,1400,,,,,IFR,,,,,,,,,,,,SPECI,241.0
KFSW 052215Z AUTO 01003KT 2 1/2SM -DZ 08/08 A2995 RMK AO2,KFSW,2020-05-05T22:15:00Z,40.67,-91.32,8.0,8.0,10,3,,2.5,29.949802,,,TRUE,TRUE,,,,,,-DZ,,,,,,,,,,,,,,,,,,,,,SPECI,221.0
KFXY 052215Z AUTO 03005KT 10SM OVC032 08/06 A3005 RMK AO2,KFXY,2020-05-05T22:15:00Z,43.23,-93.62,8.0,6.0,30,5,,10.0,30.050198,,,TRUE,TRUE,,,,,,,OVC,3200,,,,,,,VFR,,,,,,,,,,,,SPECI,375.0
KGCM 052215Z AUTO 34007KT 10SM CLR 23/M07 A3008 RMK AO2,KGCM,2020-05-05T22:15:00Z,36.3,-95.48,23.0,-7.0,340,7,,10.0,30.079725,,,TRUE,TRUE,,,,,,,CLR,,,,,,,,VFR,,,,,,,,,,,,SPECI,221.0
KGDJ 052215Z AUTO 03012G16KT 10SM CLR 27/07 A3010 RMK AO2 T02680070,KGDJ,2020-05-05T22:15:00Z,32.45,-97.82,26.8,7.0,30,12,16,10.0,30.100393,,,TRUE,TRUE,,,,,,,CLR,,,,,,,,VFR,,,,,,,,,,,,SPECI,237.0
KGIC 052215Z AUTO 06004KT 10SM CLR 20/03 A3009 RMK AO1,KGIC,2020-05-05T22:15:00Z,45.95,-116.12,20.0,3.0,60,4,,10.0,30.088583,,,TRUE,TRUE,,,,,,,CLR,,,,,,,,VFR,,,,,,,,,,,,SPECI,1009.0
KGOP 052215Z AUTO 03008G15KT 10SM FEW090 FEW120 25/09 A3006 RMK AO2,KGOP,2020-05-05T22:15:00Z,31.42,-97.8,25.0,9.0,30,8,15,10.0,30.059055,,,TRUE,TRUE,,,,,,,FEW,9000,FEW,12000,,,,,VFR,,,,,,,,,,,,SPECI,276.0
KGNC 052215Z AUTO 10010G16KT 10SM CLR 26/00 A3021 RMK AO2 T02560004,KGNC,2020-05-05T22:15:00Z,32.68,-102.65,25.6,0.4,100,10,16,10.0,30.209646,,,TRUE,TRUE,,,,,,,CLR,,,,,,,,VFR,,,,,,,,,,,,SPECI,1010.0
KGYF 052215Z AUTO 12010KT 10SM CLR 26/24 A2989 RMK AO2 T02600237,KGYF,2020-05-05T22:15:00Z,,,26.0,23.7,120,10,,10.0,29.890747,,,TRUE,TRUE,,,,,,,CLR,,,,,,,,VFR,,,,,,,,,,,,METAR,
KHDC 052215Z AUTO 34005KT 10SM BKN050 29/18 A2990 RMK AO2,KHDC,2020-05-05T22:15:00Z,30.52,-90.42,29.0,18.0,340,5,,10.0,29.899607,,,TRUE,TRUE,,,,,,,BKN,5000,,,,,,,VFR,,,,,,,,,,,,METAR,13.0
KHHF 052215Z AUTO 00000KT 10SM CLR 23/01 A3016 RMK AO2 T02270011,KHHF,2020-05-05T22:15:00Z,35.9,-100.4,22.7,1.1,0,0,,10.0,30.159449,,,TRUE,TRUE,,,,,,,CLR,,,,,,,,VFR,,,,,,,,,,,,SPECI,712.0
KHMP 052215Z AUTO 25007KT 10SM CLR 26/18 A2987 RMK AO2 LTG DSNT N AND NW T02600183,KHMP,2020-05-05T22:15:00Z,33.38,-84.33,26.0,18.3,250,7,,10.0,29.870079,,,TRUE,TRUE,,,,,,,CLR,,,,,,,,VFR,,,,,,,,,,,,METAR,269.0
KHMZ 052215Z AUTO 09003KT 10SM OVC080 11/M02 A2984 RMK AO2 T01111020,KHMZ,2020-05-05T22:15:00Z,40.08,-78.52,11.1,-2.0,90,3,,10.0,29.840551,,,TRUE,TRUE,,,,,,,OVC,8000,,,,,,,VFR,,,,,,,,,,,,SPECI,354.0
KHMT 052215Z AUTO 20010KT 10SM CLR 34/05 A2994 RMK AO2 T03450047,KHMT,2020-05-05T22:15:00Z,33.73,-117.02,34.5,4.7,200,10,,10.0,29.940945,,,TRUE,TRUE,,,,,,,CLR,,,,,,,,VFR,,,,,,,,,,,,METAR,462.0
KHPT 052215Z AUTO 02009KT 10SM BKN011 OVC018 07/06 A3003 RMK AO2,KHPT,2020-05-05T22:15:00Z,42.72,-93.23,7.0,6.0,20,9,,10.0,30.029528,,,TRUE,TRUE,,,,,,,BKN,1100,OVC,1800,,,,,MVFR,,,,,,,,,,,,SPECI,354.0
KLYO 052215Z AUTO 32010G17KT 10SM SCT095 23/00 A3011 RMK AO2 T02310005,KLYO,2020-05-05T22:15:00Z,38.35,-98.23,23.1,0.5,320,10,17,10.0,30.109253,,,TRUE,TRUE,,,,,,,SCT,9500,,,,,,,VFR,,,,,,,,,,,,METAR,515.0
KMDZ 052215Z AUTO 06003KT 10SM CLR 12/M05 A3001 RMK AO2 T01221049,KMDZ,2020-05-05T22:15:00Z,45.1,-90.3,12.2,-4.9,60,3,,10.0,30.008858,,,TRUE,TRUE,,,,,,,CLR,,,,,,,,VFR,,,,,,,,,,,,SPECI,448.0
KMDD 052215Z AUTO 06010KT 10SM CLR 27/04 A3013 RMK AO2 T02650035,KMDD,2020-05-05T22:15:00Z,32.03,-102.1,26.5,3.5,60,10,,10.0,30.129921,,,TRUE,TRUE,,,,,,,CLR,,,,,,,,VFR,,,,,,,,,,,,SPECI,854.0
KMGC 052215Z AUTO 04009KT 10SM SCT034 SCT042 OVC050 08/02 A2997 RMK AO2,KMGC,2020-05-05T22:15:00Z,41.7,-86.82,8.0,2.0,40,9,,10.0,29.970472,,,TRUE,TRUE,,,,,,,SCT,3400,SCT,4200,OVC,5000,,,VFR,,,,,,,,,,,,SPECI,200.0
KRWV 052215Z AUTO 35010KT 10SM OVC042 23/18 A3001 RMK AO2 T02270184,KRWV,2020-05-05T22:15:00Z,30.52,-96.7,22.7,18.4,350,10,,10.0,30.008858,,,TRUE,TRUE,,,,,,,OVC,4200,,,,,,,VFR,,,,,,,,,,,,SPECI,119.0
KRPJ 052215Z AUTO 04011KT 7SM -DZ OVC049 07/06 A3000 RMK AO2 T00690056,KRPJ,2020-05-05T22:15:00Z,41.88,-89.08,6.9,5.6,40,11,,7.0,30.0,,,TRUE,TRUE,,,,,,-DZ,OVC,4900,,,,,,,VFR,,,,,,,,,,,,SPECI,238.0
KRLD 052215Z AUTO 07006KT 10SM CLR 27/02 A3001 RMK AO2 T02730015,KRLD,2020-05-05T22:15:00Z,46.3,-119.3,27.3,1.5,70,6,,10.0,30.008858,,,TRUE,TRUE,,,,,,,CLR,,,,,,,,VFR,,,,,,,,,,,,METAR,120.0
KRFI 052215Z AUTO 36008G14KT 10SM BKN100 25/16 A3001 RMK AO2 T02530155,KRFI,2020-05-05T22:15:00Z,32.15,-94.85,25.3,15.5,360,8,14,10.0,30.008858,,,TRUE,TRUE,,,,,,,BKN,10000,,,,,,,VFR,,,,,,,,,,,,METAR,135.0
KPPO 052215Z AUTO 08005KT 10SM SCT050 08/02 A2996 RMK AO2 T00800022,KPPO,2020-05-05T22:15:00Z,41.57,-86.73,8.0,2.2,80,5,,10.0,29.958662,,,TRUE,TRUE,,,,,,,SCT,5000,,,,,,,VFR,,,,,,,,,,,,SPECI,248.0
KPEQ 052215Z AUTO 05007G17KT 10SM CLR 29/03 A3009 RMK AO2 T02850027,KPEQ,2020-05-05T22:15:00Z,31.38,-103.52,28.5,2.7,50,7,17,10.0,30.088583,,,TRUE,TRUE,,,,,,,CLR,,,,,,,,VFR,,,,,,,,,,,,SPECI,797.0
KPCM 052215Z AUTO 26011KT 10SM CLR 29/21 A2996 RMK AO2,KPCM,2020-05-05T22:15:00Z,28.0,-82.17,29.0,21.0,260,11,,10.0,29.958662,,,TRUE,TRUE,,,,,,,CLR,,,,,,,,VFR,,,,,,,,,,,,SPECI,47.0
KORG 052215Z AUTO 21008KT 10SM SCT048 SCT070 30/23 A2992 RMK AO2 T02960229,KORG,2020-05-05T22:15:00Z,30.07,-93.8,29.6,22.9,210,8,,10.0,29.920275,,,TRUE,TRUE,,,,,,,SCT,4800,SCT,7000,,,,,VFR,,,,,,,,,,,,SPECI,4.0
KOZA 052215Z AUTO 03014G24KT 10SM CLR 28/03 A3009 RMK AO2,KOZA,2020-05-05T22:15:00Z,30.73,-101.2,28.0,3.0,30,14,24,10.0,30.088583,,,TRUE,TRUE,,,,,,,CLR,,,,,,,,VFR,,,,,,,,,,,,SPECI,726.0
KOXI 052215Z AUTO 03009KT 10SM SCT045 OVC060 06/02 A2995 RMK AO1,KOXI,2020-05-05T22:15:00Z,41.33,-86.67,6.0,2.0,30,9,,10.0,29.949802,,,TRUE,TRUE,,,,,,,SCT,4500,OVC,6000,,,,,VFR,,,,,,,,,,,,SPECI,209.0
KOOA 052215Z AUTO 06008KT 7SM -RA OVC007 08/08 A2996 RMK AO2 P0001 T00830076,KOOA,2020-05-05T22:15:00Z,41.23,-92.5,8.3,7.6,60,8,,7.0,29.958662,,,TRUE,TRUE,,,,,,-RA,OVC,700,,,,,,,IFR,,,,,,0.01,,,,,,SPECI,256.0
KONX 052215Z AUTO 06005KT 10SM OVC030 13/09 A2989 RMK AO2 T01250087,KONX,2020-05-05T22:15:00Z,36.4,-76.02,12.5,8.7,60,5,,10.0,29.890747,,,TRUE,TRUE,,,,,,,OVC,3000,,,,,,,MVFR,,,,,,,,,,,,METAR,5.0
KONP 052215Z AUTO 22012KT 10SM SCT065 SCT075 15/11 A3014 RMK AO2,KONP,2020-05-05T22:15:00Z,44.57,-124.03,15.0,11.0,220,12,,10.0,30.138779,,,TRUE,TRUE,,,,,,,SCT,6500,SCT,7500,,,,,VFR,,,,,,,,,,,,SPECI,48.0
KOEL 052215Z AUTO 31009G22KT 10SM CLR 23/M04 A3014 RMK AO1 T02321044,KOEL,2020-05-05T22:15:00Z,39.12,-100.82,23.2,-4.4,310,9,22,10.0,30.138779,,,TRUE,TRUE,,,,,,,CLR,,,,,,,,VFR,,,,,,,,,,,,METAR,929.0
KOEL 052215Z AUTO 31009G22KT 10SM CLR 23/M04 A3014 RMK AO1 T02321044,KOEL,2020-05-05T22:15:00Z,39.12,-100.82,23.2,-4.4,310,9,22,10.0,30.138779,,,TRUE,TRUE,,,,,,,CLR,,,,,,,,VFR,,,,,,,,,,,,METAR,929.0
KMRN 052215Z AUTO 12005KT 10SM CLR 19/11 A2983 RMK AO2 T01870110,KMRN,2020-05-05T22:15:00Z,35.82,-81.62,18.7,11.0,120,5,,10.0,29.828741,,,TRUE,TRUE,,,,,,,CLR,,,,,,,,VFR,,,,,,,,,,,,METAR,387.0
KMQI 052215Z AUTO 07014KT 10SM BKN028 OVC038 13/06 A2988 RMK AO2 T01270062,KMQI,2020-05-05T22:15:00Z,35.92,-75.7,12.7,6.2,70,14,,10.0,29.878937,,,TRUE,TRUE,,,,,,,BKN,2800,OVC,3800,,,,,MVFR,,,,,,,,,,,,METAR,4.0
KCRX 052215Z AUTO 9.88000010G18KT 10SM CLR 21/12 A2991 RMK AO2,KCRX,2020-05-05T22:15:00Z,34.92,-88.6,21.0,12.0,0,10,18,10.0,29.911417,,,TRUE,TRUE,,,,,,,CLR,,,,,,,,VFR,,,,,,,,,,,,SPECI,130.0
KI35 052215Z AUTO 29014G20KT 10SM SCT041 20/15 A2976 RMK AO2 T02020147,KI35,2020-05-05T22:15:00Z,36.87,-83.37,20.2,14.7,290,14,20,10.0,29.760826,,,TRUE,TRUE,,,,,,,SCT,4100,,,,,,,VFR,,,,,,,,,,,,METAR,473.0
KI74 052215Z AUTO 02014G20KT 10SM OVC050 08/01 A2984 RMK AO2,KI74,2020-05-05T22:15:00Z,40.12,-83.75,8.0,1.0,20,14,20,10.0,29.840551,,,TRUE,TRUE,,,,,,,OVC,5000,,,,,,,VFR,,,,,,,,,,,,SPECI,322.0
KI75 052215Z AUTO 33018G28KT 7SM -RA OVC008 10/08 A2997 RMK AO2 P0001 T00980083,KI75,2020-05-05T22:15:00Z,41.05,-93.68,9.8,8.3,330,18,28,7.0,29.970472,,,TRUE,TRUE,,,,,,-RA,OVC,800,,,,,,,IFR,,,,,,0.01,,,,,,SPECI,339.0
KIER 052215Z AUTO 36009KT 10SM SCT026 BKN035 OVC060 27/21 A2995 RMK AO2 T02670212,KIER,2020-05-05T22:15:00Z,31.73,-93.1,26.7,21.2,360,9,,10.0,29.949802,,,TRUE,TRUE,,,,,,,SCT,2600,BKN,3500,OVC,6000,,,VFR,,,,,,,,,,,,METAR,37.0
KIYA 052215Z AUTO 30003KT 10SM CLR 31/17 A2990 RMK AO2 T03080174,KIYA,2020-05-05T22:15:00Z,29.98,-92.08,30.8,17.4,300,3,,10.0,29.899607,,,TRUE,TRUE,,,,,,,CLR,,,,,,,,VFR,,,,,,,,,,,,METAR,5.0
KJWG 052215Z AUTO 04010KT 10SM CLR 23/01 A3016 RMK AO2 T02320013,KJWG,2020-05-05T22:15:00Z,35.87,-98.42,23.2,1.3,40,10,,10.0,30.159449,,,TRUE,TRUE,,,,,,,CLR,,,,,,,,VFR,,,,,,,,,,,,METAR,472.0
KJXI 052215Z AUTO 35009G15KT 10SM CLR 26/12 A3003 RMK AO2 T02550118,KJXI,2020-05-05T22:15:00Z,32.7,-94.95,25.5,11.8,350,9,15,10.0,30.029528,,,TRUE,TRUE,,,,,,,CLR,,,,,,,,VFR,,,,,,,,,,,,SPECI,127.0
RKTI 052215Z 35002KT 3200 BR SCT005 BKN010 13/12 A2997 RMK CIG010,RKTI,2020-05-05T22:15:00Z,37.02,127.87,13.0,12.0,350,2,,1.99,29.970472,,,,,,,,,,BR,SCT,500,BKN,1000,,,,,IFR,,,,,,,,,,,,SPECI,91.0
KK88 052215Z AUTO 30014G22KT 10SM CLR 22/04 A3006 RMK AO1 T02160044,KK88,2020-05-05T22:15:00Z,37.87,-95.38,21.6,4.4,300,14,22,10.0,30.059055,,,TRUE,TRUE,,,,,,,CLR,,,,,,,,VFR,,,,,,,,,,,,METAR,309.0
KL35 052215Z AUTO 05007KT 024V084 10SM CLR 22/M07 A3028 RMK AO2,KL35,2020-05-05T22:15:00Z,34.27,-116.85,22.0,-7.0,50,7,,10.0,30.280512,,,TRUE,TRUE,,,,,,,CLR,,,,,,,,VFR,,,,,,,,,,,,SPECI,2059.0
KLHB 052215Z AUTO 33005KT 10SM BKN050 OVC070 24/17 A3002 RMK AO2 T02400171,KLHB,2020-05-05T22:15:00Z,30.87,-96.62,24.0,17.1,330,5,,10.0,30.02067,,,TRUE,TRUE,,,,,,,BKN,5000,OVC,7000,,,,,VFR,,,,,,,,,,,,SPECI,87.0
KLHM 052215Z AUTO 25006KT 10SM CLR 28/00 A3003 RMK AO1,KLHM,2020-05-05T22:15:00Z,38.92,-121.35,28.0,0.0,250,6,,10.0,30.029528,,,TRUE,TRUE,,,,,,,CLR,,,,,,,,VFR,,,,,,,,,,,,SPECI,37.0
KLRU 052215Z AUTO 12009KT 090V150 10SM CLR 29/00 A3014 RMK AO2 T02881005,KLRU,2020-05-05T22:15:00Z,32.27,-106.92,28.8,-0.5,120,9,,10.0,30.138779,,,TRUE,TRUE,,,,,,,CLR,,,,,,,,VFR,,,,,,,,,,,,SPECI,1358.0
KLUV 052215Z AUTO 09012G17KT 10SM BKN100 OVC120 25/00 A3016 RMK AO2,KLUV,2020-05-05T22:15:00Z,32.75,-101.92,25.0,0.0,90,12,17,10.0,30.159449,,,TRUE,TRUE,,,,,,,BKN,10000,OVC,12000,,,,,VFR,,,,,,,,,,,,SPECI,912.0
KMDJ 052215Z AUTO 26007KT 10SM CLR 26/19 A2995 RMK A01,KMDJ,2020-05-05T22:15:00Z,28.65,-89.8,26.0,19.0,260,7,,10.0,29.949802,,,TRUE,TRUE,,,,,,,CLR,,,,,,,,VFR,,,,,,,,,,,,METAR,31.0
KCOM 052215Z AUTO 03016G21KT 10SM CLR 27/03 A3010 RMK AO2 T02720027,KCOM,2020-05-05T22:15:00Z,31.83,-99.4,27.2,2.7,30,16,21,10.0,30.100393,,,TRUE,TRUE,,,,,,,CLR,,,,,,,,VFR,,,,,,,,,,,,SPECI,517.0
KLUL 052215Z AUTO 31004KT 10SM SCT036 OVC050 28/20 A2990 RMK A02 T02760200,KLUL,2020-05-05T22:15:00Z,31.67,-89.17,27.6,20.0,310,4,,10.0,29.899607,,,TRUE,TRUE,,,,,,,SCT,3600,OVC,5000,,,,,VFR,,,,,,,,,,,,METAR,73.0
KMLE 052215Z AUTO 34013G24KT 10SM SCT044 SCT050 16/05 A3008 RMK AO2 T01640052,KMLE,2020-05-05T22:15:00Z,41.2,-96.12,16.4,5.2,340,13,24,10.0,30.079725,,,TRUE,TRUE,,,,,,,SCT,4400,SCT,5000,,,,,VFR,,,,,,,,,,,,SPECI,320.0
KMIS 052215Z AUTO 20008KT 6SM HZ CLR A2993 RMK A01,KMIS,2020-05-05T22:15:00Z,29.3,-88.85,,,200,8,,6.0,29.929134,,,TRUE,TRUE,,,,,,HZ,CLR,,,,,,,,VFR,,,,,,,,,,,,METAR,32.0
KMIO 052215Z AUTO 33011G16KT 10SM CLR 23/04 A3005 RMK AO2,KMIO,2020-05-05T22:15:00Z,36.92,-94.88,23.0,4.0,330,11,16,10.0,30.050198,,,TRUE,TRUE,,,,,,,CLR,,,,,,,,VFR,,,,,,,,,,,,METAR,246.0
KMEV 052215Z AUTO 22010G17KT 170V280 10SM CLR 26/M12 A3013 RMK AO2,KMEV,2020-05-05T22:15:00Z,38.98,-119.75,26.0,-12.0,220,10,17,10.0,30.129921,,,TRUE,TRUE,,,,,,,CLR,,,,,,,,VFR,,,,,,,,,,,,SPECI,1439.0
LIRP 052215Z 15003KT 9999 FEW015 16/16 Q1015 NOSIG,LIRP,2020-05-05T22:15:00Z,43.67,10.37,16.0,16.0,150,3,,6.21,29.970472,,,,,,TRUE,,,,,FEW,1500,,,,,,,VFR,,,,,,,,,,,,METAR,2.0
K6R3 052215Z AUTO 36012KT 7SM CLR 30/20 A2994 RMK AO2 T02950200,K6R3,2020-05-05T22:15:00Z,30.35,-95.0,29.5,20.0,360,12,,7.0,29.940945,,,TRUE,TRUE,,,,,,,CLR,,,,,,,,VFR,,,,,,,,,,,,SPECI,46.0
KA39 052215Z AUTO 04003KT 10SM CLR 37/M01 A2990 RMK AO2,KA39,2020-05-05T22:15:00Z,32.98,-111.92,37.0,-1.0,40,3,,10.0,29.899607,,,TRUE,TRUE,,,,,,,CLR,,,,,,,,VFR,,,,,,,,,,,,SPECI,396.0
K8A0 052215Z AUTO 33008KT 10SM OVC008 20/18 A2986 RMK AO2,K8A0,2020-05-05T22:15:00Z,34.23,-86.25,20.0,18.0,330,8,,10.0,29.861221,,,TRUE,TRUE,,,,,,,OVC,800,,,,,,,IFR,,,,,,,,,,,,SPECI,315.0
KBWP 052215Z AUTO 33005KT 7SM 07/05 A3013 RMK AO1 P0001,KBWP,2020-05-05T22:15:00Z,46.25,-96.62,7.0,5.0,330,5,,7.0,30.129921,,,TRUE,TRUE,,,,,,,,,,,,,,,,,,,,,0.01,,,,,,SPECI,295.0
KO69 052215Z AUTO 28015KT 8SM CLR 20/14 A3015 RMK A01,KO69,2020-05-05T22:15:00Z,38.25,-122.6,20.0,14.0,280,15,,8.0,30.15059,,,TRUE,TRUE,,,,,,,CLR,,,,,,,,VFR,,,,,,,,,,,,SPECI,28.0
KTVK 052215Z AUTO 00000KT 7SM -RA BKN024 BKN031 10/10 A2992 RMK AO2 P0001,KTVK,2020-05-05T22:15:00Z,40.68,-92.9,10.0,10.0,0,0,,7.0,29.920275,,,TRUE,TRUE,,,,,,-RA,BKN,2400,BKN,3100,,,,,MVFR,,,,,,0.01,,,,,,SPECI,314.0
KOKZ 052215Z AUTO 24010KT 10SM CLR 29/17 A2981 RMK AO2 T02900169,KOKZ,2020-05-05T22:15:00Z,32.97,-82.83,29.0,16.9,240,10,,10.0,29.811024,,,TRUE,TRUE,,,,,,,CLR,,,,,,,,VFR,,,,,,,,,,,,METAR,134.0
KOKM 052215Z AUTO 33008G14KT 10SM CLR 23/04 A3008 RMK AO2 T02330044,KOKM,2020-05-05T22:15:00Z,35.67,-95.95,23.3,4.4,330,8,14,10.0,30.079725,,,TRUE,TRUE,,,,,,,CLR,,,,,,,,VFR,,,,,,,,,,,,METAR,220.0
KCBE 052215Z AUTO 11003KT 10SM -RA SCT041 SCT060 OVC075 12/01 A2988 RMK AO2 T01210010,KCBE,2020-05-05T22:15:00Z,39.62,-78.77,12.1,1.0,110,3,,10.0,29.878937,,,TRUE,TRUE,,,,,,-RA,SCT,4100,SCT,6000,OVC,7500,,,VFR,,,,,,,,,,,,SPECI,236.0
LHKE 052215Z 35004KT CAVOK 07/05 Q1014 R12/290395 NOSIG RMK BLU,LHKE,2020-05-05T22:15:00Z,46.92,19.75,7.0,5.0,350,4,,6.21,29.940945,,,,,,TRUE,,,,,CAVOK,,,,,,,,VFR,,,,,,,,,,,,METAR,115.0
KDPL 052215Z AUTO 00000KT 10SM CLR 23/16 A2981 RMK AO2,KDPL,2020-05-05T22:15:00Z,35.0,-77.97,23.0,16.0,0,0,,10.0,29.811024,,,TRUE,TRUE,,,,,,,CLR,,,,,,,,VFR,,,,,,,,,,,,SPECI,42.0
KDTA 052215Z AUTO 31005KT 10SM CLR 23/M11 A3019 RMK AO1,KDTA,2020-05-05T22:15:00Z,39.38,-112.5,23.0,-11.0,310,5,,10.0,30.188976,,,TRUE,TRUE,,,,,,,CLR,,,,,,,,VFR,,,,,,,,,,,,SPECI,1402.0
KONL 052215Z AUTO 32032G37KT 10SM -RA SCT041 BKN055 OVC080 12/02 A3018 RMK AO2 LTG DSNT NE T01230016,KONL,2020-05-05T22:15:00Z,42.47,-98.67,12.3,1.6,320,32,37,10.0,30.180119,,,TRUE,TRUE,,,,,,-RA,SCT,4100,BKN,5500,OVC,8000,,,VFR,,,,,,,,,,,,SPECI,619.0
KONM 052215Z AUTO 13008KT 10SM CLR 28/M01 A3013 RMK AO2 T02821008,KONM,2020-05-05T22:15:00Z,34.02,-106.9,28.2,-0.8,130,8,,10.0,30.129921,,,TRUE,TRUE,,,,,,,CLR,,,,,,,,VFR,,,,,,,,,,,,SPECI,1410.0
KELK 052215Z AUTO 05007KT 10SM CLR 23/00 A3015 RMK AO2 T02310001,KELK,2020-05-05T22:15:00Z,35.43,-99.4,23.1,0.1,50,7,,10.0,30.15059,,,TRUE,TRUE,,,,,,,CLR,,,,,,,,VFR,,,,,,,,,,,,SPECI,610.0
KEMM 052215Z AUTO 31010G15KT 10SM CLR 15/M12 A3033 RMK AO2,KEMM,2020-05-05T22:15:00Z,41.82,-110.55,15.0,-12.0,310,10,15,10.0,30.33071,,,TRUE,TRUE,,,,,,,CLR,,,,,,,,VFR,,,,,,,,,,,,SPECI,2220.0
KETN 052215Z AUTO 06012KT 10SM SCT095 25/06 A3010 RMK AO2 T02510060,KETN,2020-05-05T22:15:00Z,32.42,-98.82,25.1,6.0,60,12,,10.0,30.100393,,,TRUE,TRUE,,,,,,,SCT,9500,,,,,,,VFR,,,,,,,,,,,,SPECI,446.0
KFWB 052215Z AUTO 32014G24KT 290V360 10SM CLR 20/03 A3004 RMK AO2,KFWB,2020-05-05T22:15:00Z,36.7,-93.4,20.0,3.0,320,14,24,10.0,30.041338,,,TRUE,TRUE,,,,,,,CLR,,,,,,,,VFR,,,,,,,,,,,,SPECI,406.0
KEZM 052215Z AUTO 24008KT 10SM CLR 30/18 A2986 RMK AO2 T02970179,KEZM,2020-05-05T22:15:00Z,32.22,-83.13,29.7,17.9,240,8,,10.0,29.861221,,,TRUE,TRUE,,,,,,,CLR,,,,,,,,VFR,,,,,,,,,,,,SPECI,93.0
KOPN 052215Z AUTO 28010KT 10SM SCT047 SCT060 28/17 A2987 RMK AO2 LTG DSNT N,KOPN,2020-05-05T22:15:00Z,32.95,-84.27,28.0,17.0,280,10,,10.0,29.870079,,,TRUE,TRUE,,,,,,,SCT,4700,SCT,6000,,,,,VFR,,,,,,,,,,,,METAR,243.0
KOSA 052215Z AUTO 36011KT 10SM CLR 26/10 A3005 RMK AO1 T02600100,KOSA,2020-05-05T22:15:00Z,33.1,-94.97,26.0,10.0,360,11,,10.0,30.050198,,,TRUE,TRUE,,,,,,,CLR,,,,,,,,VFR,,,,,,,,,,,,SPECI,111.0
KPBX 052215Z AUTO 30006G17KT 10SM -RA OVC006 15/15 A2975 RMK AO2 T01450145,KPBX,2020-05-05T22:15:00Z,37.57,-82.57,14.5,14.5,300,6,17,10.0,29.749016,,,TRUE,TRUE,,,,,,-RA,OVC,600,,,,,,,IFR,,,,,,,,,,,,METAR,449.0
KPCW 052215Z AUTO 07013KT 10SM SCT090 08/M00 A2990 RMK AO2,KPCW,2020-05-05T22:15:00Z,41.52,-82.87,8.0,0.0,70,13,,10.0,29.899607,,,TRUE,TRUE,,,,,,,SCT,9000,,,,,,,VFR,,,,,,,,,,,,SPECI,178.0
KDED 052215Z AUTO 10SM 31/18 A2990 RMK AO2,KDED,2020-05-05T22:15:00Z,29.07,-81.28,31.0,18.0,,,,10.0,29.899607,,,TRUE,TRUE,,,,,,,,,,,,,,,,,,,,,,,,,,,SPECI,24.0
KDLP 052215Z AUTO 23012KT 10SM CLR 25/19 A2991 RMK A01,KDLP,2020-05-05T22:15:00Z,29.12,-89.55,25.0,19.0,230,12,,10.0,29.911417,,,TRUE,TRUE,,,,,,,CLR,,,,,,,,VFR,,,,,,,,,,,,SPECI,36.0
KDLZ 052215Z AUTO 36011G16KT 10SM OVC060 08/01 A2984 RMK AO2,KDLZ,2020-05-05T22:15:00Z,40.28,-83.12,8.0,1.0,360,11,16,10.0,29.840551,,,TRUE,TRUE,,,,,,,OVC,6000,,,,,,,VFR,,,,,,,,,,,,SPECI,289.0
KDSF 052215Z AUTO 00000KT 8SM CLR 26/20 A2994 RMK A01,KDSF,2020-05-05T22:15:00Z,28.35,-88.27,26.0,20.0,0,0,,8.0,29.940945,,,TRUE,TRUE,,,,,,,CLR,,,,,,,,VFR,,,,,,,,,,,,SPECI,130.0
KE11 052215Z AUTO 10008G18KT 10SM CLR 26/03 A3015 RMK AO2 T02630028,KE11,2020-05-05T22:15:00Z,32.33,-102.53,26.3,2.8,100,8,18,10.0,30.15059,,,TRUE,TRUE,,,,,,,CLR,,,,,,,,VFR,,,,,,,,,,,,SPECI,967.0
KEIR 052215Z AUTO 17005KT 10SM CLR 27/21 A2995 RMK A01,KEIR,2020-05-05T22:15:00Z,28.63,-91.48,27.0,21.0,170,5,,10.0,29.949802,,,TRUE,TRUE,,,,,,,CLR,,,,,,,,VFR,,,,,,,,,,,,SPECI,28.0
KEDU 052215Z AUTO 18011G15KT 10SM CLR 29/00 A3004 RMK AO1,KEDU,2020-05-05T22:15:00Z,38.53,-121.78,29.0,0.0,180,11,15,10.0,30.041338,,,TRUE,TRUE,,,,,,,CLR,,,,,,,,VFR,,,,,,,,,,,,SPECI,21.0
KEKS 052215Z AUTO 09006KT 10SM CLR 17/M07 A3027 RMK AO2,KEKS,2020-05-05T22:15:00Z,45.27,-111.65,17.0,-7.0,90,6,,10.0,30.268702,,,TRUE,TRUE,,,,,,,CLR,,,,,,,,VFR,,,,,,,,,,,,SPECI,1641.0
KEMK 052215Z AUTO 14011KT 7SM OVC025 28/24 A2992 RMK A01,KEMK,2020-05-05T22:15:00Z,27.82,-94.32,28.0,24.0,140,11,,7.0,29.920275,,,TRUE,TRUE,,,,,,,OVC,2500,,,,,,,MVFR,,,,,,,,,,,,SPECI,26.0
KDVO 052215Z AUTO 27009G16KT 10SM CLR 23/12 A3012 RMK AO2,KDVO,2020-05-05T22:15:00Z,38.15,-122.55,23.0,12.0,270,9,16,10.0,30.121063,,,TRUE,TRUE,,,,,,,CLR,,,,,,,,VFR,,,,,,,,,,,,SPECI,1.0
KEZP 052215Z AUTO 13010KT 6SM HZ FEW019 SCT027 25/23 A2994 RMK A01,KEZP,2020-05-05T22:15:00Z,,,25.0,23.0,130,10,,6.0,29.940945,,,TRUE,TRUE,,,,,,HZ,FEW,1900,SCT,2700,,,,,VFR,,,,,,,,,,,,METAR,
KF70 052215Z AUTO 19009KT 170V250 10SM CLR 34/05 A2995 RMK AO1,KF70,2020-05-05T22:15:00Z,33.57,-117.13,34.0,5.0,190,9,,10.0,29.949802,,,TRUE,TRUE,,,,,,,CLR,,,,,,,,VFR,,,,,,,,,,,,SPECI,412.0
KFET 052215Z AUTO 33020G28KT 10SM SCT050 17/06 A3010 RMK AO2 T01680058,KFET,2020-05-05T22:15:00Z,41.45,-96.52,16.8,5.8,330,20,28,10.0,30.100393,,,TRUE,TRUE,,,,,,,SCT,5000,,,,,,,VFR,,,,,,,,,,,,SPECI,367.0
KFCH 052215Z AUTO 36007G15KT 320V020 10SM CLR 30/M03 A3004 RMK A01,KFCH,2020-05-05T22:15:00Z,36.72,-119.82,30.0,-3.0,360,7,15,10.0,30.041338,,,TRUE,TRUE,,,,,,,CLR,,,,,,,,VFR,,,,,,,,,,,,SPECI,85.0
KFOA 052215Z AUTO 30013KT 10SM SCT021 BKN028 14/10 A2991 RMK AO2,KFOA,2020-05-05T22:15:00Z,38.67,-88.45,14.0,10.0,300,13,,10.0,29.911417,,,TRUE,TRUE,,,,,,,SCT,2100,BKN,2800,,,,,MVFR,,,,,,,,,,,,SPECI,144.0
KFMM 052215Z AUTO 26009KT 10SM CLR 22/M08 A3017 RMK AO2 T02161077,KFMM,2020-05-05T22:15:00Z,40.33,-103.8,21.6,-7.7,260,9,,10.0,30.171259,,,TRUE,TRUE,,,,,,,CLR,,,,,,,,VFR,,,,,,,,,,,,SPECI,1393.0
K82C 052215Z AUTO 00000KT 7SM SCT050 SCT110 13/01 A3000 RMK AO2 T01250013,K82C,2020-05-05T22:15:00Z,43.83,-90.13,12.5,1.3,0,0,,7.0,30.0,,,TRUE,TRUE,,,,,,,SCT,5000,SCT,11000,,,,,VFR,,,,,,,,,,,,METAR,276.0
CYFC 052215Z AUTO 36014G19KT 9SM SCT027 BKN032 OVC043 05/M01 A2975 RMK SLP078,CYFC,2020-05-05T22:15:00Z,45.87,-66.52,5.0,-1.0,360,14,19,9.0,29.749016,1007.8,,TRUE,,,,,,,,SCT,2700,BKN,3200,OVC,4300,,,VFR,,,,,,,,,,,,SPECI,20.0
KY23 052215Z AUTO 00000KT 10SM CLR 14/M05 A3003 RMK AO2 T01401054,KY23,2020-05-05T22:15:00Z,45.3,-91.63,14.0,-5.4,0,0,,10.0,30.029528,,,TRUE,TRUE,,,,,,,CLR,,,,,,,,VFR,,,,,,,,,,,,SPECI,322.0
KTSP 052215Z AUTO 31014G18KT 9SM CLR 23/05 A3017 RMK AO2,KTSP,2020-05-05T22:15:00Z,35.13,-118.43,23.0,5.0,310,14,18,9.0,30.171259,,,TRUE,TRUE,,,,,,,CLR,,,,,,,,VFR,,,,,,,,,,,,SPECI,1220.0
KT82 052215Z AUTO 03011G17KT 10SM OVC036 23/09 A3006 RMK AO2 T02280093,KT82,2020-05-05T22:15:00Z,30.25,-98.92,22.8,9.3,30,11,17,10.0,30.059055,,,TRUE,TRUE,,,,,,,OVC,3600,,,,,,,VFR,,,,,,,,,,,,SPECI,517.0
KSME 052215Z AUTO 03011G17KT 10SM BKN014 BKN020 OVC027 15/11 A2985 RMK AO2,KSME,2020-05-05T22:15:00Z,37.05,-84.62,15.0,11.0,30,11,17,10.0,29.84941,,,TRUE,TRUE,,,,,,,BKN,1400,BKN,2000,OVC,2700,,,MVFR,,,,,,,,,,,,SPECI,283.0
KRNH 052215Z AUTO 03008KT 10SM SCT120 14/M06 A3004 RMK AO2 T01371061,KRNH,2020-05-05T22:15:00Z,45.15,-92.53,13.7,-6.1,30,8,,10.0,30.041338,,,TRUE,TRUE,,,,,,,SCT,12000,,,,,,,VFR,,,,,,,,,,,,SPECI,304.0
KFOT 052215Z AUTO 33013KT 10SM FEW006 SCT015 BKN024 14/12 A3018 RMK AO1,KFOT,2020-05-05T22:15:00Z,40.55,-124.13,14.0,12.0,330,13,,10.0,30.180119,,,TRUE,TRUE,,,,,,,FEW,600,SCT,1500,BKN,2400,,,MVFR,,,,,,,,,,,,SPECI,120.0
K0V4 052215Z AUTO 00000KT 10SM OVC026 13/11 A2986 RMK AO1 T01270112,K0V4,2020-05-05T22:15:00Z,37.15,-79.02,12.7,11.2,0,0,,10.0,29.861221,,,TRUE,TRUE,,,,,,,OVC,2600,,,,,,,MVFR,,,,,,,,,,,,SPECI,182.0
KGBG 052215Z AUTO 07008KT 5SM DZ BKN009 OVC013 08/06 A2996 RMK AO2 T00750062,KGBG,2020-05-05T22:15:00Z,40.93,-90.43,7.5,6.2,70,8,,5.0,29.958662,,,TRUE,TRUE,,,,,,DZ,BKN,900,OVC,1300,,,,,IFR,,,,,,,,,,,,SPECI,233.0
KFYM 052215Z AUTO 29006KT 10SM FEW025 20/15 A2985 RMK A01,KFYM,2020-05-05T22:15:00Z,35.07,-86.57,20.0,15.0,290,6,,10.0,29.84941,,,TRUE,TRUE,,,,,,,FEW,2500,,,,,,,VFR,,,,,,,,,,,,SPECI,300.0
KGBK 052215Z AUTO VRB04KT 10SM CLR 29/24 A2994 RMK A01,KGBK,2020-05-05T22:15:00Z,27.2,-92.2,29.0,24.0,0,4,,10.0,29.940945,,,TRUE,TRUE,,,,,,,CLR,,,,,,,,VFR,,,,,,,,,,,,SPECI,59.0
KGCY 052215Z AUTO 22008G15KT 190V250 10SM FEW042 SCT050 BKN060 24/16 A2973 RMK A01,KGCY,2020-05-05T22:15:00Z,36.2,-82.82,24.0,16.0,220,8,15,10.0,29.731298,,,TRUE,TRUE,,,,,,,FEW,4200,SCT,5000,BKN,6000,,,VFR,,,,,,,,,,,,SPECI,490.0
KGHB 052215Z AUTO VRB05KT 10SM FEW022 FEW026 SCT048 26/23 A2995 RMK A01,KGHB,2020-05-05T22:15:00Z,27.83,-91.98,26.0,23.0,0,5,,10.0,29.949802,,,TRUE,TRUE,,,,,,,FEW,2200,FEW,2600,SCT,4800,,,VFR,,,,,,,,,,,,SPECI,30.0
K1R7 052215Z AUTO 35006KT 10SM FEW038 SCT047 BKN060 28/20 A2993 RMK AO2,K1R7,2020-05-05T22:15:00Z,31.6,-90.42,28.0,20.0,350,6,,10.0,29.929134,,,TRUE,TRUE,,,,,,,FEW,3800,SCT,4700,BKN,6000,,,VFR,,,,,,,,,,,,SPECI,149.0
KGHG 052215Z AUTO 06005KT 10SM CLR 13/01 A2984 RMK AO2,KGHG,2020-05-05T22:15:00Z,42.1,-70.67,13.0,1.0,60,5,,10.0,29.840551,,,TRUE,TRUE,,,,,,,CLR,,,,,,,,VFR,,,,,,,,,,,,SPECI,4.0
K57C 052215Z AUTO 09006KT 10SM OVC065 07/M03 A3001 RMK AO2 T00721032,K57C,2020-05-05T22:15:00Z,42.8,-88.37,7.2,-3.2,90,6,,10.0,30.008858,,,TRUE,TRUE,,,,,,,OVC,6500,,,,,,,VFR,,,,,,,,,,,,METAR,262.0
K4S2 052215Z AUTO 33005KT 10SM OVC090 22/05 A3003 RMK AO2,K4S2,2020-05-05T22:15:00Z,45.68,-121.55,22.0,5.0,330,5,,10.0,30.029528,,,TRUE,TRUE,,,,,,,OVC,9000,,,,,,,VFR,,,,,,,,,,,,METAR,192.0
KGKT 052215Z AUTO 23009G20KT 10SM FEW042 SCT047 SCT065 26/17 A2974 RMK A01,KGKT,2020-05-05T22:15:00Z,35.85,-83.53,26.0,17.0,230,9,20,10.0,29.740158,,,TRUE,TRUE,,,,,,,FEW,4200,SCT,4700,SCT,6500,,,VFR,,,,,,,,,,,,SPECI,309.0
KGOO 052215Z AUTO VRB05KT 10SM CLR 22/M02 A3014 RMK A01,KGOO,2020-05-05T22:15:00Z,39.22,-121.0,22.0,-2.0,0,5,,10.0,30.138779,,,TRUE,TRUE,,,,,,,CLR,,,,,,,,VFR,,,,,,,,,,,,SPECI,962.0
KGPC 052215Z AUTO 03008KT 10SM OVC028 08/03 A2990 RMK AO2 T00790029,KGPC,2020-05-05T22:15:00Z,39.63,-86.82,7.9,2.9,30,8,,10.0,29.899607,,,TRUE,TRUE,,,,,,,OVC,2800,,,,,,,MVFR,,,,,,,,,,,,SPECI,257.0
KCXP 052215Z AUTO 25014G22KT 10SM CLR 24/M15 A3012 RMK AO2,KCXP,2020-05-05T22:15:00Z,39.18,-119.73,24.0,-15.0,250,14,22,10.0,30.121063,,,TRUE,TRUE,,,,,,,CLR,,,,,,,,VFR,,,,,,,,,,,,SPECI,1435.0
KCUH 052215Z AUTO 36007KT 10SM CLR 24/03 A3009 RMK AO2 T02380030,KCUH,2020-05-05T22:15:00Z,35.95,-96.77,23.8,3.0,360,7,,10.0,30.088583,,,TRUE,TRUE,,,,,,,CLR,,,,,,,,VFR,,,,,,,,,,,,SPECI,279.0
KCTJ 052215Z AUTO 27004KT 10SM BKN042 OVC050 25/17 A2991 RMK AO2 LTG DSNT NE T02470171,KCTJ,2020-05-05T22:15:00Z,33.63,-85.15,24.7,17.1,270,4,,10.0,29.911417,,,TRUE,TRUE,,,,,,,BKN,4200,OVC,5000,,,,,VFR,,,,,,,,,,,,SPECI,354.0
KOKV 052215Z AUTO 12005KT 10SM BKN037 OVC065 11/03 A2984 RMK AO2,KOKV,2020-05-05T22:15:00Z,39.13,-78.15,11.0,3.0,120,5,,10.0,29.840551,,,TRUE,TRUE,,,,,,,BKN,3700,OVC,6500,,,,,VFR,,,,,,,,,,,,SPECI,222.0
KAVK 052215Z AUTO 32004G13KT 10SM CLR 24/02 A3013 RMK AO2 PWINO TSNO,KAVK,2020-05-05T22:15:00Z,36.77,-98.67,24.0,2.0,320,4,13,10.0,30.129921,,,TRUE,TRUE,,,TRUE,,TRUE,,CLR,,,,,,,,VFR,,,,,,,,,,,,SPECI,449.0
KAUN 052215Z AUTO 23008KT 10SM CLR 26/01 A3010 RMK A01,KAUN,2020-05-05T22:15:00Z,38.95,-121.08,26.0,1.0,230,8,,10.0,30.100393,,,TRUE,TRUE,,,,,,,CLR,,,,,,,,VFR,,,,,,,,,,,,SPECI,467.0
KPRG 052215Z AUTO 05003KT 10SM OVC018 09/06 A2992 RMK AO2 T00920059,KPRG,2020-05-05T22:15:00Z,39.7,-87.67,9.2,5.9,50,3,,10.0,29.920275,,,TRUE,TRUE,,,,,,,OVC,1800,,,,,,,MVFR,,,,,,,,,,,,SPECI,199.0
KPPA 052215Z AUTO 11006KT 10SM CLR 23/M04 A3019 RMK AO2 T02261043,KPPA,2020-05-05T22:15:00Z,35.62,-101.0,22.6,-4.3,110,6,,10.0,30.188976,,,TRUE,TRUE,,,,,,,CLR,,,,,,,,VFR,,,,,,,,,,,,SPECI,989.0
KPMU 052215Z AUTO 31007KT 10SM CLR 23/13 A2994 RMK AO2,KPMU,2020-05-05T22:15:00Z,34.37,-89.9,23.0,13.0,310,7,,10.0,29.940945,,,TRUE,TRUE,,,,,,,CLR,,,,,,,,VFR,,,,,,,,,,,,SPECI,67.0
KPLU 052215Z AUTO VRB03KT 10SM CLR 21/09 A3006 RMK AO2,KPLU,2020-05-05T22:15:00Z,47.1,-122.28,21.0,9.0,0,3,,10.0,30.059055,,,TRUE,TRUE,,,,,,,CLR,,,,,,,,VFR,,,,,,,,,,,,SPECI,164.0
KPHT 052215Z AUTO 29006G12KT 10SM FEW042 FEW050 19/11 A2989 RMK A01,KPHT,2020-05-05T22:15:00Z,36.33,-88.38,19.0,11.0,290,6,12,10.0,29.890747,,,TRUE,TRUE,,,,,,,FEW,4200,FEW,5000,,,,,VFR,,,,,,,,,,,,SPECI,177.0
KHCD 052215Z AUTO 03005KT 10SM CLR 15/M05 A3006 RMK AO2 T01461046,KHCD,2020-05-05T22:15:00Z,44.87,-94.38,14.6,-4.6,30,5,,10.0,30.059055,,,TRUE,TRUE,,,,,,,CLR,,,,,,,,VFR,,,,,,,,,,,,SPECI,323.0
KHBV 052215Z AUTO 10014G18KT 10SM SCT050 SCT070 35/19 A2986 RMK AO2 T03450194,KHBV,2020-05-05T22:15:00Z,27.35,-98.73,34.5,19.4,100,14,18,10.0,29.861221,,,TRUE,TRUE,,,,,,,SCT,5000,SCT,7000,,,,,VFR,,,,,,,,,,,,SPECI,202.0
KH71 052215Z AUTO 32011KT 10SM CLR 24/24 A3006 RMK AO2,KH71,2020-05-05T22:15:00Z,36.22,-95.33,24.0,24.0,320,11,,10.0,30.059055,,,TRUE,TRUE,,,,,,,CLR,,,,,,,,VFR,,,,,,,,,,,,SPECI,190.0
KGZS 052215Z AUTO 33008G15KT 10SM CLR 21/14 A2986 RMK A01,KGZS,2020-05-05T22:15:00Z,35.15,-87.05,21.0,14.0,330,8,15,10.0,29.861221,,,TRUE,TRUE,,,,,,,CLR,,,,,,,,VFR,,,,,,,,,,,,SPECI,209.0
KGUL 052215Z AUTO 09007KT 9SM CLR 26/24 A2992 RMK A01,KGUL,2020-05-05T22:15:00Z,27.3,-93.53,26.0,24.0,90,7,,9.0,29.920275,,,TRUE,TRUE,,,,,,,CLR,,,,,,,,VFR,,,,,,,,,,,,SPECI,30.0
KPTD 052215Z AUTO 34006G11KT 10SM SCT055 10/M03 A2994 RMK AO2,KPTD,2020-05-05T22:15:00Z,44.68,-74.95,10.0,-3.0,340,6,11,10.0,29.940945,,,TRUE,TRUE,,,,,,,SCT,5500,,,,,,,VFR,,,,,,,,,,,,SPECI,144.0
KRMN 052215Z AUTO 00000KT 10SM OVC055 10/10 A2992 RMK AO2 T01030101,KRMN,2020-05-05T22:15:00Z,38.4,-77.45,10.3,10.1,0,0,,10.0,29.920275,,,TRUE,TRUE,,,,,,,OVC,5500,,,,,,,VFR,,,,,,,,,,,,SPECI,65.0
KRNV 052215Z AUTO 36011KT 10SM CLR 25/11 A2996 RMK AO2 T02460108,KRNV,2020-05-05T22:15:00Z,33.77,-90.75,24.6,10.8,360,11,,10.0,29.958662,,,TRUE,TRUE,,,,,,,CLR,,,,,,,,VFR,,,,,,,,,,,,SPECI,41.0
KRUQ 052215Z AUTO 06003KT 10SM OVC022 18/13 A2979 RMK AO2 T01770128,KRUQ,2020-05-05T22:15:00Z,35.65,-80.52,17.7,12.8,60,3,,10.0,29.790354,,,TRUE,TRUE,,,,,,,OVC,2200,,,,,,,MVFR,,,,,,,,,,,,SPECI,236.0
KEXX 052215Z AUTO 00000KT 10SM OVC029 18/14 A2980 RMK AO2 T01810143,KEXX,2020-05-05T22:15:00Z,35.78,-80.3,18.1,14.3,0,0,,10.0,29.799213,,,TRUE,TRUE,,,,,,,OVC,2900,,,,,,,MVFR,,,,,,,,,,,,SPECI,223.0
KEZF 052215Z AUTO 00000KT 10SM OVC055 11/10 A2989 RMK AO2 T01060095,KEZF,2020-05-05T22:15:00Z,38.27,-77.45,10.6,9.5,0,0,,10.0,29.890747,,,TRUE,TRUE,,,,,,,OVC,5500,,,,,,,VFR,,,,,,,,,,,,SPECI,26.0
KEYF 052215Z AUTO 17006KT 10SM CLR 25/18 A2979 RMK AO2 T02510181,KEYF,2020-05-05T22:15:00Z,34.6,-78.58,25.1,18.1,170,6,,10.0,29.790354,,,TRUE,TRUE,,,,,,,CLR,,,,,,,,VFR,,,,,,,,,,,,SPECI,41.0
KFQD 052215Z AUTO 12004KT 10SM TS OVC023 17/14 A2980 RMK AO2 LTG DSNT SE AND W,KFQD,2020-05-05T22:15:00Z,35.42,-81.93,17.0,14.0,120,4,,10.0,29.799213,,,TRUE,TRUE,,,,,,TS,OVC,2300,,,,,,,MVFR,,,,,,,,,,,,SPECI,329.0
KGVE 052215Z AUTO 00000KT 10SM OVC050 11/08 A2987 RMK AO1 T01060075,KGVE,2020-05-05T22:15:00Z,38.15,-78.17,10.6,7.5,0,0,,10.0,29.870079,,,TRUE,TRUE,,,,,,,OVC,5000,,,,,,,VFR,,,,,,,,,,,,SPECI,138.0
KPZZ 052215Z AUTO 19003KT 10SM CLR 26/20 A2994 RMK A01,KPZZ,2020-05-05T22:15:00Z,28.43,-91.02,26.0,20.0,190,3,,10.0,29.940945,,,TRUE,TRUE,,,,,,,CLR,,,,,,,,VFR,,,,,,,,,,,,SPECI,5.0
KSFQ 052215Z AUTO 06003KT 10SM OVC036 15/07 A2990 RMK AO2 T01480065,KSFQ,2020-05-05T22:15:00Z,36.68,-76.6,14.8,6.5,60,3,,10.0,29.899607,,,TRUE,TRUE,,,,,,,OVC,3600,,,,,,,VFR,,,,,,,,,,,,SPECI,22.0
KI67 052215Z AUTO 34005KT 10SM OVC044 11/00 A2985 RMK AO1,KI67,2020-05-05T22:15:00Z,39.25,-84.78,11.0,0.0,340,5,,10.0,29.84941,,,TRUE,TRUE,,,,,,,OVC,4400,,,,,,,VFR,,,,,,,,,,,,SPECI,178.0
KSRR 052215Z AUTO 13015G20KT 10SM CLR 19/M02 A3031 RMK AO2,KSRR,2020-05-05T22:15:00Z,33.47,-105.52,19.0,-2.0,130,15,20,10.0,30.31004,,,TRUE,TRUE,,,,,,,CLR,,,,,,,,VFR,,,,,,,,,,,,SPECI,2076.0
KSMS 052215Z AUTO 00000KT 10SM -DZ CLR 30/22 A2975 RMK AO2 LTG DSNT N AND NW,KSMS,2020-05-05T22:15:00Z,34.0,-80.37,30.0,22.0,0,0,,10.0,29.749016,,,TRUE,TRUE,,,,,,-DZ,CLR,,,,,,,,VFR,,,,,,,,,,,,SPECI,56.0
KRKR 052215Z AUTO 31005KT 10SM CLR 22/05 A3006 RMK AO2,KRKR,2020-05-05T22:15:00Z,35.02,-94.62,22.0,5.0,310,5,,10.0,30.059055,,,TRUE,TRUE,,,,,,,CLR,,,,,,,,VFR,,,,,,,,,,,,SPECI,138.0
KRKW 052215Z AUTO 31009G17KT 250V350 10SM SCT032 SCT042 SCT048 22/15 A2983 RMK A01,KRKW,2020-05-05T22:15:00Z,35.92,-84.68,22.0,15.0,310,9,17,10.0,29.828741,,,TRUE,TRUE,,,,,,,SCT,3200,SCT,4200,SCT,4800,,,VFR,,,,,,,,,,,,SPECI,508.0
KRTS 052215Z AUTO 24014KT 10SM CLR 23/M16 A3015 RMK AO2,KRTS,2020-05-05T22:15:00Z,39.67,-119.88,23.0,-16.0,240,14,,10.0,30.15059,,,TRUE,TRUE,,,,,,,CLR,,,,,,,,VFR,,,,,,,,,,,,SPECI,1540.0
KRNC 052215Z AUTO 30009G14KT 270V330 10SM OVC028 20/13 A2987 RMK A01,KRNC,2020-05-05T22:15:00Z,35.7,-85.85,20.0,13.0,300,9,14,10.0,29.870079,,,TRUE,TRUE,,,,,,,OVC,2800,,,,,,,MVFR,,,,,,,,,,,,SPECI,315.0
KRZR 052215Z AUTO 19011KT 10SM CLR 22/22 A2981 RMK A01,KRZR,2020-05-05T22:15:00Z,35.22,-84.8,22.0,22.0,190,11,,10.0,29.811024,,,TRUE,TRUE,,,,,,,CLR,,,,,,,,VFR,,,,,,,,,,,,SPECI,263.0
KS39 052215Z AUTO 01007KT 10SM SCT110 21/M01 A3002 RMK AO2,KS39,2020-05-05T22:15:00Z,44.28,-120.9,21.0,-1.0,10,7,,10.0,30.02067,,,TRUE,TRUE,,,,,,,SCT,11000,,,,,,,VFR,,,,,,,,,,,,METAR,991.0
RJFM 052215Z VRB02KT 3500 BR SCT002 BKN004 BKN013 20/19 Q1009 RMK 3ST002 5ST004 7ST013 A2979,RJFM,2020-05-05T22:15:00Z,31.87,131.43,20.0,19.0,0,2,,2.17,29.793306,,,,,,,,,,BR,SCT,200,BKN,400,BKN,1300,,,LIFR,,,,,,,,,,,,SPECI,9.0
KMEZ 052215Z AUTO 35009G14KT 10SM CLR 24/07 A3006 RMK AO2,KMEZ,2020-05-05T22:15:00Z,34.55,-94.2,24.0,7.0,350,9,14,10.0,30.059055,,,TRUE,TRUE,,,,,,,CLR,,,,,,,,VFR,,,,,,,,,,,,SPECI,329.0
KJCA 052215Z AUTO 25006KT 10SM BKN043 BKN048 BKN055 26/19 A2981 RMK AO2 LTG DSNT N AND NW T02630187,KJCA,2020-05-05T22:15:00Z,34.18,-83.57,26.3,18.7,250,6,,10.0,29.811024,,,TRUE,TRUE,,,,,,,BKN,4300,BKN,4800,BKN,5500,,,VFR,,,,,,,,,,,,SPECI,290.0
KSGS 052215Z AUTO 09003KT 10SM CLR 15/M08 A3003 RMK AO2 T01521076,KSGS,2020-05-05T22:15:00Z,44.87,-93.03,15.2,-7.6,90,3,,10.0,30.029528,,,TRUE,TRUE,,,,,,,CLR,,,,,,,,VFR,,,,,,,,,,,,SPECI,250.0
KSCX 052215Z AUTO 30010KT 270V330 10SM BKN022 OVC029 17/13 A2983 RMK A01,KSCX,2020-05-05T22:15:00Z,36.45,-84.58,17.0,13.0,300,10,,10.0,29.828741,,,TRUE,TRUE,,,,,,,BKN,2200,OVC,2900,,,,,MVFR,,,,,,,,,,,,SPECI,471.0
KSCF 052215Z AUTO 00000KT 10SM CLR 28/21 A2993 RMK A01,KSCF,2020-05-05T22:15:00Z,29.12,-91.87,28.0,21.0,0,0,,10.0,29.929134,,,TRUE,TRUE,,,,,,,CLR,,,,,,,,VFR,,,,,,,,,,,,SPECI,8.0
KSNH 052215Z AUTO 32009KT 10SM CLR 21/13 A2988 RMK A01,KSNH,2020-05-05T22:15:00Z,35.17,-88.22,21.0,13.0,320,9,,10.0,29.878937,,,TRUE,TRUE,,,,,,,CLR,,,,,,,,VFR,,,,,,,,,,,,SPECI,144.0
KSYI 052215Z AUTO 32009G20KT 10SM SCT030 SCT037 20/13 A2987 RMK A01,KSYI,2020-05-05T22:15:00Z,35.57,-86.45,20.0,13.0,320,9,20,10.0,29.870079,,,TRUE,TRUE,,,,,,,SCT,3000,SCT,3700,,,,,VFR,,,,,,,,,,,,SPECI,245.0
KSRE 052215Z AUTO 03008KT 10SM CLR 23/02 A3010 RMK AO2,KSRE,2020-05-05T22:15:00Z,35.27,-96.68,23.0,2.0,30,8,,10.0,30.100393,,,TRUE,TRUE,,,,,,,CLR,,,,,,,,VFR,,,,,,,,,,,,SPECI,312.0
KSRB 052215Z AUTO 31007G17KT 10SM FEW028 SCT035 SCT040 19/13 A2986 RMK A01,KSRB,2020-05-05T22:15:00Z,36.05,-85.53,19.0,13.0,310,7,17,10.0,29.861221,,,TRUE,TRUE,,,,,,,FEW,2800,SCT,3500,SCT,4000,,,VFR,,,,,,,,,,,,SPECI,313.0
KS21 052215Z AUTO 20013KT 150V210 10SM FEW100 FEW120 20/M02 A3009 RMK AO2,KS21,2020-05-05T22:15:00Z,43.88,-121.45,20.0,-2.0,200,13,,10.0,30.088583,,,TRUE,TRUE,,,,,,,FEW,10000,FEW,12000,,,,,VFR,,,,,,,,,,,,METAR,1269.0
KTCY 052215Z AUTO 29016G22KT 9SM CLR 29/03 A3006 RMK A01,KTCY,2020-05-05T22:15:00Z,37.68,-121.43,29.0,3.0,290,16,22,9.0,30.059055,,,TRUE,TRUE,,,,,,,CLR,,,,,,,,VFR,,,,,,,,,,,,METAR,59.0
KSZY 052215Z AUTO VRB07KT 10SM SCT037 20/13 A2990 RMK A01,KSZY,2020-05-05T22:15:00Z,,,20.0,13.0,0,7,,10.0,29.899607,,,TRUE,TRUE,,,,,,,SCT,3700,,,,,,,VFR,,,,,,,,,,,,SPECI,
KTHA 052215Z AUTO 32010KT 10SM SCT025 20/14 A2986 RMK A01,KTHA,2020-05-05T22:15:00Z,35.38,-86.25,20.0,14.0,320,10,,10.0,29.861221,,,TRUE,TRUE,,,,,,,SCT,2500,,,,,,,VFR,,,,,,,,,,,,SPECI,331.0
KVKY 052215Z AUTO 25006KT 10SM CLR 26/17 A2995 RMK A01,KVKY,2020-05-05T22:15:00Z,29.25,-88.43,26.0,17.0,250,6,,10.0,29.949802,,,TRUE,TRUE,,,,,,,CLR,,,,,,,,VFR,,,,,,,,,,,,SPECI,32.0
KVKS 052215Z AUTO 34010KT 320V020 10SM OVC043 25/20 A2992 RMK A01,KVKS,2020-05-05T22:15:00Z,32.23,-90.93,25.0,20.0,340,10,,10.0,29.920275,,,TRUE,TRUE,,,,,,,OVC,4300,,,,,,,VFR,,,,,,,,,,,,SPECI,32.0
LHSM 052215Z AUTO 31006KT 7000 NSC 08/07 Q1017,LHSM,2020-05-05T22:15:00Z,46.68,17.17,8.0,7.0,310,6,,4.35,30.029528,,,TRUE,,,,,,,,CLR,,,,,,,,MVFR,,,,,,,,,,,,METAR,125.0
LHPR 052215Z AUTO 32009KT 9999 -SHRA BKN049 OVC059 09/03 Q1017,LHPR,2020-05-05T22:15:00Z,47.63,17.82,9.0,3.0,320,9,,6.21,30.029528,,,TRUE,,,,,,,-SHRA,BKN,4900,OVC,5900,,,,,VFR,,,,,,,,,,,,METAR,129.0
LHPA 052215Z 36010KT 310V020 6000 NSC 09/02 Q1018 TEMPO -SHRA -RA RMK WHT,LHPA,2020-05-05T22:15:00Z,47.35,17.5,9.0,2.0,360,10,,3.73,30.059055,,,,,,,,,,,CLR,,,,,,,,MVFR,,,,,,,,,,,,METAR,148.0
LHDC 052215Z AUTO 02002KT CAVOK 08/04 Q1013,LHDC,2020-05-05T22:15:00Z,47.47,21.62,8.0,4.0,20,2,,6.21,29.911417,,,TRUE,,,,,,,,CAVOK,,,,,,,,VFR,,,,,,,,,,,,METAR,112.0
KVOA 052215Z AUTO 26011KT 10SM CLR 25/18 A2993 RMK A01,KVOA,2020-05-05T22:15:00Z,29.23,-87.78,25.0,18.0,260,11,,10.0,29.929134,,,TRUE,TRUE,,,,,,,CLR,,,,,,,,VFR,,,,,,,,,,,,SPECI,53.0
KXER 052215Z AUTO 05004KT 9SM FEW038 25/21 A2997 RMK A01,KXER,2020-05-05T22:15:00Z,,,25.0,21.0,50,4,,9.0,29.970472,,,TRUE,TRUE,,,,,,,FEW,3800,,,,,,,VFR,,,,,,,,,,,,METAR,
KXNX 052215Z AUTO 30007G19KT 250V330 10SM FEW029 FEW034 BKN042 20/13 A2989 RMK A01,KXNX,2020-05-05T22:15:00Z,36.38,-86.42,20.0,13.0,300,7,19,10.0,29.890747,,,TRUE,TRUE,,,,,,,FEW,2900,FEW,3400,BKN,4200,,,VFR,,,,,,,,,,,,SPECI,178.0
KXPY 052215Z AUTO 24010KT 10SM CLR 27/20 A2992 RMK A01,KXPY,2020-05-05T22:15:00Z,29.12,-90.2,27.0,20.0,240,10,,10.0,29.920275,,,TRUE,TRUE,,,,,,,CLR,,,,,,,,VFR,,,,,,,,,,,,SPECI,2.0
KHDE 052215Z AUTO 33013G18KT 10SM SCT110 20/01 A3012 RMK AO2 T01980011,KHDE,2020-05-05T22:15:00Z,40.45,-99.32,19.8,1.1,330,13,18,10.0,30.121063,,,TRUE,TRUE,,,,,,,SCT,11000,,,,,,,VFR,,,,,,,,,,,,SPECI,705.0
KHLB 052215Z AUTO VRB05KT 10SM OVC040 10/01 A2986 RMK A01,KHLB,2020-05-05T22:15:00Z,,,10.0,1.0,0,5,,10.0,29.861221,,,TRUE,TRUE,,,,,,,OVC,4000,,,,,,,VFR,,,,,,,,,,,,SPECI,
KHJH 052215Z AUTO 34018G29KT 10SM BKN095 22/M03 A3008 RMK AO2 T02171027,KHJH,2020-05-05T22:15:00Z,40.15,-97.58,21.7,-2.7,340,18,29,10.0,30.079725,,,TRUE,TRUE,,,,,,,BKN,9500,,,,,,,VFR,,,,,,,,,,,,SPECI,447.0
KHTO 052215Z AUTO 28006KT 10SM CLR 14/M08 A2985 RMK AO2 T01411085,KHTO,2020-05-05T22:15:00Z,40.95,-72.25,14.1,-8.5,280,6,,10.0,29.84941,,,TRUE,TRUE,,,,,,,CLR,,,,,,,,VFR,,,,,,,,,,,,SPECI,17.0
KHSD 052215Z AUTO 36008KT 10SM CLR 23/02 A3012 RMK A01,KHSD,2020-05-05T22:15:00Z,35.6,-97.72,23.0,2.0,360,8,,10.0,30.121063,,,TRUE,TRUE,,,,,,,CLR,,,,,,,,VFR,,,,,,,,,,,,SPECI,364.0
KIKT 052215Z AUTO 10SM CLR 26/19 A2995 RMK A01,KIKT,2020-05-05T22:15:00Z,28.52,-88.28,26.0,19.0,,,,10.0,29.949802,,,TRUE,TRUE,,,,,,,CLR,,,,,,,,VFR,,,,,,,,,,,,SPECI,25.0
KIBM 052215Z AUTO 35012G20KT 10SM CLR 18/M02 A3019 RMK AO2 T01801025,KIBM,2020-05-05T22:15:00Z,41.18,-103.68,18.0,-2.5,350,12,20,10.0,30.188976,,,TRUE,TRUE,,,,,,,CLR,,,,,,,,VFR,,,,,,,,,,,,SPECI,1501.0
KI63 052215Z AUTO 34005KT 5SM -RA SCT023 BKN030 OVC039 10/09 A2992 RMK AO2 P0001 T01000090,KI63,2020-05-05T22:15:00Z,39.98,-90.8,10.0,9.0,340,5,,5.0,29.920275,,,TRUE,TRUE,,,,,,-RA,SCT,2300,BKN,3000,OVC,3900,,,MVFR,,,,,,0.01,,,,,,SPECI,223.0
KHZD 052215Z AUTO 29007G13KT 10SM FEW039 FEW048 21/12 A2990 RMK A01,KHZD,2020-05-05T22:15:00Z,36.08,-88.47,21.0,12.0,290,7,13,10.0,29.899607,,,TRUE,TRUE,,,,,,,FEW,3900,FEW,4800,,,,,VFR,,,,,,,,,,,,SPECI,151.0
KIMM 052215Z AUTO 28010G16KT 10SM CLR 31/19 A2990 RMK AO2,KIMM,2020-05-05T22:15:00Z,26.43,-81.4,31.0,19.0,280,10,16,10.0,29.899607,,,TRUE,TRUE,,,,,,,CLR,,,,,,,,VFR,,,,,,,,,,,,SPECI,12.0
KOGS 052215Z AUTO VRB05KT 10SM SCT065 12/M04 A2992 RMK AO2,KOGS,2020-05-05T22:15:00Z,44.67,-75.47,12.0,-4.0,0,5,,10.0,29.920275,,,TRUE,TRUE,,,,,,,SCT,6500,,,,,,,VFR,,,,,,,,,,,,SPECI,91.0
KOGA 052215Z AUTO 33013G19KT 10SM CLR 20/01 A3014 RMK AO2 T02000007,KOGA,2020-05-05T22:15:00Z,41.12,-101.77,20.0,0.7,330,13,19,10.0,30.138779,,,TRUE,TRUE,,,,,,,CLR,,,,,,,,VFR,,,,,,,,,,,,SPECI,999.0
KTPF 052215Z AUTO 31007KT 285V345 10SM SCT039 27/21 A2996 RMK AO2,KTPF,2020-05-05T22:15:00Z,27.92,-82.45,27.0,21.0,310,7,,10.0,29.958662,,,TRUE,TRUE,,,,,,,SCT,3900,,,,,,,VFR,,,,,,,,,,,,SPECI,3.0
KGRN 052215Z AUTO 34014G20KT 10SM SCT080 BKN090 17/M01 A3017 RMK AO2 T01651007,KGRN,2020-05-05T22:15:00Z,42.8,-102.17,16.5,-0.7,340,14,20,10.0,30.171259,,,TRUE,TRUE,,,,,,,SCT,8000,BKN,9000,,,,,VFR,,,,,,,,,,,,SPECI,1086.0
KJAS 052215Z AUTO 35009KT 10SM SCT021 SCT070 OVC090 28/23 A2996 RMK AO2 T02840232,KJAS,2020-05-05T22:15:00Z,30.88,-94.03,28.4,23.2,350,9,,10.0,29.958662,,,TRUE,TRUE,,,,,,,SCT,2100,SCT,7000,OVC,9000,,,VFR,,,,,,,,,,,,SPECI,65.0
KJAU 052215Z AUTO 7.56000008G16KT 280V350 10SM FEW036 FEW042 22/15 A2980 RMK A01,KJAU,2020-05-05T22:15:00Z,36.33,-84.17,22.0,15.0,0,8,16,10.0,29.799213,,,TRUE,TRUE,,,,,,,FEW,3600,FEW,4200,,,,,VFR,,,,,,,,,,,,SPECI,360.0
KJOT 052215Z AUTO 07008KT 10SM -RA SCT016 OVC023 07/05 A2998 RMK AO2 P0001 T00720053,KJOT,2020-05-05T22:15:00Z,41.52,-88.18,7.2,5.3,70,8,,10.0,29.97933,,,TRUE,TRUE,,,,,,-RA,SCT,1600,OVC,2300,,,,,MVFR,,,,,,0.01,,,,,,SPECI,177.0
KJDD 052215Z AUTO 36008KT 330V030 10SM CLR 25/10 A3004 RMK AO2,KJDD,2020-05-05T22:15:00Z,32.75,-95.5,25.0,10.0,360,8,,10.0,30.041338,,,TRUE,TRUE,,,,,,,CLR,,,,,,,,VFR,,,,,,,,,,,,SPECI,132.0
KGCD 052215Z AUTO 18012G16KT 10SM SCT120 23/M02 A3005 RMK AO2 T02301023,KGCD,2020-05-05T22:15:00Z,44.38,-118.97,23.0,-2.3,180,12,16,10.0,30.050198,,,TRUE,TRUE,,,,,,,SCT,12000,,,,,,,VFR,,,,,,,,,,,,SPECI,1127.0
KJYR 052215Z AUTO 33017G27KT 10SM FEW090 19/M01 A3009 RMK AO2,KJYR,2020-05-05T22:15:00Z,40.9,-97.62,19.0,-1.0,330,17,27,10.0,30.088583,,,TRUE,TRUE,,,,,,,FEW,9000,,,,,,,VFR,,,,,,,,,,,,SPECI,509.0
KKNB 052215Z AUTO 00000KT 10SM CLR 27/M10 A3020 RMK A01,KKNB,2020-05-05T22:15:00Z,37.02,-112.53,27.0,-10.0,0,0,,10.0,30.200787,,,TRUE,TRUE,,,,,,,CLR,,,,,,,,VFR,,,,,,,,,,,,METAR,1484.0
KLCG 052215Z AUTO 34017G22KT 10SM SCT041 15/05 A3010 RMK AO2 T01530050,KLCG,2020-05-05T22:15:00Z,42.25,-96.98,15.3,5.0,340,17,22,10.0,30.100393,,,TRUE,TRUE,,,,,,,SCT,4100,,,,,,,VFR,,,,,,,,,,,,SPECI,436.0
KLAM 052215Z AUTO 18016G24KT 10SM CLR 20/M03 A3025 RMK AO2 T02011026,KLAM,2020-05-05T22:15:00Z,35.87,-106.27,20.1,-2.6,180,16,24,10.0,30.250984,,,TRUE,TRUE,,,,,,,CLR,,,,,,,,VFR,,,,,,,,,,,,SPECI,2179.0
KLOM 052215Z AUTO 24005KT 10SM OVC110 13/M02 A2988 RMK AO2 T01301020,KLOM,2020-05-05T22:15:00Z,40.13,-75.27,13.0,-2.0,240,5,,10.0,29.878937,,,TRUE,TRUE,,,,,,,OVC,11000,,,,,,,VFR,,,,,,,,,,,,SPECI,92.0
KLUG 052215Z AUTO 31009G16KT 280V360 10SM FEW033 FEW040 21/13 A2986 RMK A01,KLUG,2020-05-05T22:15:00Z,35.52,-86.8,21.0,13.0,310,9,16,10.0,29.861221,,,TRUE,TRUE,,,,,,,FEW,3300,FEW,4000,,,,,VFR,,,,,,,,,,,,SPECI,219.0
KLXN 052215Z AUTO 33013G18KT 10SM SCT090 SCT110 19/05 A3013 RMK AO2 T01920045,KLXN,2020-05-05T22:15:00Z,40.78,-99.77,19.2,4.5,330,13,18,10.0,30.129921,,,TRUE,TRUE,,,,,,,SCT,9000,SCT,11000,,,,,VFR,,,,,,,,,,,,SPECI,734.0
KM02 052215Z AUTO 31007G16KT 10SM SCT034 BKN043 19/11 A2988 RMK A01,KM02,2020-05-05T22:15:00Z,36.13,-87.43,19.0,11.0,310,7,16,10.0,29.878937,,,TRUE,TRUE,,,,,,,SCT,3400,BKN,4300,,,,,VFR,,,,,,,,,,,,SPECI,272.0
KCKP 052215Z AUTO 01008KT 10SM -DZ SCT028 SCT035 OVC042 10/08 A3009 RMK AO2 T00980077,KCKP,2020-05-05T22:15:00Z,42.73,-95.55,9.8,7.7,10,8,,10.0,30.088583,,,TRUE,TRUE,,,,,,-DZ,SCT,2800,SCT,3500,OVC,4200,,,VFR,,,,,,,,,,,,SPECI,374.0
KCGC 052215Z AUTO 25007KT 10SM CLR 26/17 A2995 RMK AO2,KCGC,2020-05-05T22:15:00Z,28.87,-82.57,26.0,17.0,250,7,,10.0,29.949802,,,TRUE,TRUE,,,,,,,CLR,,,,,,,,VFR,,,,,,,,,,,,SPECI,3.0
KM04 052215Z AUTO 31012KT 10SM CLR 22/12 A2991 RMK A01,KM04,2020-05-05T22:15:00Z,35.58,-89.58,22.0,12.0,310,12,,10.0,29.911417,,,TRUE,TRUE,,,,,,,CLR,,,,,,,,VFR,,,,,,,,,,,,SPECI,85.0
KM08 052215Z AUTO VRB06KT 10SM CLR 22/13 A2990 RMK A01,KM08,2020-05-05T22:15:00Z,35.22,-89.05,22.0,13.0,0,6,,10.0,29.899607,,,TRUE,TRUE,,,,,,,CLR,,,,,,,,VFR,,,,,,,,,,,,SPECI,152.0
KCLW 052215Z AUTO 31005KT 10SM CLR 25/18 A2996 RMK AO2,KCLW,2020-05-05T22:15:00Z,27.98,-82.75,25.0,18.0,310,5,,10.0,29.958662,,,TRUE,TRUE,,,,,,,CLR,,,,,,,,VFR,,,,,,,,,,,,SPECI,22.0
KCLS 052215Z AUTO 25003KT 10SM SCT065 BKN085 22/10 A3004 RMK AO2,KCLS,2020-05-05T22:15:00Z,46.68,-122.98,22.0,10.0,250,3,,10.0,30.041338,,,TRUE,TRUE,,,,,,,SCT,6500,BKN,8500,,,,,VFR,,,,,,,,,,,,METAR,54.0
KCKZ 052215Z AUTO 00000KT 10SM CLR 14/M05 A2988 RMK AO2,KCKZ,2020-05-05T22:15:00Z,40.38,-75.28,14.0,-5.0,0,0,,10.0,29.878937,,,TRUE,TRUE,,,,,,,CLR,,,,,,,,VFR,,,,,,,,,,,,METAR,173.0
KM75 052215Z AUTO VRB03G12KT 10SM FEW060 15/00 A3025 RMK A01,KM75,2020-05-05T22:15:00Z,48.37,-107.92,15.0,0.0,0,3,12,10.0,30.250984,,,TRUE,TRUE,,,,,,,FEW,6000,,,,,,,VFR,,,,,,,,,,,,SPECI,687.0
K06C 052215Z AUTO 05004KT 10SM SCT046 OVC050 08/00 A2998 RMK AO2 T00810002,K06C,2020-05-05T22:15:00Z,41.98,-88.1,8.1,0.2,50,4,,10.0,29.97933,,,TRUE,TRUE,,,,,,,SCT,4600,OVC,5000,,,,,VFR,,,,,,,,,,,,SPECI,244.0
K05U 052215Z AUTO 00000KT 10SM CLR 26/M16 A3016 RMK A01,K05U,2020-05-05T22:15:00Z,39.6,-116.0,26.0,-16.0,0,0,,10.0,30.159449,,,TRUE,TRUE,,,,,,,CLR,,,,,,,,VFR,,,,,,,,,,,,SPECI,1816.0
K0E0 052215Z AUTO 17008G15KT 10SM CLR 24/00 A3024 RMK AO2 T02350000,K0E0,2020-05-05T22:15:00Z,34.98,-106.0,23.5,0.0,170,8,15,10.0,30.239174,,,TRUE,TRUE,,,,,,,CLR,,,,,,,,VFR,,,,,,,,,,,,SPECI,1890.0
K0R0 052215Z AUTO 31006KT 10SM CLR 29/19 A2993 RMK AO2,K0R0,2020-05-05T22:15:00Z,31.3,-89.82,29.0,19.0,310,6,,10.0,29.929134,,,TRUE,TRUE,,,,,,,CLR,,,,,,,,VFR,,,,,,,,,,,,METAR,81.0
K18H 052215Z AUTO 08008KT 4SM HZ FEW014 BKN080 28/24 A2992 RMK A01,K18H,2020-05-05T22:15:00Z,26.13,-92.03,28.0,24.0,80,8,,4.0,29.920275,,,TRUE,TRUE,,,,,,HZ,FEW,1400,BKN,8000,,,,,MVFR,,,,,,,,,,,,METAR,10.0
K11R 052215Z AUTO 02011G19KT 10SM SCT037 SCT075 SCT100 25/19 A2998 RMK AO2 T02500190,K11R,2020-05-05T22:15:00Z,30.22,-96.37,25.0,19.0,20,11,19,10.0,29.97933,,,TRUE,TRUE,,,,,,,SCT,3700,SCT,7500,SCT,10000,,,VFR,,,,,,,,,,,,SPECI,94.0
K19S 052215Z AUTO 00000KT 10SM CLR 23/M05 A3015 RMK AO2 T02351054,K19S,2020-05-05T22:15:00Z,37.48,-100.83,23.5,-5.4,0,0,,10.0,30.15059,,,TRUE,TRUE,,,,,,,CLR,,,,,,,,VFR,,,,,,,,,,,,METAR,886.0
K1A6 052215Z AUTO 29009G17KT 270V340 10SM SCT033 BKN040 BKN048 22/15 A2978 RMK AO2 T02170154,K1A6,2020-05-05T22:15:00Z,36.62,-83.73,21.7,15.4,290,9,17,10.0,29.778543,,,TRUE,TRUE,,,,,,,SCT,3300,BKN,4000,BKN,4800,,,VFR,,,,,,,,,,,,METAR,352.0
K1M5 052215Z AUTO 29008G17KT 10SM BKN030 BKN036 BKN044 18/12 A2986 RMK A01,K1M5,2020-05-05T22:15:00Z,36.6,-86.48,18.0,12.0,290,8,17,10.0,29.861221,,,TRUE,TRUE,,,,,,,BKN,3000,BKN,3600,BKN,4400,,,MVFR,,,,,,,,,,,,METAR,250.0
KAUH 052215Z AUTO 33019G26KT 10SM SCT090 21/00 A3010 RMK AO2 T02061002,KAUH,2020-05-05T22:15:00Z,40.88,-98.0,20.6,-0.2,330,19,26,10.0,30.100393,,,TRUE,TRUE,,,,,,,SCT,9000,,,,,,,VFR,,,,,,,,,,,,SPECI,550.0
KATP 052215Z AUTO 00000KT 10SM FEW016 FEW022 FEW031 28/22 A2994 RMK A01,KATP,2020-05-05T22:15:00Z,27.2,-90.03,28.0,22.0,0,0,,10.0,29.940945,,,TRUE,TRUE,,,,,,,FEW,1600,FEW,2200,FEW,3100,,,VFR,,,,,,,,,,,,SPECI,62.0
KASL 052215Z AUTO 01010G14KT 10SM 26/12 A3002 RMK AO1 T02560124,KASL,2020-05-05T22:15:00Z,32.52,-94.3,25.6,12.4,10,10,14,10.0,30.02067,,,TRUE,TRUE,,,,,,,,,,,,,,,,,,,,,,,,,,,SPECI,109.0
KAHQ 052215Z AUTO 34026G33KT 10SM CLR 18/01 A3008 RMK AO2 T01780014,KAHQ,2020-05-05T22:15:00Z,41.23,-96.6,17.8,1.4,340,26,33,10.0,30.079725,,,TRUE,TRUE,,,,,,,CLR,,,,,,,,VFR,,,,,,,,,,,,SPECI,374.0
KAFK 052215Z AUTO 34025G37KT 10SM SCT065 SCT070 17/02 A3006 RMK AO2 T01740018,KAFK,2020-05-05T22:15:00Z,40.6,-95.85,17.4,1.8,340,25,37,10.0,30.059055,,,TRUE,TRUE,,,,,,,SCT,6500,SCT,7000,,,,,VFR,,,,,,,,,,,,SPECI,354.0
KCVH 052215Z AUTO 25014G19KT 10SM CLR 28/09 A3009 RMK A01,KCVH,2020-05-05T22:15:00Z,36.9,-121.42,28.0,9.0,250,14,19,10.0,30.088583,,,TRUE,TRUE,,,,,,,CLR,,,,,,,,VFR,,,,,,,,,,,,SPECI,70.0
KCTZ 052215Z AUTO 00000KT 10SM CLR 24/18 A2980 RMK AO2 T02420176,KCTZ,2020-05-05T22:15:00Z,34.98,-78.37,24.2,17.6,0,0,,10.0,29.799213,,,TRUE,TRUE,,,,,,,CLR,,,,,,,,VFR,,,,,,,,,,,,SPECI,45.0
KCSQ 052215Z AUTO 34019G26KT 10SM SCT023 BKN028 OVC036 12/08 A3001 RMK AO2,KCSQ,2020-05-05T22:15:00Z,41.02,-94.37,12.0,8.0,340,19,26,10.0,30.008858,,,TRUE,TRUE,,,,,,,SCT,2300,BKN,2800,OVC,3600,,,MVFR,,,,,,,,,,,,METAR,394.0
K21D 052215Z AUTO 03004KT 10SM CLR 15/M07 A3005 RMK AO2,K21D,2020-05-05T22:15:00Z,45.0,-92.85,15.0,-7.0,30,4,,10.0,30.050198,,,TRUE,TRUE,,,,,,,CLR,,,,,,,,VFR,,,,,,,,,,,,SPECI,285.0
K1U7 052215Z AUTO 00000G10KT 10SM CLR 17/M08 A3027 RMK A01,K1U7,2020-05-05T22:15:00Z,42.25,-111.33,17.0,-8.0,0,0,10,10.0,30.268702,,,TRUE,TRUE,,,,,,,CLR,,,,,,,,VFR,,,,,,,,,,,,METAR,1807.0
K2LS 052215Z AUTO 20008G13KT 170V230 10SM CLR 28/21 A2992 RMK AO2,K2LS,2020-05-05T22:15:00Z,29.42,-90.3,28.0,21.0,200,8,13,10.0,29.920275,,,TRUE,TRUE,,,,,,,CLR,,,,,,,,VFR,,,,,,,,,,,,METAR,-2.0
K2A0 052215Z AUTO 29010G16KT 10SM FEW050 26/16 A2979 RMK A01,K2A0,2020-05-05T22:15:00Z,35.48,-84.93,26.0,16.0,290,10,16,10.0,29.790354,,,TRUE,TRUE,,,,,,,FEW,5000,,,,,,,VFR,,,,,,,,,,,,METAR,219.0
K2M2 052215Z AUTO 30009G19KT 10SM BKN031 BKN037 20/13 A2987 RMK A01,K2M2,2020-05-05T22:15:00Z,35.23,-87.25,20.0,13.0,300,9,19,10.0,29.870079,,,TRUE,TRUE,,,,,,,BKN,3100,BKN,3700,,,,,VFR,,,,,,,,,,,,METAR,286.0
K33N 052215Z AUTO 00000KT 10SM 14/02 A2988 RMK A01,K33N,2020-05-05T22:15:00Z,39.22,-75.6,14.0,2.0,0,0,,10.0,29.878937,,,TRUE,TRUE,,,,,,,,,,,,,,,,,,,,,,,,,,,SPECI,17.0
K3AU 052215Z AUTO 32012G17KT 10SM CLR 22/02 A3009 RMK AO2,K3AU,2020-05-05T22:15:00Z,37.67,-97.08,22.0,2.0,320,12,17,10.0,30.088583,,,TRUE,TRUE,,,,,,,CLR,,,,,,,,VFR,,,,,,,,,,,,METAR,405.0
K3F3 052215Z AUTO 33008KT 10SM CLR 26/18 A3001 RMK AO2 T02620179,K3F3,2020-05-05T22:15:00Z,32.07,-93.77,26.2,17.9,330,8,,10.0,30.008858,,,TRUE,TRUE,,,,,,,CLR,,,,,,,,VFR,,,,,,,,,,,,METAR,96.0
K3K3 052215Z AUTO 00000KT 10SM CLR 24/M06 A3015 RMK AO2,K3K3,2020-05-05T22:15:00Z,38.0,-101.75,24.0,-6.0,0,0,,10.0,30.15059,,,TRUE,TRUE,,,,,,,CLR,,,,,,,,VFR,,,,,,,,,,,,METAR,1013.0
K3K8 052215Z AUTO 34008G14KT 10SM CLR 24/M03 A3015 RMK AO2,K3K8,2020-05-05T22:15:00Z,37.22,-99.33,24.0,-3.0,340,8,14,10.0,30.15059,,,TRUE,TRUE,,,,,,,CLR,,,,,,,,VFR,,,,,,,,,,,,METAR,636.0
K3R7 052215Z AUTO 33005KT 10SM SCT046 SCT060 31/21 A2990 RMK AO2 T03070205,K3R7,2020-05-05T22:15:00Z,30.25,-92.67,30.7,20.5,330,5,,10.0,29.899607,,,TRUE,TRUE,,,,,,,SCT,4600,SCT,6000,,,,,VFR,,,,,,,,,,,,METAR,7.0
K3S8 052215Z AUTO VRB06G17KT 180V240 10SM CLR 25/05 A3006 RMK AO2,K3S8,2020-05-05T22:15:00Z,42.5,-123.4,25.0,5.0,0,6,17,10.0,30.059055,,,TRUE,TRUE,,,,,,,CLR,,,,,,,,VFR,,,,,,,,,,,,SPECI,343.0
K40J 052215Z AUTO 23011G16KT 10SM CLR 27/20 A2992 RMK AO2 T02700195,K40J,2020-05-05T22:15:00Z,30.07,-83.57,27.0,19.5,230,11,16,10.0,29.920275,,,TRUE,TRUE,,,,,,,CLR,,,,,,,,VFR,,,,,,,,,,,,SPECI,13.0
K46U 052215Z AUTO 34006KT 10SM CLR 17/M05 A3028 RMK A01,K46U,2020-05-05T22:15:00Z,43.18,-111.05,17.0,-5.0,340,6,,10.0,30.280512,,,TRUE,TRUE,,,,,,,CLR,,,,,,,,VFR,,,,,,,,,,,,SPECI,1717.0
K48A 052215Z AUTO 23011G16KT 10SM CLR 30/16 A2983 RMK AO2 T03010163,K48A,2020-05-05T22:15:00Z,32.4,-83.27,30.1,16.3,230,11,16,10.0,29.828741,,,TRUE,TRUE,,,,,,,CLR,,,,,,,,VFR,,,,,,,,,,,,SPECI,115.0
K54A 052215Z AUTO 28005G13KT 10SM CLR 27/20 A2994 RMK AO2,K54A,2020-05-05T22:15:00Z,26.85,-82.25,27.0,20.0,280,5,13,10.0,29.940945,,,TRUE,TRUE,,,,,,,CLR,,,,,,,,VFR,,,,,,,,,,,,METAR,14.0
K4A9 052215Z AUTO 22008KT 10SM VCTS SCT012 SCT017 BKN085 21/19 A2984 RMK AO2 LTG DSNT E THRU S T02060194,K4A9,2020-05-05T22:15:00Z,34.47,-85.72,20.6,19.4,220,8,,10.0,29.840551,,,TRUE,TRUE,,,,,,VCTS,SCT,1200,SCT,1700,BKN,8500,,,VFR,,,,,,,,,,,,SPECI,267.0
K5A6 052215Z AUTO 10SM BKN024 OVC033 24/18 A2994 RMK AO2 T02370177,K5A6,2020-05-05T22:15:00Z,33.47,-89.73,23.7,17.7,,,,10.0,29.940945,,,TRUE,TRUE,,,,,,,BKN,2400,OVC,3300,,,,,MVFR,,,,,,,,,,,,SPECI,111.0
K5C1 052215Z AUTO 01014G20KT 10SM SCT040 SCT046 26/14 A3002 RMK AO1,K5C1,2020-05-05T22:15:00Z,29.72,-98.7,26.0,14.0,10,14,20,10.0,30.02067,,,TRUE,TRUE,,,,,,,SCT,4000,SCT,4600,,,,,VFR,,,,,,,,,,,,SPECI,423.0
K5T9 052215Z AUTO 02007G12KT 10SM FEW055 BKN080 32/19 A2992 RMK A01,K5T9,2020-05-05T22:15:00Z,28.85,-100.52,32.0,19.0,20,7,12,10.0,29.920275,,,TRUE,TRUE,,,,,,,FEW,5500,BKN,8000,,,,,VFR,,,,,,,,,,,,SPECI,270.0
K66R 052215Z AUTO 35011G15KT 10SM BKN046 BKN050 29/23 A2993 RMK AO2 T02860225,K66R,2020-05-05T22:15:00Z,29.65,-96.52,28.6,22.5,350,11,15,10.0,29.929134,,,TRUE,TRUE,,,,,,,BKN,4600,BKN,5000,,,,,VFR,,,,,,,,,,,,SPECI,74.0
KEGV 052215Z AUTO 31005KT 10SM CLR 12/M11 A3002 RMK AO2 T01171106,KEGV,2020-05-05T22:15:00Z,45.93,-89.27,11.7,-10.6,310,5,,10.0,30.02067,,,TRUE,TRUE,,,,,,,CLR,,,,,,,,VFR,,,,,,,,,,,,METAR,500.0
K1H2 052215Z AUTO 27012G15KT 10SM OVC019 12/11 A2992 RMK AO2 T01210106,K1H2,2020-05-05T22:15:00Z,39.07,-88.53,12.1,10.6,270,12,15,10.0,29.920275,,,TRUE,TRUE,,,,,,,OVC,1900,,,,,,,MVFR,,,,,,,,,,,,SPECI,179.0
K28J 052215Z AUTO 26010G14KT 10SM CLR 28/16 A2990 RMK AO2,K28J,2020-05-05T22:15:00Z,29.65,-81.68,28.0,16.0,260,10,14,10.0,29.899607,,,TRUE,TRUE,,,,,,,CLR,,,,,,,,VFR,,,,,,,,,,,,SPECI,9.0
K2G9 052215Z AUTO 09005KT 10SM OVC070 08/M02 A2983 RMK AO2,K2G9,2020-05-05T22:15:00Z,40.03,-79.02,8.0,-2.0,90,5,,10.0,29.828741,,,TRUE,TRUE,,,,,,,OVC,7000,,,,,,,VFR,,,,,,,,,,,,SPECI,693.0
K3N8 052215Z AUTO 35010KT 10SM -DZ BKN041 OVC050 09/04 A3011 RMK AO2 T00900042,K3N8,2020-05-05T22:15:00Z,47.25,-95.88,9.0,4.2,350,10,,10.0,30.109253,,,TRUE,TRUE,,,,,,-DZ,BKN,4100,OVC,5000,,,,,VFR,,,,,,,,,,,,SPECI,383.0
K2I0 052215Z AUTO 32008G15KT 10SM SCT025 SCT033 SCT045 16/09 A2993 RMK AO2 T01640090,K2I0,2020-05-05T22:15:00Z,37.35,-87.4,16.4,9.0,320,8,15,10.0,29.929134,,,TRUE,TRUE,,,,,,,SCT,2500,SCT,3300,SCT,4500,,,VFR,,,,,,,,,,,,SPECI,134.0
K4R5 052215Z AUTO 11004KT 10SM BKN110 06/00 A3008 RMK AO2 T00601002,K4R5,2020-05-05T22:15:00Z,46.78,-90.77,6.0,-0.2,110,4,,10.0,30.079725,,,TRUE,TRUE,,,,,,,BKN,11000,,,,,,,VFR,,,,,,,,,,,,SPECI,198.0
KUSE 052215Z AUTO 04011G18KT 10SM FEW070 FEW080 09/M05 A2992 RMK AO2,KUSE,2020-05-05T22:15:00Z,41.62,-84.13,9.0,-5.0,40,11,18,10.0,29.920275,,,TRUE,TRUE,,,,,,,FEW,7000,FEW,8000,,,,,VFR,,,,,,,,,,,,SPECI,238.0
KUCY 052215Z AUTO 28008G18KT 10SM CLR 21/13 A2989 RMK A01,KUCY,2020-05-05T22:15:00Z,36.38,-88.98,21.0,13.0,280,8,18,10.0,29.890747,,,TRUE,TRUE,,,,,,,CLR,,,,,,,,VFR,,,,,,,,,,,,SPECI,104.0
KU55 052215Z AUTO 01008KT 10SM CLR 22/M11 A3027 RMK A01,KU55,2020-05-05T22:15:00Z,,,22.0,-11.0,10,8,,10.0,30.268702,,,TRUE,TRUE,,,,,,,CLR,,,,,,,,VFR,,,,,,,,,,,,METAR,
K9MN 052215Z AUTO 00000KT 10SM SCT040 BKN048 OVC060 11/00 A3005 RMK AO1 T01140003,K9MN,2020-05-05T22:15:00Z,44.02,-92.48,11.4,0.3,0,0,,10.0,30.050198,,,TRUE,TRUE,,,,,,,SCT,4000,BKN,4800,OVC,6000,,,VFR,,,,,,,,,,,,METAR,355.0
K6P9 052215Z AUTO 04010KT 360V070 10SM CLR 26/05 A3010 RMK AO2 T02580047,K6P9,2020-05-05T22:15:00Z,32.43,-98.6,25.8,4.7,40,10,,10.0,30.100393,,,TRUE,TRUE,,,,,,,CLR,,,,,,,,VFR,,,,,,,,,,,,SPECI,449.0
K9V9 052215Z AUTO 29013G20KT 10SM SCT044 BKN050 BKN070 15/06 A3013 RMK AO2 T01450055,K9V9,2020-05-05T22:15:00Z,43.77,-99.32,14.5,5.5,290,13,20,10.0,30.129921,,,TRUE,TRUE,,,,,,,SCT,4400,BKN,5000,BKN,7000,,,VFR,,,,,,,,,,,,METAR,519.0
KAFO 052215Z AUTO 22003KT 10SM BKN100 15/M06 A3029 RMK AO2,KAFO,2020-05-05T22:15:00Z,42.72,-110.95,15.0,-6.0,220,3,,10.0,30.28937,,,TRUE,TRUE,,,,,,,BKN,10000,,,,,,,VFR,,,,,,,,,,,,SPECI,1897.0
KBDG 052215Z AUTO 22007KT 10SM 23/M11 A3028 RMK AO1 T02321107,KBDG,2020-05-05T22:15:00Z,37.58,-109.47,23.2,-10.7,220,7,,10.0,30.280512,,,TRUE,TRUE,,,,,,,,,,,,,,,,,,,,,,,,,,,SPECI,1788.0
KCCO 052215Z AUTO 26005KT 10SM CLR 29/20 A2985 RMK AO2 LTG DSNT N T02860195,KCCO,2020-05-05T22:15:00Z,33.32,-84.77,28.6,19.5,260,5,,10.0,29.84941,,,TRUE,TRUE,,,,,,,CLR,,,,,,,,VFR,,,,,,,,,,,,SPECI,296.0
KAVC 052215Z AUTO 00000KT 10SM OVC037 15/10 A2992 RMK AO2 T01460096,KAVC,2020-05-05T22:15:00Z,36.68,-78.03,14.6,9.6,0,0,,10.0,29.920275,,,TRUE,TRUE,,,,,,,OVC,3700,,,,,,,VFR,,,,,,,,,,,,METAR,135.0
KCEY 052215Z AUTO 34005KT 10SM SCT045 BKN060 19/11 A2990 RMK AO1,KCEY,2020-05-05T22:15:00Z,36.67,-88.37,19.0,11.0,340,5,,10.0,29.899607,,,TRUE,TRUE,,,,,,,SCT,4500,BKN,6000,,,,,VFR,,,,,,,,,,,,SPECI,176.0
KCLI 052215Z AUTO 07007KT 10SM SCT120 13/M08 A3003 RMK AO2 T01251083,KCLI,2020-05-05T22:15:00Z,44.62,-88.73,12.5,-8.3,70,7,,10.0,30.029528,,,TRUE,TRUE,,,,,,,SCT,12000,,,,,,,VFR,,,,,,,,,,,,METAR,250.0
KCKF 052215Z AUTO 27011KT 10SM SCT050 30/17 A2985 RMK AO2 T02990170,KCKF,2020-05-05T22:15:00Z,31.98,-83.77,29.9,17.0,270,11,,10.0,29.84941,,,TRUE,TRUE,,,,,,,SCT,5000,,,,,,,VFR,,,,,,,,,,,,SPECI,91.0
KOLG 052215Z AUTO 01007KT 340V040 10SM CLR 12/M02 A3005 RMK AO1,KOLG,2020-05-05T22:15:00Z,46.3,-91.82,12.0,-2.0,10,7,,10.0,30.050198,,,TRUE,TRUE,,,,,,,CLR,,,,,,,,VFR,,,,,,,,,,,,SPECI,336.0
KCQB 052215Z AUTO 01003KT 10SM CLR 24/04 A3010 RMK AO2 T02360045,KCQB,2020-05-05T22:15:00Z,35.72,-96.82,23.6,4.5,10,3,,10.0,30.100393,,,TRUE,TRUE,,,,,,,CLR,,,,,,,,VFR,,,,,,,,,,,,SPECI,300.0
KC29 052215Z AUTO 12003KT 10SM SCT044 OVC050 11/01 A3000 RMK AO1 T01120013,KC29,2020-05-05T22:15:00Z,43.12,-89.53,11.2,1.3,120,3,,10.0,30.0,,,TRUE,TRUE,,,,,,,SCT,4400,OVC,5000,,,,,VFR,,,,,,,,,,,,METAR,283.0
KBYL 052215Z AUTO 30010G17KT 10SM BKN020 OVC027 17/14 A2982 RMK AO1,KBYL,2020-05-05T22:15:00Z,36.8,-84.2,17.0,14.0,300,10,17,10.0,29.819881,,,TRUE,TRUE,,,,,,,BKN,2000,OVC,2700,,,,,MVFR,,,,,,,,,,,,METAR,359.0
KCQF 052215Z AUTO 21003KT 10SM CLR 25/18 A2990 RMK AO2,KCQF,2020-05-05T22:15:00Z,30.47,-87.88,25.0,18.0,210,3,,10.0,29.899607,,,TRUE,TRUE,,,,,,,CLR,,,,,,,,VFR,,,,,,,,,,,,SPECI,28.0
KCVC 052215Z AUTO 27007KT 240V300 10SM SCT046 SCT055 SCT070 26/18 A2982 RMK AO2 LTG DSNT NW PNO,KCVC,2020-05-05T22:15:00Z,33.63,-83.85,26.0,18.0,270,7,,10.0,29.819881,,,TRUE,TRUE,,,,,,,SCT,4600,SCT,5500,SCT,7000,,,VFR,,,,,,,,,,,,SPECI,247.0
KJAQ 052215Z AUTO 27005KT 10SM CLR 26/01 A3011 RMK AO1 T02590007,KJAQ,2020-05-05T22:15:00Z,38.37,-120.8,25.9,0.7,270,5,,10.0,30.109253,,,TRUE,TRUE,,,,,,,CLR,,,,,,,,VFR,,,,,,,,,,,,SPECI,512.0
KJSO 052215Z AUTO 02009G15KT 10SM CLR 26/15 A3003 RMK AO2 T02580152,KJSO,2020-05-05T22:15:00Z,31.87,-95.22,25.8,15.2,20,9,15,10.0,30.029528,,,TRUE,TRUE,,,,,,,CLR,,,,,,,,VFR,,,,,,,,,,,,SPECI,206.0
KJVY 052215Z AUTO 33007KT 5SM BR BKN010 OVC013 10/09 A2987 RMK AO2 T01000088,KJVY,2020-05-05T22:15:00Z,38.37,-85.73,10.0,8.8,330,7,,5.0,29.870079,,,TRUE,TRUE,,,,,,BR,BKN,1000,OVC,1300,,,,,MVFR,,,,,,,,,,,,METAR,145.0
KKY8 052215Z AUTO 28009G15KT 10SM BKN019 OVC023 13/13 A2990 RMK A01,KKY8,2020-05-05T22:15:00Z,37.95,-86.87,13.0,13.0,280,9,15,10.0,29.899607,,,TRUE,TRUE,,,,,,,BKN,1900,OVC,2300,,,,,MVFR,,,,,,,,,,,,SPECI,126.0
KLKU 052215Z AUTO 00000KT 10SM OVC021 11/08 A2992 RMK AO2 T01100075,KLKU,2020-05-05T22:15:00Z,38.02,-77.97,11.0,7.5,0,0,,10.0,29.920275,,,TRUE,TRUE,,,,,,,OVC,2100,,,,,,,MVFR,,,,,,,,,,,,METAR,150.0
KLVL 052215Z AUTO 08004KT 10SM OVC039 15/09 A2987 RMK AO1 T01470090,KLVL,2020-05-05T22:15:00Z,36.78,-77.8,14.7,9.0,80,4,,10.0,29.870079,,,TRUE,TRUE,,,,,,,OVC,3900,,,,,,,VFR,,,,,,,,,,,,METAR,100.0
KMVN 052215Z AUTO VRB06KT 10SM SCT028 BKN035 16/10 A2991 RMK AO2,KMVN,2020-05-05T22:15:00Z,38.32,-88.87,16.0,10.0,0,6,,10.0,29.911417,,,TRUE,TRUE,,,,,,,SCT,2800,BKN,3500,,,,,VFR,,,,,,,,,,,,METAR,146.0
KDCY 052215Z AUTO 36006KT 4SM -DZ BKN006 OVC009 10/09 A2989 RMK AO2 T00950093,KDCY,2020-05-05T22:15:00Z,38.7,-87.13,9.5,9.3,360,6,,4.0,29.890747,,,TRUE,TRUE,,,,,,-DZ,BKN,600,OVC,900,,,,,IFR,,,,,,,,,,,,SPECI,144.0
KD73 052215Z AUTO 29007KT 10SM SCT042 SCT060 SCT070 27/20 A2982 RMK AO2 T02690196,KD73,2020-05-05T22:15:00Z,33.78,-83.7,26.9,19.6,290,7,,10.0,29.819881,,,TRUE,TRUE,,,,,,,SCT,4200,SCT,6000,SCT,7000,,,VFR,,,,,,,,,,,,SPECI,267.0
KDUA 052215Z AUTO 03010KT 10SM CLR 25/03 A3010 RMK AO2,KDUA,2020-05-05T22:15:00Z,33.95,-96.4,25.0,3.0,30,10,,10.0,30.100393,,,TRUE,TRUE,,,,,,,CLR,,,,,,,,VFR,,,,,,,,,,,,SPECI,213.0
KDUB 052215Z AUTO 34010G23KT 325V025 10SM SCT085 13/M10 A3029 RMK AO2,KDUB,2020-05-05T22:15:00Z,43.55,-109.68,13.0,-10.0,340,10,23,10.0,30.28937,,,TRUE,TRUE,,,,,,,SCT,8500,,,,,,,VFR,,,,,,,,,,,,SPECI,2224.0
KE38 052215Z AUTO 07014G18KT 10SM CLR 26/04 A3021 RMK AO2 T02560037,KE38,2020-05-05T22:15:00Z,30.38,-103.68,25.6,3.7,70,14,18,10.0,30.209646,,,TRUE,TRUE,,,,,,,CLR,,,,,,,,VFR,,,,,,,,,,,,SPECI,1376.0
KEBG 052215Z AUTO 11013G24KT 1/2SM HZ SCT044 OVC060 35/19 A2981 RMK AO2 T03450189,KEBG,2020-05-05T22:15:00Z,26.45,-98.13,34.5,18.9,110,13,24,0.5,29.811024,,,TRUE,TRUE,,,,,,HZ,SCT,4400,OVC,6000,,,,,LIFR,,,,,,,,,,,,SPECI,24.0
KFFA 052215Z AUTO 06007G14KT 10SM SCT023 BKN029 OVC036 12/07 A2986 RMK AO2 T01200067,KFFA,2020-05-05T22:15:00Z,36.02,-75.67,12.0,6.7,60,7,14,10.0,29.861221,,,TRUE,TRUE,,,,,,,SCT,2300,BKN,2900,OVC,3600,,,MVFR,,,,,,,,,,,,SPECI,4.0
KFLY 052215Z AUTO 16008G15KT 150V210 10SM CLR 18/M06 A3025 RMK AO2 T01771065,KFLY,2020-05-05T22:15:00Z,38.95,-104.57,17.7,-6.5,160,8,15,10.0,30.250984,,,TRUE,TRUE,,,,,,,CLR,,,,,,,,VFR,,,,,,,,,,,,SPECI,2096.0
KFRR 052215Z AUTO 00000KT 10SM BKN026 BKN041 OVC050 11/07 A2984 RMK AO1,KFRR,2020-05-05T22:15:00Z,38.92,-78.25,11.0,7.0,0,0,,10.0,29.840551,,,TRUE,TRUE,,,,,,,BKN,2600,BKN,4100,OVC,5000,,,MVFR,,,,,,,,,,,,SPECI,216.0
KFVX 052215Z AUTO 00000KT 10SM OVC035 14/09 A2986 RMK AO2 T01370086,KFVX,2020-05-05T22:15:00Z,37.35,-78.42,13.7,8.6,0,0,,10.0,29.861221,,,TRUE,TRUE,,,,,,,OVC,3500,,,,,,,VFR,,,,,,,,,,,,SPECI,125.0
RKJB 052215Z 03011KT 6000 FEW025 17/15 Q1012 NOSIG,RKJB,2020-05-05T22:15:00Z,34.98,126.38,17.0,15.0,30,11,,3.73,29.88189,,,,,,TRUE,,,,,FEW,2500,,,,,,,MVFR,,,,,,,,,,,,SPECI,2.0
KARV 052215Z AUTO 25004KT 10SM SCT075 OVC090 14/M09 A3002 RMK AO2 T01381086,KARV,2020-05-05T22:15:00Z,45.92,-89.72,13.8,-8.6,250,4,,10.0,30.02067,,,TRUE,TRUE,,,,,,,SCT,7500,OVC,9000,,,,,VFR,,,,,,,,,,,,SPECI,496.0
KASW 052215Z AUTO 08010KT 10SM -RA OVC050 05/01 A2994 RMK AO2,KASW,2020-05-05T22:15:00Z,41.27,-85.83,5.0,1.0,80,10,,10.0,29.940945,,,TRUE,TRUE,,,,,,-RA,OVC,5000,,,,,,,VFR,,,,,,,,,,,,SPECI,259.0
KFWC 052215Z AUTO 30004KT 10SM SCT026 SCT031 15/09 A2990 RMK AO1 T01450093,KFWC,2020-05-05T22:15:00Z,38.38,-88.42,14.5,9.3,300,4,,10.0,29.899607,,,TRUE,TRUE,,,,,,,SCT,2600,SCT,3100,,,,,VFR,,,,,,,,,,,,SPECI,133.0
KFZG 052215Z AUTO 26005G14KT 10SM SCT050 30/19 A2988 RMK AO2 T03030187 PWINO,KFZG,2020-05-05T22:15:00Z,31.68,-83.27,30.3,18.7,260,5,14,10.0,29.878937,,,TRUE,TRUE,,,,,TRUE,,SCT,5000,,,,,,,VFR,,,,,,,,,,,,SPECI,111.0
KGGP 052215Z AUTO 06007KT 7SM RA OVC010 05/04 A2994 RMK AO2,KGGP,2020-05-05T22:15:00Z,40.72,-86.37,5.0,4.0,60,7,,7.0,29.940945,,,TRUE,TRUE,,,,,,RA,OVC,1000,,,,,,,MVFR,,,,,,,,,,,,SPECI,225.0
KGWB 052215Z AUTO 04012G19KT 10SM -RA SCT019 BKN027 OVC041 06/00 A2995 RMK AO2,KGWB,2020-05-05T22:15:00Z,41.3,-85.07,6.0,0.0,40,12,19,10.0,29.949802,,,TRUE,TRUE,,,,,,-RA,SCT,1900,BKN,2700,OVC,4100,,,MVFR,,,,,,,,,,,,SPECI,269.0
KHHG 052215Z AUTO 04011G15KT 10SM -RA BKN046 OVC055 05/02 A2992 RMK AO2 T00520021,KHHG,2020-05-05T22:15:00Z,40.85,-85.45,5.2,2.1,40,11,15,10.0,29.920275,,,TRUE,TRUE,,,,,,-RA,BKN,4600,OVC,5500,,,,,VFR,,,,,,,,,,,,SPECI,246.0
KGLE 052215Z AUTO 01009KT 10SM SCT110 24/06 A3012 RMK AO2 T02410061 PWINO,KGLE,2020-05-05T22:15:00Z,33.65,-97.2,24.1,6.1,10,9,,10.0,30.121063,,,TRUE,TRUE,,,,,TRUE,,SCT,11000,,,,,,,VFR,,,,,,,,,,,,SPECI,256.0
KIKK 052215Z AUTO 05004KT 10SM SCT022 SCT030 OVC036 07/05 A2996 RMK AO2 T00700045,KIKK,2020-05-05T22:15:00Z,41.07,-87.85,7.0,4.5,50,4,,10.0,29.958662,,,TRUE,TRUE,,,,,,,SCT,2200,SCT,3000,OVC,3600,,,VFR,,,,,,,,,,,,SPECI,192.0
KIJX 052215Z AUTO 32008KT 10SM SCT016 BKN038 OVC049 11/09 A2992 RMK AO2 T01140086,KIJX,2020-05-05T22:15:00Z,39.77,-90.25,11.4,8.6,320,8,,10.0,29.920275,,,TRUE,TRUE,,,,,,,SCT,1600,BKN,3800,OVC,4900,,,VFR,,,,,,,,,,,,SPECI,190.0
KIDP 052215Z AUTO 33015KT 10SM CLR 24/04 A3007 RMK AO2 T02350036,KIDP,2020-05-05T22:15:00Z,37.17,-95.78,23.5,3.6,330,15,,10.0,30.070866,,,TRUE,TRUE,,,,,,,CLR,,,,,,,,VFR,,,,,,,,,,,,SPECI,251.0
KHII 052215Z AUTO 33005KT 10SM CLR 37/M08 A2986 RMK AO2,KHII,2020-05-05T22:15:00Z,34.57,-114.37,37.0,-8.0,330,5,,10.0,29.861221,,,TRUE,TRUE,,,,,,,CLR,,,,,,,,VFR,,,,,,,,,,,,SPECI,238.0
KJSV 052215Z AUTO 32006KT 10SM CLR 23/06 A3007 RMK AO2,KJSV,2020-05-05T22:15:00Z,35.43,-94.8,23.0,6.0,320,6,,10.0,30.070866,,,TRUE,TRUE,,,,,,,CLR,,,,,,,,VFR,,,,,,,,,,,,SPECI,161.0
KJKA 052215Z AUTO 26008G15KT 10SM CLR 27/18 A2989 RMK AO2 T02650183,KJKA,2020-05-05T22:15:00Z,30.28,-87.67,26.5,18.3,260,8,15,10.0,29.890747,,,TRUE,TRUE,,,,,,,CLR,,,,,,,,VFR,,,,,,,,,,,,SPECI,5.0
KIOB 052215Z AUTO 32005KT 4SM BR OVC004 10/10 A2984 RMK AO2,KIOB,2020-05-05T22:15:00Z,38.05,-83.98,10.0,10.0,320,5,,4.0,29.840551,,,TRUE,TRUE,,,,,,BR,OVC,400,,,,,,,LIFR,,,,,,,,,,,,SPECI,311.0
KHQU 052215Z AUTO 30009KT 270V330 10SM CLR 28/18 A2979 RMK AO2 T02840179,KHQU,2020-05-05T22:15:00Z,33.53,-82.52,28.4,17.9,300,9,,10.0,29.790354,,,TRUE,TRUE,,,,,,,CLR,,,,,,,,VFR,,,,,,,,,,,,METAR,152.0
KLNN 052215Z AUTO 07010G22KT 10SM CLR 07/M07 A2989 RMK AO1 T00681074,KLNN,2020-05-05T22:15:00Z,41.67,-81.37,6.8,-7.4,70,10,22,10.0,29.890747,,,TRUE,TRUE,,,,,,,CLR,,,,,,,,VFR,,,,,,,,,,,,SPECI,191.0
KLGC 052215Z AUTO 25006KT 10SM CLR 27/16 A2985 RMK AO2 LTG DSNT N AND NE T02730161,KLGC,2020-05-05T22:15:00Z,33.0,-85.07,27.3,16.1,250,6,,10.0,29.84941,,,TRUE,TRUE,,,,,,,CLR,,,,,,,,VFR,,,,,,,,,,,,SPECI,211.0
KLOT 052215Z AUTO 07009KT 10SM RA SCT013 BKN018 OVC025 06/04 A2998 RMK AO2 T00590042,KLOT,2020-05-05T22:15:00Z,41.6,-88.1,5.9,4.2,70,9,,10.0,29.97933,,,TRUE,TRUE,,,,,,RA,SCT,1300,BKN,1800,OVC,2500,,,MVFR,,,,,,,,,,,,SPECI,205.0
KLNQ 052215Z AUTO 20008KT 10SM 27/20 A2993 RMK AO2 T02700197,KLNQ,2020-05-05T22:15:00Z,29.35,-89.43,27.0,19.7,200,8,,10.0,29.929134,,,TRUE,TRUE,,,,,,,,,,,,,,,,,,,,,,,,,,,SPECI,1.0
KM30 052215Z AUTO 33009G15KT 10SM SCT041 SCT048 SCT050 A2992 RMK AO2,KM30,2020-05-05T22:15:00Z,37.18,-88.75,,,330,9,15,10.0,29.920275,,,TRUE,TRUE,,,,,,,SCT,4100,SCT,4800,SCT,5000,,,VFR,,,,,,,,,,,,SPECI,117.0
KMDQ 052215Z AUTO 31008KT 10SM SCT030 21/16 A2986 RMK A02 LTG DSNT E T02140157,KMDQ,2020-05-05T22:15:00Z,34.87,-86.55,21.4,15.7,310,8,,10.0,29.861221,,,TRUE,TRUE,,,,,,,SCT,3000,,,,,,,VFR,,,,,,,,,,,,SPECI,230.0
KMDS 052215Z AUTO 33010KT 10SM FEW018 SCT030 OVC040 08/08 A3012 RMK AO2,KMDS,2020-05-05T22:15:00Z,44.02,-97.08,8.0,8.0,330,10,,10.0,30.121063,,,TRUE,TRUE,,,,,,,FEW,1800,SCT,3000,OVC,4000,,,VFR,,,,,,,,,,,,SPECI,524.0
KMGR 052215Z AUTO 26010KT 10SM CLR 30/17 A2987 RMK AO2,KMGR,2020-05-05T22:15:00Z,31.08,-83.8,30.0,17.0,260,10,,10.0,29.870079,,,TRUE,TRUE,,,,,,,CLR,,,,,,,,VFR,,,,,,,,,,,,SPECI,90.0
KMHP 052215Z AUTO 23008KT 200V260 10SM CLR 30/16 A2981 RMK AO2 T02990161,KMHP,2020-05-05T22:15:00Z,32.37,-82.08,29.9,16.1,230,8,,10.0,29.811024,,,TRUE,TRUE,,,,,,,CLR,,,,,,,,VFR,,,,,,,,,,,,SPECI,60.0
KAEJ 052215Z AUTO 30020G28KT 10SM CLR 18/M22 A3025 RMK AO2 T01831222,KAEJ,2020-05-05T22:15:00Z,38.82,-106.12,18.3,-22.2,300,20,28,10.0,30.250984,,,TRUE,TRUE,,,,,,,CLR,,,,,,,,VFR,,,,,,,,,,,,SPECI,2422.0
K9A5 052215Z AUTO 24003KT 7SM SCT040 SCT090 SCT120 20/19 A2985 RMK AO2 T02000193,K9A5,2020-05-05T22:15:00Z,34.68,-85.28,20.0,19.3,240,3,,7.0,29.84941,,,TRUE,TRUE,,,,,,,SCT,4000,SCT,9000,SCT,12000,,,VFR,,,,,,,,,,,,SPECI,237.0
K8A3 052215Z AUTO 30007G13KT 10SM SCT025 SCT031 17/13 A2984 RMK A01,K8A3,2020-05-05T22:15:00Z,36.42,-85.32,17.0,13.0,300,7,13,10.0,29.840551,,,TRUE,TRUE,,,,,,,SCT,2500,SCT,3100,,,,,VFR,,,,,,,,,,,,SPECI,419.0
KMKS 052215Z AUTO 25006KT 10SM SCT070 30/16 A2977 RMK AO2,KMKS,2020-05-05T22:15:00Z,33.18,-80.03,30.0,16.0,250,6,,10.0,29.769686,,,TRUE,TRUE,,,,,,,SCT,7000,,,,,,,VFR,,,,,,,,,,,,SPECI,23.0
KMPZ 052215Z AUTO 04006KT 7SM -DZ SCT007 BKN010 OVC023 08/08 A2995 RMK AO2,KMPZ,2020-05-05T22:15:00Z,40.95,-91.52,8.0,8.0,40,6,,7.0,29.949802,,,TRUE,TRUE,,,,,,-DZ,SCT,700,BKN,1000,OVC,2300,,,MVFR,,,,,,,,,,,,SPECI,224.0
KMZZ 052215Z AUTO 04014G20KT 10SM OVC050 06/04 A2990 RMK AO2 T00610041,KMZZ,2020-05-05T22:15:00Z,40.48,-85.68,6.1,4.1,40,14,20,10.0,29.899607,,,TRUE,TRUE,,,,,,,OVC,5000,,,,,,,VFR,,,,,,,,,,,,SPECI,262.0
KMYZ 052215Z AUTO 33023G33KT 10SM SCT100 21/00 A3006 RMK AO2,KMYZ,2020-05-05T22:15:00Z,39.85,-96.63,21.0,0.0,330,23,33,10.0,30.059055,,,TRUE,TRUE,,,,,,,SCT,10000,,,,,,,VFR,,,,,,,,,,,,SPECI,319.0
KOCQ 052215Z AUTO 11008KT 10SM CLR 10/M03 A3006 RMK AO1 T00991033,KOCQ,2020-05-05T22:15:00Z,44.87,-87.92,9.9,-3.3,110,8,,10.0,30.059055,,,TRUE,TRUE,,,,,,,CLR,,,,,,,,VFR,,,,,,,,,,,,SPECI,183.0
KBCK 052215Z AUTO 28004KT 10SM SCT060 OVC065 14/00 A3001 RMK AO2 T01380000,KBCK,2020-05-05T22:15:00Z,44.25,-90.85,13.8,0.0,280,4,,10.0,30.008858,,,TRUE,TRUE,,,,,,,SCT,6000,OVC,6500,,,,,VFR,,,,,,,,,,,,SPECI,255.0
KOLE 052215Z AUTO 05007KT 10SM CLR 09/M05 A2988 RMK AO2,KOLE,2020-05-05T22:15:00Z,42.23,-78.37,9.0,-5.0,50,7,,10.0,29.878937,,,TRUE,TRUE,,,,,,,CLR,,,,,,,,VFR,,,,,,,,,,,,SPECI,651.0
KBGE 052215Z AUTO 27012KT 10SM SCT055 30/18 A2986 RMK AO2 T03040177,KBGE,2020-05-05T22:15:00Z,30.97,-84.63,30.4,17.7,270,12,,10.0,29.861221,,,TRUE,TRUE,,,,,,,SCT,5500,,,,,,,VFR,,,,,,,,,,,,METAR,43.0
KPVW 052215Z AUTO 09010KT 060V130 10SM CLR 22/M04 A3018 RMK AO2 T02211037,KPVW,2020-05-05T22:15:00Z,34.17,-101.72,22.1,-3.7,90,10,,10.0,30.180119,,,TRUE,TRUE,,,,,,,CLR,,,,,,,,VFR,,,,,,,,,,,,SPECI,1028.0
KPTT 052215Z AUTO 33008G16KT 10SM CLR 24/M03 A3013 RMK AO2 T02361027,KPTT,2020-05-05T22:15:00Z,37.7,-98.75,23.6,-2.7,330,8,16,10.0,30.129921,,,TRUE,TRUE,,,,,,,CLR,,,,,,,,VFR,,,,,,,,,,,,SPECI,595.0
KBNL 052215Z AUTO 21007G15KT 170V240 10SM CLR 30/16 A2978 RMK AO2 LTG DSNT N AND NW,KBNL,2020-05-05T22:15:00Z,33.25,-81.38,30.0,16.0,210,7,15,10.0,29.778543,,,TRUE,TRUE,,,,,,,CLR,,,,,,,,VFR,,,,,,,,,,,,METAR,75.0
KBQK 052215Z AUTO 23014G20KT 10SM CLR 31/17 A2983 RMK AO2 T03090175,KBQK,2020-05-05T22:15:00Z,31.25,-81.47,30.9,17.5,230,14,20,10.0,29.828741,,,TRUE,TRUE,,,,,,,CLR,,,,,,,,VFR,,,,,,,,,,,,METAR,8.0
KBUU 052215Z AUTO 04008KT 10SM SCT040 SCT090 08/M02 A3001 RMK AO2 T00761024,KBUU,2020-05-05T22:15:00Z,42.68,-88.3,7.6,-2.4,40,8,,10.0,30.008858,,,TRUE,TRUE,,,,,,,SCT,4000,SCT,9000,,,,,VFR,,,,,,,,,,,,SPECI,237.0
KBTA 052215Z AUTO 33016G28KT 10SM SCT036 14/06 A3008 RMK AO2 T01420056,KBTA,2020-05-05T22:15:00Z,41.42,-96.12,14.2,5.6,330,16,28,10.0,30.079725,,,TRUE,TRUE,,,,,,,SCT,3600,,,,,,,VFR,,,,,,,,,,,,SPECI,396.0
KC09 052215Z AUTO 07007KT 030V090 10SM -RA SCT014 BKN018 OVC029 07/05 A2997 RMK AO2 P0001 T00680054,KC09,2020-05-05T22:15:00Z,41.43,-88.42,6.8,5.4,70,7,,10.0,29.970472,,,TRUE,TRUE,,,,,,-RA,SCT,1400,BKN,1800,OVC,2900,,,MVFR,,,,,,0.01,,,,,,SPECI,178.0
KBWW 052215Z AUTO 32018KT 10SM FEW070 SCT085 12/01 A3021 RMK AO2,KBWW,2020-05-05T22:15:00Z,46.17,-103.3,12.0,1.0,320,18,,10.0,30.209646,,,TRUE,TRUE,,,,,,,FEW,7000,SCT,8500,,,,,VFR,,,,,,,,,,,,SPECI,910.0
KOQN 052215Z AUTO 00000KT 10SM SCT120 13/M05 A2988 RMK AO2,KOQN,2020-05-05T22:15:00Z,39.98,-75.58,13.0,-5.0,0,0,,10.0,29.878937,,,TRUE,TRUE,,,,,,,SCT,12000,,,,,,,VFR,,,,,,,,,,,,SPECI,142.0
K1K1 052215Z AUTO 33011G17KT 10SM CLR 23/01 A3010 RMK AO2 T02260006,K1K1,2020-05-05T22:15:00Z,37.77,-97.12,22.6,0.6,330,11,17,10.0,30.100393,,,TRUE,TRUE,,,,,,,CLR,,,,,,,,VFR,,,,,,,,,,,,SPECI,416.0
KX26 052215Z AUTO 09011KT 10SM SCT060 28/22 A2991 RMK AO2 T02810219,KX26,2020-05-05T22:15:00Z,27.82,-80.5,28.1,21.9,90,11,,10.0,29.911417,,,TRUE,TRUE,,,,,,,SCT,6000,,,,,,,VFR,,,,,,,,,,,,METAR,6.0
KX26 052215Z AUTO 09011KT 10SM SCT060 28/22 A2991 RMK AO2 T02810219,KX26,2020-05-05T22:15:00Z,27.82,-80.5,28.1,21.9,90,11,,10.0,29.911417,,,TRUE,TRUE,,,,,,,SCT,6000,,,,,,,VFR,,,,,,,,,,,,METAR,6.0
KCBK 052215Z AUTO 33012G18KT 10SM CLR 23/M08 A3014 RMK AO2 PWINO,KCBK,2020-05-05T22:15:00Z,39.43,-101.05,23.0,-8.0,330,12,18,10.0,30.138779,,,TRUE,TRUE,,,,,TRUE,,CLR,,,,,,,,VFR,,,,,,,,,,,,METAR,971.0
KCHK 052215Z AUTO 05007KT 10SM CLR 25/02 A3009 RMK AO2 T02480024,KCHK,2020-05-05T22:15:00Z,35.1,-97.97,24.8,2.4,50,7,,10.0,30.088583,,,TRUE,TRUE,,,,,,,CLR,,,,,,,,VFR,,,,,,,,,,,,METAR,351.0
KCJR 052215Z AUTO 22003KT 10SM OVC050 10/06 A2990 RMK AO2 T00960064,KCJR,2020-05-05T22:15:00Z,38.53,-77.87,9.6,6.4,220,3,,10.0,29.899607,,,TRUE,TRUE,,,,,,,OVC,5000,,,,,,,VFR,,,,,,,,,,,,METAR,97.0
KCMY 052215Z AUTO 17004KT 10SM SCT049 SCT120 13/03 A3002 RMK AO2 T01260026,KCMY,2020-05-05T22:15:00Z,43.97,-90.73,12.6,2.6,170,4,,10.0,30.02067,,,TRUE,TRUE,,,,,,,SCT,4900,SCT,12000,,,,,VFR,,,,,,,,,,,,SPECI,256.0
KSYF 052215Z AUTO 31010G15KT 10SM CLR 22/M07 A3014 RMK AO2 T02211074 PWINO,KSYF,2020-05-05T22:15:00Z,39.77,-101.8,22.1,-7.4,310,10,15,10.0,30.138779,,,TRUE,TRUE,,,,,TRUE,,CLR,,,,,,,,VFR,,,,,,,,,,,,METAR,1025.0
KRZN 052215Z AUTO 03010G16KT 10SM CLR 14/M02 A3004 RMK AO2 T01441016,KRZN,2020-05-05T22:15:00Z,45.82,-92.37,14.4,-1.6,30,10,16,10.0,30.041338,,,TRUE,TRUE,,,,,,,CLR,,,,,,,,VFR,,,,,,,,,,,,SPECI,301.0
KSBS 052215Z AUTO 25008G18KT 10SM CLR 15/M07 A3028 RMK AO1 T01471071,KSBS,2020-05-05T22:15:00Z,40.52,-106.87,14.7,-7.1,250,8,18,10.0,30.280512,,,TRUE,TRUE,,,,,,,CLR,,,,,,,,VFR,,,,,,,,,,,,SPECI,2096.0
KSCR 052215Z AUTO 04003KT 10SM OVC032 20/15 A2980 RMK AO2 T01960147,KSCR,2020-05-05T22:15:00Z,35.7,-79.5,19.6,14.7,40,3,,10.0,29.799213,,,TRUE,TRUE,,,,,,,OVC,3200,,,,,,,VFR,,,,,,,,,,,,SPECI,188.0
KSEF 052215Z AUTO 30006KT 10SM CLR 31/17 A2991 RMK AO2 T03130171,KSEF,2020-05-05T22:15:00Z,27.45,-81.35,31.3,17.1,300,6,,10.0,29.911417,,,TRUE,TRUE,,,,,,,CLR,,,,,,,,VFR,,,,,,,,,,,,SPECI,19.0
KSFY 052215Z AUTO 06010G14KT 7SM -RA SCT014 SCT021 OVC031 07/06 A3000 RMK AO2,KSFY,2020-05-05T22:15:00Z,42.05,-90.12,7.0,6.0,60,10,14,7.0,30.0,,,TRUE,TRUE,,,,,,-RA,SCT,1400,SCT,2100,OVC,3100,,,VFR,,,,,,,,,,,,METAR,188.0
KSHD 052215Z AUTO 15007KT 10SM OVC038 10/06 A2987 RMK AO2 T01020056,KSHD,2020-05-05T22:15:00Z,38.27,-78.9,10.2,5.6,150,7,,10.0,29.870079,,,TRUE,TRUE,,,,,,,OVC,3800,,,,,,,VFR,,,,,,,,,,,,SPECI,366.0
KSJS 052215Z AUTO 30010KT 10SM BKN007 OVC012 14/14 A2976 RMK AO2 T01380138,KSJS,2020-05-05T22:15:00Z,37.75,-82.63,13.8,13.8,300,10,,10.0,29.760826,,,TRUE,TRUE,,,,,,,BKN,700,OVC,1200,,,,,IFR,,,,,,,,,,,,SPECI,372.0
KSOA 052215Z AUTO 03017G23KT 10SM CLR 28/05 A3009 RMK AO2,KSOA,2020-05-05T22:15:00Z,30.58,-100.65,28.0,5.0,30,17,23,10.0,30.088583,,,TRUE,TRUE,,,,,,,CLR,,,,,,,,VFR,,,,,,,,,,,,METAR,652.0
KSNL 052215Z AUTO 36008KT 10SM CLR 23/03 A3010 RMK AO2 T02270029,KSNL,2020-05-05T22:15:00Z,35.35,-96.95,22.7,2.9,360,8,,10.0,30.100393,,,TRUE,TRUE,,,,,,,CLR,,,,,,,,VFR,,,,,,,,,,,,SPECI,327.0
KCTY 052215Z AUTO 25011KT 10SM CLR 27/17 A2993 RMK AO2,KCTY,2020-05-05T22:15:00Z,29.63,-83.1,27.0,17.0,250,11,,10.0,29.929134,,,TRUE,TRUE,,,,,,,CLR,,,,,,,,VFR,,,,,,,,,,,,SPECI,13.0
KSNK 052215Z AUTO 09010G17KT 10SM CLR 25/04 A3014 RMK AO2 T02460040,KSNK,2020-05-05T22:15:00Z,32.7,-100.95,24.6,4.0,90,10,17,10.0,30.138779,,,TRUE,TRUE,,,,,,,CLR,,,,,,,,VFR,,,,,,,,,,,,SPECI,741.0
KSLR 052215Z AUTO 04009KT 10SM CLR 26/09 A3008 RMK AO2 T02550090,KSLR,2020-05-05T22:15:00Z,33.17,-95.62,25.5,9.0,40,9,,10.0,30.079725,,,TRUE,TRUE,,,,,,,CLR,,,,,,,,VFR,,,,,,,,,,,,SPECI,149.0
KSXU 052215Z AUTO 14013KT 10SM CLR 24/00 A3019 RMK AO2 T02351001,KSXU,2020-05-05T22:15:00Z,34.93,-104.65,23.5,-0.1,140,13,,10.0,30.188976,,,TRUE,TRUE,,,,,,,CLR,,,,,,,,VFR,,,,,,,,,,,,SPECI,1460.0
KSTE 052215Z AUTO 05008KT 10SM CLR 12/M02 A3001 RMK AO2 T01201025,KSTE,2020-05-05T22:15:00Z,44.55,-89.53,12.0,-2.5,50,8,,10.0,30.008858,,,TRUE,TRUE,,,,,,,CLR,,,,,,,,VFR,,,,,,,,,,,,SPECI,338.0
KSVH 052215Z AUTO 00000KT 10SM OVC019 18/12 A2980 RMK AO2 T01750123,KSVH,2020-05-05T22:15:00Z,35.75,-80.95,17.5,12.3,0,0,,10.0,29.799213,,,TRUE,TRUE,,,,,,,OVC,1900,,,,,,,MVFR,,,,,,,,,,,,SPECI,294.0
KT20 052215Z AUTO 36015G19KT 10SM OVC085 28/20 A2994 RMK AO2 T02800203,KT20,2020-05-05T22:15:00Z,29.52,-97.47,28.0,20.3,360,15,19,10.0,29.940945,,,TRUE,TRUE,,,,,,,OVC,8500,,,,,,,VFR,,,,,,,,,,,,SPECI,108.0
KSWW 052215Z AUTO 03012G16KT 10SM CLR 25/02 A3016 RMK AO2 T02460023,KSWW,2020-05-05T22:15:00Z,32.47,-100.47,24.6,2.3,30,12,16,10.0,30.159449,,,TRUE,TRUE,,,,,,,CLR,,,,,,,,VFR,,,,,,,,,,,,SPECI,727.0
KTAZ 052215Z AUTO 34014KT 10SM BKN020 OVC025 11/08 A2992 RMK AO2 T01130083,KTAZ,2020-05-05T22:15:00Z,39.53,-89.33,11.3,8.3,340,14,,10.0,29.920275,,,TRUE,TRUE,,,,,,,BKN,2000,OVC,2500,,,,,MVFR,,,,,,,,,,,,SPECI,190.0
KT35 052215Z AUTO 02005KT 10SM OVC055 24/15 A3002 RMK AO2 T02380153,KT35,2020-05-05T22:15:00Z,30.88,-96.97,23.8,15.3,20,5,,10.0,30.02067,,,TRUE,TRUE,,,,,,,OVC,5500,,,,,,,VFR,,,,,,,,,,,,SPECI,123.0
KTBR 052215Z AUTO 26009KT 10SM CLR 30/13 A2981 RMK AO2 T03000129,KTBR,2020-05-05T22:15:00Z,32.48,-81.73,30.0,12.9,260,9,,10.0,29.811024,,,TRUE,TRUE,,,,,,,CLR,,,,,,,,VFR,,,,,,,,,,,,SPECI,57.0
KTBX 052215Z AUTO 10SM CLR 10/M10 A3038 RMK AO2,KTBX,2020-05-05T22:15:00Z,43.47,-108.23,10.0,-10.0,,,,10.0,30.380905,,,TRUE,TRUE,,,,,,,CLR,,,,,,,,VFR,,,,,,,,,,,,SPECI,2225.0
KTEX 052215Z AUTO 28010G22KT 10SM CLR 15/M16 A3038 RMK AO2,KTEX,2020-05-05T22:15:00Z,37.95,-107.9,15.0,-16.0,280,10,22,10.0,30.380905,,,TRUE,TRUE,,,,,,,CLR,,,,,,,,VFR,,,,,,,,,,,,SPECI,2769.0
KSZT 052215Z AUTO 00000KT 10SM CLR 20/M01 A3013 RMK AO2,KSZT,2020-05-05T22:15:00Z,48.3,-116.57,20.0,-1.0,0,0,,10.0,30.129921,,,TRUE,TRUE,,,,,,,CLR,,,,,,,,VFR,,,,,,,,,,,,SPECI,648.0
KT41 052215Z AUTO 12003KT 10SM SCT085 30/23 A2990 RMK AO2 T02960228,KT41,2020-05-05T22:15:00Z,29.67,-95.07,29.6,22.8,120,3,,10.0,29.899607,,,TRUE,TRUE,,,,,,,SCT,8500,,,,,,,VFR,,,,,,,,,,,,SPECI,8.0
KUBE 052215Z AUTO 22003KT 10SM CLR 12/M12 A3003 RMK AO2,KUBE,2020-05-05T22:15:00Z,45.5,-91.98,12.0,-12.0,220,3,,10.0,30.029528,,,TRUE,TRUE,,,,,,,CLR,,,,,,,,VFR,,,,,,,,,,,,SPECI,379.0
KTXW 052215Z AUTO 14009G17KT 10SM SCT050 SCT085 SCT110 35/21 A2981 RMK AO2 T03460206,KTXW,2020-05-05T22:15:00Z,26.18,-97.97,34.6,20.6,140,9,17,10.0,29.811024,,,TRUE,TRUE,,,,,,,SCT,5000,SCT,8500,SCT,11000,,,VFR,,,,,,,,,,,,SPECI,21.0
KTYQ 052215Z AUTO 05008KT 10SM SCT023 SCT031 OVC045 06/03 A2991 RMK AO2 T00550034,KTYQ,2020-05-05T22:15:00Z,40.03,-86.25,5.5,3.4,50,8,,10.0,29.911417,,,TRUE,TRUE,,,,,,,SCT,2300,SCT,3100,OVC,4500,,,VFR,,,,,,,,,,,,SPECI,281.0
KTQH 052215Z AUTO 33005KT 10SM CLR 21/06 A3008 RMK AO2,KTQH,2020-05-05T22:15:00Z,35.93,-95.0,21.0,6.0,330,5,,10.0,30.079725,,,TRUE,TRUE,,,,,,,CLR,,,,,,,,VFR,,,,,,,,,,,,METAR,266.0
KTKV 052215Z AUTO 03004KT 10SM CLR 13/M07 A3002 RMK AO2 T01301070 PWINO,KTKV,2020-05-05T22:15:00Z,45.47,-89.82,13.0,-7.0,30,4,,10.0,30.02067,,,TRUE,TRUE,,,,,TRUE,,CLR,,,,,,,,VFR,,,,,,,,,,,,SPECI,453.0
KTDF 052215Z AUTO 05006KT 10SM OVC042 15/10 A2986 RMK AO2,KTDF,2020-05-05T22:15:00Z,36.28,-78.98,15.0,10.0,50,6,,10.0,29.861221,,,TRUE,TRUE,,,,,,,OVC,4200,,,,,,,VFR,,,,,,,,,,,,METAR,186.0
KT74 052215Z AUTO 04009KT 10SM OVC040 24/15 A3002 RMK AO2 T02370146,KT74,2020-05-05T22:15:00Z,30.57,-97.45,23.7,14.6,40,9,,10.0,30.02067,,,TRUE,TRUE,,,,,,,OVC,4000,,,,,,,VFR,,,,,,,,,,,,SPECI,183.0
KC65 052215Z AUTO 06010KT 10SM BKN050 06/02 A2993 RMK A01,KC65,2020-05-05T22:15:00Z,41.37,-86.3,6.0,2.0,60,10,,10.0,29.929134,,,TRUE,TRUE,,,,,,,BKN,5000,,,,,,,VFR,,,,,,,,,,,,SPECI,244.0
KBVS 052215Z AUTO 30009KT 9SM SCT085 20/10 A3005 RMK A01,KBVS,2020-05-05T22:15:00Z,48.47,-122.42,20.0,10.0,300,9,,9.0,30.050198,,,TRUE,TRUE,,,,,,,SCT,8500,,,,,,,VFR,,,,,,,,,,,,SPECI,43.0
KBVN 052215Z AUTO 34017G21KT 10SM SCT090 18/01 A3010 RMK AO2 T01760007,KBVN,2020-05-05T22:15:00Z,41.73,-98.05,17.6,0.7,340,17,21,10.0,30.100393,,,TRUE,TRUE,,,,,,,SCT,9000,,,,,,,VFR,,,,,,,,,,,,SPECI,551.0
KBQP 052215Z AUTO 34003KT 10SM OVC050 24/17 A2998 RMK AO2 T02370167 TSNO,KBQP,2020-05-05T22:15:00Z,32.75,-91.88,23.7,16.7,340,3,,10.0,29.97933,,,TRUE,TRUE,,,TRUE,,,,OVC,5000,,,,,,,VFR,,,,,,,,,,,,SPECI,51.0
KBPG 052215Z AUTO 07013G19KT 10SM CLR 26/04 A3012 RMK AO2 T02600043,KBPG,2020-05-05T22:15:00Z,32.22,-101.52,26.0,4.3,70,13,19,10.0,30.121063,,,TRUE,TRUE,,,,,,,CLR,,,,,,,,VFR,,,,,,,,,,,,SPECI,784.0
KBIE 052215Z AUTO 34025G33KT 10SM SCT090 20/01 A3008 RMK AO2 T02020009,KBIE,2020-05-05T22:15:00Z,40.28,-96.75,20.2,0.9,340,25,33,10.0,30.079725,,,TRUE,TRUE,,,,,,,SCT,9000,,,,,,,VFR,,,,,,,,,,,,SPECI,403.0
KBGF 052215Z AUTO 34009G14KT 10SM FEW025 20/16 A2985 RMK A01,KBGF,2020-05-05T22:15:00Z,35.18,-86.07,20.0,16.0,340,9,14,10.0,29.84941,,,TRUE,TRUE,,,,,,,FEW,2500,,,,,,,VFR,,,,,,,,,,,,SPECI,299.0
KBBF 052215Z AUTO 16011KT 10SM CLR 27/24 A2988 RMK A01,KBBF,2020-05-05T22:15:00Z,27.83,-96.02,27.0,24.0,160,11,,10.0,29.878937,,,TRUE,TRUE,,,,,,,CLR,,,,,,,,VFR,,,,,,,,,,,,SPECI,36.0
KBBD 052215Z AUTO 04010G20KT 10SM FEW075 27/04 A3007 RMK AO2,KBBD,2020-05-05T22:15:00Z,31.18,-99.32,27.0,4.0,40,10,20,10.0,30.070866,,,TRUE,TRUE,,,,,,,FEW,7500,,,,,,,VFR,,,,,,,,,,,,SPECI,557.0
KAXX 052215Z AUTO 27009G24KT 250V310 10SM SCT090 16/M04 A3030 RMK AO2 T01641044,KAXX,2020-05-05T22:15:00Z,36.42,-105.28,16.4,-4.4,270,9,24,10.0,30.301182,,,TRUE,TRUE,,,,,,,SCT,9000,,,,,,,VFR,,,,,,,,,,,,SPECI,2548.0
KAXH 052215Z AUTO 15009KT 10SM CLR 30/24 A2990 RMK AO2 T02980241,KAXH,2020-05-05T22:15:00Z,29.52,-95.48,29.8,24.1,150,9,,10.0,29.899607,,,TRUE,TRUE,,,,,,,CLR,,,,,,,,VFR,,,,,,,,,,,,SPECI,21.0
KU42 052215Z AUTO 01005G08KT 10SM CLR 23/03 A3021 RMK AO1 T02260034,KU42,2020-05-05T22:15:00Z,40.62,-111.98,22.6,3.4,10,5,8,10.0,30.209646,,,TRUE,TRUE,,,,,,,CLR,,,,,,,,VFR,,,,,,,,,,,,SPECI,1402.0
KPCD 052215Z AUTO 31015G23KT 10SM SCT075 SCT085 20/07 A2989 RMK AO2 T02040072,KPCD,2020-05-05T22:15:00Z,37.87,-89.87,20.4,7.2,310,15,23,10.0,29.890747,,,TRUE,TRUE,,,,,,,SCT,7500,SCT,8500,,,,,VFR,,,,,,,,,,,,SPECI,113.0
KW78 052215Z AUTO 00000KT 10SM OVC034 15/09 A2985 RMK AO1 T01480093,KW78,2020-05-05T22:15:00Z,36.68,-78.85,14.8,9.3,0,0,,10.0,29.84941,,,TRUE,TRUE,,,,,,,OVC,3400,,,,,,,VFR,,,,,,,,,,,,METAR,129.0
KW13 052215Z AUTO 14006KT 10SM BKN028 OVC033 09/07 A2985 RMK AO1 T00870070,KW13,2020-05-05T22:15:00Z,38.08,-78.95,8.7,7.0,140,6,,10.0,29.84941,,,TRUE,TRUE,,,,,,,BKN,2800,OVC,3300,,,,,MVFR,,,,,,,,,,,,METAR,443.0
KUXL 052215Z AUTO 19008KT 10SM SCT024 SCT046 30/23 A2991 RMK AO2 T03030232,KUXL,2020-05-05T22:15:00Z,30.13,-93.38,30.3,23.2,190,8,,10.0,29.911417,,,TRUE,TRUE,,,,,,,SCT,2400,SCT,4600,,,,,VFR,,,,,,,,,,,,SPECI,4.0
KVDI 052215Z AUTO 26006KT 10SM CLR 31/14 A2983 RMK AO2,KVDI,2020-05-05T22:15:00Z,32.2,-82.37,31.0,14.0,260,6,,10.0,29.828741,,,TRUE,TRUE,,,,,,,CLR,,,,,,,,VFR,,,,,,,,,,,,SPECI,84.0
KULS 052215Z AUTO 23007G15KT 10SM CLR 23/M01 A3013 RMK AO2,KULS,2020-05-05T22:15:00Z,37.6,-101.37,23.0,-1.0,230,7,15,10.0,30.129921,,,TRUE,TRUE,,,,,,,CLR,,,,,,,,VFR,,,,,,,,,,,,SPECI,936.0
KVJI 052215Z AUTO 11006KT 10SM SCT025 BKN060 BKN120 18/14 A2977 RMK AO2 T01760138,KVJI,2020-05-05T22:15:00Z,36.67,-82.02,17.6,13.8,110,6,,10.0,29.769686,,,TRUE,TRUE,,,,,,,SCT,2500,BKN,6000,BKN,12000,,,VFR,,,,,,,,,,,,SPECI,631.0
KVYS 052215Z AUTO 08009KT 10SM BKN032 BKN039 OVC045 08/05 RMK AO2 T00770048,KVYS,2020-05-05T22:15:00Z,41.35,-89.15,7.7,4.8,80,9,,10.0,,,,TRUE,TRUE,,,,,,,BKN,3200,BKN,3900,OVC,4500,,,VFR,,,,,,,,,,,,SPECI,199.0
KW22 052215Z AUTO VRB06KT 6SM -RA SCT027 OVC031 10/10 A2973 RMK AO2,KW22,2020-05-05T22:15:00Z,39.0,-80.27,10.0,10.0,0,6,,6.0,29.731298,,,TRUE,TRUE,,,,,,-RA,SCT,2700,OVC,3100,,,,,VFR,,,,,,,,,,,,SPECI,499.0
KW81 052215Z AUTO 00000KT 10SM SCT021 OVC036 13/11 A2987 RMK AO1 T01260112,KW81,2020-05-05T22:15:00Z,37.18,-78.1,12.6,11.2,0,0,,10.0,29.870079,,,TRUE,TRUE,,,,,,,SCT,2100,OVC,3600,,,,,VFR,,,,,,,,,,,,SPECI,129.0
KW99 052215Z AUTO 00000KT 4SM -RA OVC027 11/10 A2984 RMK AO2 P0002 T01110101,KW99,2020-05-05T22:15:00Z,39.0,-79.15,11.1,10.1,0,0,,4.0,29.840551,,,TRUE,TRUE,,,,,,-RA,OVC,2700,,,,,,,MVFR,,,,,,0.02,,,,,,SPECI,293.0
KWDR 052215Z AUTO 25012G17KT 10SM VCTS SCT043 SCT049 SCT065 27/17 A2983 RMK AO2 LTG DSNT NW,KWDR,2020-05-05T22:15:00Z,33.98,-83.67,27.0,17.0,250,12,17,10.0,29.828741,,,TRUE,TRUE,,,,,,VCTS,SCT,4300,SCT,4900,SCT,6500,,,VFR,,,,,,,,,,,,SPECI,287.0
KXBP 052215Z AUTO 05009G16KT 10SM CLR 25/07 A3012 RMK AO2 T02510066,KXBP,2020-05-05T22:15:00Z,33.18,-97.83,25.1,6.6,50,9,16,10.0,30.121063,,,TRUE,TRUE,,,,,,,CLR,,,,,,,,VFR,,,,,,,,,,,,SPECI,260.0
KAAA 052215Z AUTO 06008KT 2 1/2SM BR OVC007 08/06 A2994 RMK AO2 T00790063,KAAA,2020-05-05T22:15:00Z,40.17,-89.33,7.9,6.3,60,8,,2.5,29.940945,,,TRUE,TRUE,,,,,,BR,OVC,700,,,,,,,IFR,,,,,,,,,,,,SPECI,182.0
K6A1 052215Z AUTO 28013G20KT 10SM 29/13 A2985 RMK AO2 T02940129,K6A1,2020-05-05T22:15:00Z,32.57,-84.25,29.4,12.9,280,13,20,10.0,29.84941,,,TRUE,TRUE,,,,,,,,,,,,,,,,,,,,,,,,,,,SPECI,203.0
K5M9 052215Z AUTO 33006G15KT 10SM BKN032 BKN042 OVC048 16/09 A2993 RMK AO2 T01640085,K5M9,2020-05-05T22:15:00Z,37.33,-88.12,16.4,8.5,330,6,15,10.0,29.929134,,,TRUE,TRUE,,,,,,,BKN,3200,BKN,4200,OVC,4800,,,VFR,,,,,,,,,,,,SPECI,199.0
K17J 052215Z AUTO 28008KT 10SM CLR 30/18 A2987 RMK AO2 T03000182,K17J,2020-05-05T22:15:00Z,31.0,-84.87,30.0,18.2,280,8,,10.0,29.870079,,,TRUE,TRUE,,,,,,,CLR,,,,,,,,VFR,,,,,,,,,,,,SPECI,42.0
K0R4 052215Z AUTO 34006KT 10SM BKN034 OVC046 A2991 RMK AO2,K0R4,2020-05-05T22:15:00Z,31.57,-91.5,,,340,6,,10.0,29.911417,,,TRUE,TRUE,,,,,,,BKN,3400,OVC,4600,,,,,VFR,,,,,,,,,,,,SPECI,17.0
PAAD 052215Z AUTO 27008KT 10SM OVC007 M08/M11 A3013 RMK AO2 T10841106,PAAD,2020-05-05T22:15:00Z,70.13,-146.28,-8.4,-10.6,270,8,,10.0,30.129921,,,TRUE,TRUE,,,,,,,OVC,700,,,,,,,IFR,,,,,,,,,,,,SPECI,8.0
KZPH 052215Z AUTO 28010KT 10SM SCT044 28/19 A2995 RMK A02 T02840187,KZPH,2020-05-05T22:15:00Z,28.23,-82.15,28.4,18.7,280,10,,10.0,29.949802,,,TRUE,TRUE,,,,,,,SCT,4400,,,,,,,VFR,,,,,,,,,,,,SPECI,26.0
KXLL 052215Z AUTO 23004KT 10SM CLR 15/M01 A2987 RMK AO2,KXLL,2020-05-05T22:15:00Z,40.57,-75.48,15.0,-1.0,230,4,,10.0,29.870079,,,TRUE,TRUE,,,,,,,CLR,,,,,,,,VFR,,,,,,,,,,,,SPECI,122.0
KOPL 052215Z AUTO 30006KT 10SM SCT046 SCT060 SCT070 30/20 A2990 RMK AO2 T03020197,KOPL,2020-05-05T22:15:00Z,30.55,-92.1,30.2,19.7,300,6,,10.0,29.899607,,,TRUE,TRUE,,,,,,,SCT,4600,SCT,6000,SCT,7000,,,VFR,,,,,,,,,,,,SPECI,23.0
KADH 052215Z AUTO 02003KT 10SM CLR 23/07 A3010 RMK AO2,KADH,2020-05-05T22:15:00Z,34.8,-96.67,23.0,7.0,20,3,,10.0,30.100393,,,TRUE,TRUE,,,,,,,CLR,,,,,,,,VFR,,,,,,,,,,,,SPECI,308.0
KOLY 052215Z AUTO 29017G24KT 10SM SCT022 SCT049 BKN060 14/08 A2991 RMK AO2 T01350084,KOLY,2020-05-05T22:15:00Z,38.72,-88.18,13.5,8.4,290,17,24,10.0,29.911417,,,TRUE,TRUE,,,,,,,SCT,2200,SCT,4900,BKN,6000,,,VFR,,,,,,,,,,,,SPECI,147.0
LHSN 052215Z 00000KT CAVOK 07/04 Q1013 NOSIG RMK BLU,LHSN,2020-05-05T22:15:00Z,47.12,20.23,7.0,4.0,0,0,,6.21,29.911417,,,,,,TRUE,,,,,CAVOK,,,,,,,,VFR,,,,,,,,,,,,METAR,98.0
KAPS 052215Z AUTO 29003KT 10SM SCT050 33/17 A2989 RMK AO2 T03310170,KAPS,2020-05-05T22:15:00Z,30.08,-90.58,33.1,17.0,290,3,,10.0,29.890747,,,TRUE,TRUE,,,,,,,SCT,5000,,,,,,,VFR,,,,,,,,,,,,SPECI,2.0
KDBN 052215Z AUTO 25005KT 10SM CLR 29/14 A2984 RMK AO2,KDBN,2020-05-05T22:15:00Z,32.57,-82.98,29.0,14.0,250,5,,10.0,29.840551,,,TRUE,TRUE,,,,,,,CLR,,,,,,,,VFR,,,,,,,,,,,,METAR,94.0
KCVB 052215Z AUTO 03011G17KT 10SM SCT048 SCT060 BKN065 31/17 A2996 RMK AO2 T03110165,KCVB,2020-05-05T22:15:00Z,29.35,-98.85,31.1,16.5,30,11,17,10.0,29.958662,,,TRUE,TRUE,,,,,,,SCT,4800,SCT,6000,BKN,6500,,,VFR,,,,,,,,,,,,SPECI,235.0
KDNN 052215Z AUTO 00000KT 7SM -TSRA BKN031 BKN041 OVC110 20/18 A2987 RMK AO2 LTG DSNT ALQDS,KDNN,2020-05-05T22:15:00Z,34.72,-84.87,20.0,18.0,0,0,,7.0,29.870079,,,TRUE,TRUE,,,,,,-TSRA,BKN,3100,BKN,4100,OVC,11000,,,VFR,,,,,,,,,,,,SPECI,216.0
KEDC 052215Z AUTO 03011G16KT 10SM OVC038 23/14 A3002 RMK AO2,KEDC,2020-05-05T22:15:00Z,30.4,-97.57,23.0,14.0,30,11,16,10.0,30.02067,,,TRUE,TRUE,,,,,,,OVC,3800,,,,,,,VFR,,,,,,,,,,,,SPECI,189.0
KEHA 052215Z AUTO 06006KT 10SM CLR 24/01 A3016 RMK AO2 T02440005,KEHA,2020-05-05T22:15:00Z,37.0,-101.9,24.4,0.5,60,6,,10.0,30.159449,,,TRUE,TRUE,,,,,,,CLR,,,,,,,,VFR,,,,,,,,,,,,METAR,1099.0
KEHY 052215Z AUTO 28017G21KT 10SM SCT100 15/M26 A3025 RMK AO2 PWINO,KEHY,2020-05-05T22:15:00Z,41.73,-106.47,15.0,-26.0,280,17,21,10.0,30.250984,,,TRUE,TRUE,,,,,TRUE,,SCT,10000,,,,,,,VFR,,,,,,,,,,,,SPECI,2225.0
KETB 052215Z AUTO 06004KT 10SM SCT100 08/M07 A3002 RMK AO2,KETB,2020-05-05T22:15:00Z,43.42,-88.13,8.0,-7.0,60,4,,10.0,30.02067,,,TRUE,TRUE,,,,,,,SCT,10000,,,,,,,VFR,,,,,,,,,,,,SPECI,270.0
KELA 052215Z AUTO 01013G18KT 10SM BKN045 BKN070 BKN085 30/24 A2991 RMK AO2 T03000239,KELA,2020-05-05T22:15:00Z,29.6,-96.32,30.0,23.9,10,13,18,10.0,29.911417,,,TRUE,TRUE,,,,,,,BKN,4500,BKN,7000,BKN,8500,,,VFR,,,,,,,,,,,,SPECI,56.0
KFYG 052215Z AUTO 30013G18KT 10SM CLR 20/07 A2989 RMK AO2,KFYG,2020-05-05T22:15:00Z,38.58,-91.0,20.0,7.0,300,13,18,10.0,29.890747,,,TRUE,TRUE,,,,,,,CLR,,,,,,,,VFR,,,,,,,,,,,,SPECI,149.0
KJZP 052215Z AUTO 31004KT 10SM BKN020 BKN028 OVC110 22/19 A2985 RMK AO2 T02170190,KJZP,2020-05-05T22:15:00Z,34.45,-84.47,21.7,19.0,310,4,,10.0,29.84941,,,TRUE,TRUE,,,,,,,BKN,2000,BKN,2800,OVC,11000,,,MVFR,,,,,,,,,,,,SPECI,468.0
KLCQ 052215Z AUTO 24011G14KT 10SM CLR 28/16 A2990 RMK AO2,KLCQ,2020-05-05T22:15:00Z,30.18,-82.58,28.0,16.0,240,11,14,10.0,29.899607,,,TRUE,TRUE,,,,,,,CLR,,,,,,,,VFR,,,,,,,,,,,,SPECI,61.0
KLZZ 052215Z AUTO 03012KT 10SM SCT070 BKN095 26/10 A3004 RMK AO2 T02580097,KLZZ,2020-05-05T22:15:00Z,31.1,-98.2,25.8,9.7,30,12,,10.0,30.041338,,,TRUE,TRUE,,,,,,,SCT,7000,BKN,9500,,,,,VFR,,,,,,,,,,,,SPECI,371.0
KBIJ 052215Z AUTO 26006KT 10SM SCT050 SCT065 28/14 A2987 RMK AO2,KBIJ,2020-05-05T22:15:00Z,31.4,-84.9,28.0,14.0,260,6,,10.0,29.870079,,,TRUE,TRUE,,,,,,,SCT,5000,SCT,6500,,,,,VFR,,,,,,,,,,,,SPECI,65.0
KBHC 052215Z AUTO 25007KT 10SM CLR 30/17 A2984 RMK AO2,KBHC,2020-05-05T22:15:00Z,31.72,-82.4,30.0,17.0,250,7,,10.0,29.840551,,,TRUE,TRUE,,,,,,,CLR,,,,,,,,VFR,,,,,,,,,,,,SPECI,61.0
KAYS 052215Z AUTO 26011G15KT 10SM SCT055 31/11 A2984 RMK AO2 T03110110 TSNO,KAYS,2020-05-05T22:15:00Z,31.25,-82.4,31.1,11.0,260,11,15,10.0,29.840551,,,TRUE,TRUE,,,TRUE,,,,SCT,5500,,,,,,,VFR,,,,,,,,,,,,METAR,46.0
KNY0 052215Z AUTO 29016G21KT 10SM CLR 09/M05 A2988 RMK AO2,KNY0,2020-05-05T22:15:00Z,42.98,-74.33,9.0,-5.0,290,16,21,10.0,29.878937,,,TRUE,TRUE,,,,,,,CLR,,,,,,,,VFR,,,,,,,,,,,,METAR,271.0
KOEO 052215Z AUTO 00000KT 10SM CLR 15/M10 A3006 RMK AO2 T01461096,KOEO,2020-05-05T22:15:00Z,45.32,-92.7,14.6,-9.6,0,0,,10.0,30.059055,,,TRUE,TRUE,,,,,,,CLR,,,,,,,,VFR,,,,,,,,,,,,SPECI,275.0
KPVJ 052215Z AUTO 00000KT 10SM CLR 23/06 A3010 RMK AO2 T02310057,KPVJ,2020-05-05T22:15:00Z,34.72,-97.22,23.1,5.7,0,0,,10.0,30.100393,,,TRUE,TRUE,,,,,,,CLR,,,,,,,,VFR,,,,,,,,,,,,SPECI,295.0
KPVB 052215Z AUTO 06009KT 10SM SCT020 BKN027 OVC034 08/07 A3001 RMK AO1 T00820071,KPVB,2020-05-05T22:15:00Z,42.68,-90.43,8.2,7.1,60,9,,10.0,30.008858,,,TRUE,TRUE,,,,,,,SCT,2000,BKN,2700,OVC,3400,,,MVFR,,,,,,,,,,,,SPECI,313.0
KPSO 052215Z AUTO 23012G23KT 10SM CLR 21/M10 A3026 RMK AO2 T02051096,KPSO,2020-05-05T22:15:00Z,37.28,-107.05,20.5,-9.6,230,12,23,10.0,30.259842,,,TRUE,TRUE,,,,,,,CLR,,,,,,,,VFR,,,,,,,,,,,,SPECI,2334.0
KPSN 052215Z AUTO 33010G15KT 10SM BKN095 25/15 A3002 RMK AO2 T02550155,KPSN,2020-05-05T22:15:00Z,31.78,-95.7,25.5,15.5,330,10,15,10.0,30.02067,,,TRUE,TRUE,,,,,,,BKN,9500,,,,,,,VFR,,,,,,,,,,,,SPECI,129.0
KPOY 052215Z AUTO 33015G23KT 10SM CLR 16/M07 A3024 RMK AO2,KPOY,2020-05-05T22:15:00Z,44.87,-108.8,16.0,-7.0,330,15,23,10.0,30.239174,,,TRUE,TRUE,,,,,,,CLR,,,,,,,,VFR,,,,,,,,,,,,SPECI,1552.0
KPMV 052215Z AUTO 34020G36KT 10SM SCT048 SCT055 17/05 A3006 RMK AO2 T01650049,KPMV,2020-05-05T22:15:00Z,40.95,-95.92,16.5,4.9,340,20,36,10.0,30.059055,,,TRUE,TRUE,,,,,,,SCT,4800,SCT,5500,,,,,VFR,,,,,,,,,,,,SPECI,367.0
KHOE 052215Z AUTO 27008KT 10SM CLR 30/16 A2986 RMK AO2,KHOE,2020-05-05T22:15:00Z,31.05,-82.78,30.0,16.0,270,8,,10.0,29.861221,,,TRUE,TRUE,,,,,,,CLR,,,,,,,,VFR,,,,,,,,,,,,SPECI,57.0
KOYM 052215Z AUTO 00000KT 10SM CLR 13/M08 A2984 RMK AO2,KOYM,2020-05-05T22:15:00Z,41.42,-78.5,13.0,-8.0,0,0,,10.0,29.840551,,,TRUE,TRUE,,,,,,,CLR,,,,,,,,VFR,,,,,,,,,,,,SPECI,590.0
KPNT 052215Z AUTO 06010KT 10SM -DZ SCT013 BKN023 OVC028 07/05 A2997 RMK AO2 T00680046,KPNT,2020-05-05T22:15:00Z,40.92,-88.62,6.8,4.6,60,10,,10.0,29.970472,,,TRUE,TRUE,,,,,,-DZ,SCT,1300,BKN,2300,OVC,2800,,,MVFR,,,,,,,,,,,,SPECI,201.0
KPNA 052215Z AUTO 30015G21KT 10SM CLR 14/M10 A3031 RMK AO2,KPNA,2020-05-05T22:15:00Z,42.8,-109.8,14.0,-10.0,300,15,21,10.0,30.31004,,,TRUE,TRUE,,,,,,,CLR,,,,,,,,VFR,,,,,,,,,,,,SPECI,2160.0
KPVF 052215Z AUTO 21005KT 10SM CLR 23/00 A3015 RMK AO1,KPVF,2020-05-05T22:15:00Z,38.72,-120.75,23.0,0.0,210,5,,10.0,30.15059,,,TRUE,TRUE,,,,,,,CLR,,,,,,,,VFR,,,,,,,,,,,,SPECI,789.0
KN38 052215Z AUTO 03009G15KT 10SM CLR 12/M08 A2985 RMK AO2,KN38,2020-05-05T22:15:00Z,41.73,-77.4,12.0,-8.0,30,9,15,10.0,29.84941,,,TRUE,TRUE,,,,,,,CLR,,,,,,,,VFR,,,,,,,,,,,,SPECI,577.0
KMWO 052215Z AUTO 35010KT OVC047 10/02 A2985 RMK AO2 PWINO T01000019,KMWO,2020-05-05T22:15:00Z,39.53,-84.4,10.0,1.9,350,10,,,29.84941,,,TRUE,TRUE,,,,,TRUE,,OVC,4700,,,,,,,,,,,,,,,,,,,SPECI,198.0
KMVH 052215Z AUTO 33013G18KT 10SM CLR 13/M03 A3030 RMK AO2,KMVH,2020-05-05T22:15:00Z,46.83,-108.93,13.0,-3.0,330,13,18,10.0,30.301182,,,TRUE,TRUE,,,,,,,CLR,,,,,,,,VFR,,,,,,,,,,,,SPECI,1355.0
KMRC 052215Z AUTO VRB06G16KT 10SM FEW035 21/13 A2986 RMK A01,KMRC,2020-05-05T22:15:00Z,35.55,-87.18,21.0,13.0,0,6,16,10.0,29.861221,,,TRUE,TRUE,,,,,,,FEW,3500,,,,,,,VFR,,,,,,,,,,,,METAR,208.0
KMQS 052215Z AUTO 00000KT 10SM CLR 11/M00 A2989 RMK AO2,KMQS,2020-05-05T22:15:00Z,39.98,-75.87,11.0,0.0,0,0,,10.0,29.890747,,,TRUE,TRUE,,,,,,,CLR,,,,,,,,VFR,,,,,,,,,,,,SPECI,201.0
KMQB 052215Z AUTO 34007KT 2SM -RA BKN007 OVC014 09/08 A2995 RMK AO2 P0001 T00860084,KMQB,2020-05-05T22:15:00Z,40.52,-90.65,8.6,8.4,340,7,,2.0,29.949802,,,TRUE,TRUE,,,,,,-RA,BKN,700,OVC,1400,,,,,IFR,,,,,,0.01,,,,,,SPECI,215.0
KMOR 052215Z AUTO 25016KT 10SM SCT047 BKN060 BKN080 25/18 A2972 RMK A01,KMOR,2020-05-05T22:15:00Z,36.18,-83.37,25.0,18.0,250,16,,10.0,29.719488,,,TRUE,TRUE,,,,,,,SCT,4700,BKN,6000,BKN,8000,,,VFR,,,,,,,,,,,,METAR,400.0
KMNV 052215Z AUTO 22011G19KT 10SM CLR 24/20 A2979 RMK A01,KMNV,2020-05-05T22:15:00Z,35.55,-84.38,24.0,20.0,220,11,19,10.0,29.790354,,,TRUE,TRUE,,,,,,,CLR,,,,,,,,VFR,,,,,,,,,,,,METAR,314.0
KMMI 052215Z AUTO 21007G12KT 170V240 10SM FEW055 24/20 A2981 RMK A01,KMMI,2020-05-05T22:15:00Z,35.4,-84.57,24.0,20.0,210,7,12,10.0,29.811024,,,TRUE,TRUE,,,,,,,FEW,5500,,,,,,,VFR,,,,,,,,,,,,METAR,266.0
KOXD 052215Z AUTO 36008KT 10SM OVC044 09/04 A2985 RMK AO2 T00920038,KOXD,2020-05-05T22:15:00Z,39.5,-84.78,9.2,3.8,360,8,,10.0,29.84941,,,TRUE,TRUE,,,,,,,OVC,4400,,,,,,,VFR,,,,,,,,,,,,SPECI,317.0
KCIR 052215Z AUTO 30011G14KT 10SM CLR 21/10 A2990 RMK AO2 T02110096,KCIR,2020-05-05T22:15:00Z,37.07,-89.22,21.1,9.6,300,11,14,10.0,29.899607,,,TRUE,TRUE,,,,,,,CLR,,,,,,,,VFR,,,,,,,,,,,,SPECI,98.0
KCFD 052215Z AUTO 35006KT 10SM OVC046 24/18 A3001 RMK AO2 T02350180,KCFD,2020-05-05T22:15:00Z,30.72,-96.33,23.5,18.0,350,6,,10.0,30.008858,,,TRUE,TRUE,,,,,,,OVC,4600,,,,,,,VFR,,,,,,,,,,,,SPECI,112.0
KCDH 052215Z AUTO 35009KT 10SM CLR 26/23 A2999 RMK AO2,KCDH,2020-05-05T22:15:00Z,33.62,-92.77,26.0,23.0,350,9,,10.0,29.991142,,,TRUE,TRUE,,,,,,,CLR,,,,,,,,VFR,,,,,,,,,,,,SPECI,35.0
KCCB 052215Z AUTO 26010KT 10SM CLR 33/02 A2995 RMK AO2,KCCB,2020-05-05T22:15:00Z,34.12,-117.68,33.0,2.0,260,10,,10.0,29.949802,,,TRUE,TRUE,,,,,,,CLR,,,,,,,,VFR,,,,,,,,,,,,METAR,440.0
KC75 052215Z AUTO 09007KT 10SM -RA SCT016 SCT023 OVC047 07/06 A2996 RMK AO2 P0001 T00710056,KC75,2020-05-05T22:15:00Z,41.02,-89.38,7.1,5.6,90,7,,10.0,29.958662,,,TRUE,TRUE,,,,,,-RA,SCT,1600,SCT,2300,OVC,4700,,,VFR,,,,,,0.01,,,,,,SPECI,173.0
KMCD 052215Z AUTO 18003KT 10SM SCT110 07/M08 A3004 RMK AO2 T00681084,KMCD,2020-05-05T22:15:00Z,45.85,-84.63,6.8,-8.4,180,3,,10.0,30.041338,,,TRUE,TRUE,,,,,,,SCT,11000,,,,,,,VFR,,,,,,,,,,,,SPECI,226.0
KMCC 052215Z AUTO 21008G16KT 10SM CLR 29/M01 A3004 RMK AO2,KMCC,2020-05-05T22:15:00Z,38.67,-121.4,29.0,-1.0,210,8,16,10.0,30.041338,,,TRUE,TRUE,,,,,,,CLR,,,,,,,,VFR,,,,,,,,,,,,SPECI,23.0
YABA 052214Z AUTO 29016G26KT 9999 // SCT016 SCT025 SCT030 08/07 Q1002,YABA,2020-05-05T22:14:00Z,-34.93,117.8,8.0,7.0,290,16,26,6.21,29.586615,,,TRUE,,,,,,,,SCT,1600,SCT,2500,SCT,3000,,,VFR,,,,,,,,,,,,SPECI,69.0
CWIL 052214Z AUTO 34018KT ////SM OVC017 M12/M16 A3050,CWIL,2020-05-05T22:14:00Z,68.32,-100.07,-12.0,-16.0,340,18,,,30.499016,,,TRUE,,,,,,,,OVC,1700,,,,,,,,,,,,,,,,,,,SPECI,36.0
KHUL 052214Z AUTO 35006KT 10SM BKN019 BKN024 OVC040 04/01 A2978 RMK AO2 RAB02E12 P0000 T00440006,KHUL,2020-05-05T22:14:00Z,46.12,-67.8,4.4,0.6,350,6,,10.0,29.778543,,,TRUE,TRUE,,,,,,,BKN,1900,BKN,2400,OVC,4000,,,MVFR,,,,,,0.005,,,,,,METAR,150.0
KIAB 052214Z AUTO 36012KT 10SM CLR 23/M02 A3009 RMK AO2 WSHFT 05 SLP186 $,KIAB,2020-05-05T22:14:00Z,37.62,-97.27,23.0,-2.0,360,12,,10.0,30.088583,1018.6,,TRUE,TRUE,TRUE,,,,,,CLR,,,,,,,,VFR,,,,,,,,,,,,SPECI,418.0
KISM 052213Z 27008KT 10SM FEW002 BKN060 31/18 A2992 RMK AO2 PNO $,KISM,2020-05-05T22:13:00Z,28.28,-81.43,31.0,18.0,270,8,,10.0,29.920275,,,,TRUE,TRUE,,,,,,FEW,200,BKN,6000,,,,,VFR,,,,,,,,,,,,SPECI,25.0
CWSA 052213Z AUTO 27015G23KT OVC008 05/04 A2941 RMK WX MISG VIS MISG PCPN MISG SLP960,CWSA,2020-05-05T22:13:00Z,43.93,-60.0,5.0,4.0,270,15,23,,29.409449,996.0,,TRUE,,,,,,,,OVC,800,,,,,,,,,,,,,,,,,,,SPECI,4.0
KNQX 052213Z AUTO 15007KT 10SM FEW002 28/20 A2993 RMK AO2 T02830200,KNQX,2020-05-05T22:13:00Z,24.57,-81.67,28.3,20.0,150,7,,10.0,29.929134,,,TRUE,TRUE,,,,,,,FEW,200,,,,,,,VFR,,,,,,,,,,,,SPECI,2.0
KABR 052213Z AUTO 01011KT 10SM BKN026 BKN034 OVC041 09/04 A3015 RMK AO2 T00940044,KABR,2020-05-05T22:13:00Z,45.45,-98.42,9.4,4.4,10,11,,10.0,30.15059,,,TRUE,TRUE,,,,,,,BKN,2600,BKN,3400,OVC,4100,,,MVFR,,,,,,,,,,,,SPECI,397.0
KGSP 052213Z AUTO 08006KT 8SM -TSRA FEW036 BKN050 OVC100 18/17 A2978 RMK AO2 LTG DSNT N AND E AND W RAB2157 TSB2159 P0008 T01830167,KGSP,2020-05-05T22:13:00Z,34.9,-82.22,18.3,16.7,80,6,,8.0,29.778543,,,TRUE,TRUE,,,,,,-TSRA,FEW,3600,BKN,5000,OVC,10000,,,VFR,,,,,,0.08,,,,,,SPECI,287.0
RKSO 052213Z 00000KT 1/4SM FG BKN001 10/10 A2997 RMK AO2A VIS S 1 BKN V SCT SLP152 $,RKSO,2020-05-05T22:13:00Z,37.07,127.02,10.0,10.0,0,0,,0.25,29.970472,1015.2,,,TRUE,TRUE,,,,,FG,BKN,100,,,,,,,LIFR,,,,,,,,,,,,METAR,12.0
YBCS 052213Z AUTO 18013G24KT 9999 -SHRA SCT024 SCT032 SCT049 21/19 Q1017 INTER 2213/0113 4000 SHRA BKN018,YBCS,2020-05-05T22:13:00Z,-16.87,145.75,21.0,19.0,180,13,24,6.21,30.029528,,,TRUE,,,,,,,-SHRA,SCT,2400,SCT,3200,SCT,4900,,,VFR,,,,,,,,,,,,SPECI,7.0
KFVE 052212Z AUTO 02008G21KT 10SM SCT025 BKN030 OVC040 03/M02 A2980 RMK AO2 T00331017,KFVE,2020-05-05T22:12:00Z,47.28,-68.3,3.3,-1.7,20,8,21,10.0,29.799213,,,TRUE,TRUE,,,,,,,SCT,2500,BKN,3000,OVC,4000,,,MVFR,,,,,,,,,,,,SPECI,301.0
KFAR 052212Z 33007KT 10SM -RA SCT010 SCT016 OVC038 08/06 A3013 RMK AO2 P0001 T00830061,KFAR,2020-05-05T22:12:00Z,46.93,-96.82,8.3,6.1,330,7,,10.0,30.129921,,,,TRUE,,,,,,-RA,SCT,1000,SCT,1600,OVC,3800,,,VFR,,,,,,0.01,,,,,,SPECI,277.0
KBML 052212Z AUTO 29008KT 10SM OVC029 06/M01 A2987 RMK AO2 T00561011,KBML,2020-05-05T22:12:00Z,44.58,-71.18,5.6,-1.1,290,8,,10.0,29.870079,,,TRUE,TRUE,,,,,,,OVC,2900,,,,,,,MVFR,,,,,,,,,,,,METAR,345.0
RJFK 052212Z 22006KT 180V250 4000 BCFG BR FEW002 BKN130 18/17 Q1009 RMK 2ST002 7AC130 A2982 FG ALL QUAD,RJFK,2020-05-05T22:12:00Z,31.8,130.72,18.0,17.0,220,6,,2.49,29.793306,,,,,,,,,,BCFG BR,FEW,200,BKN,13000,,,,,IFR,,,,,,,,,,,,METAR,275.0
CYBU 052212Z AUTO 22009KT 9SM -RA OVC060 10/08 A3021 RMK SLP250,CYBU,2020-05-05T22:12:00Z,53.32,-104.0,10.0,8.0,220,9,,9.0,30.209646,1025.0,,TRUE,,,,,,,-RA,OVC,6000,,,,,,,VFR,,,,,,,,,,,,SPECI,374.0
CYBR 052212Z 04011G18KT 030V090 15SM BKN064 BKN250 16/00 A3015 RMK CU5CI2 WSHFT 2201 SLP225 DENSITY ALT 1600FT,CYBR,2020-05-05T22:12:00Z,49.92,-99.95,16.0,0.0,40,11,18,15.0,30.15059,1022.5,,,,,,,,,,BKN,6400,BKN,25000,,,,,VFR,,,,,,,,,,,,SPECI,409.0
KCMI 052211Z 05009KT 10SM -RA SCT011 OVC018 07/05 A2993 RMK AO2 RAB02 P0000 T00670050 $,KCMI,2020-05-05T22:11:00Z,40.03,-88.27,6.7,5.0,50,9,,10.0,29.929134,,,,TRUE,TRUE,,,,,-RA,SCT,1100,OVC,1800,,,,,MVFR,,,,,,0.005,,,,,,SPECI,228.0
KEHR 052211Z AUTO 31015G20KT 10SM SCT022 SCT028 BKN040 14/10 A2992 RMK AO2,KEHR,2020-05-05T22:11:00Z,37.82,-87.67,14.0,10.0,310,15,20,10.0,29.920275,,,TRUE,TRUE,,,,,,,SCT,2200,SCT,2800,BKN,4000,,,VFR,,,,,,,,,,,,SPECI,117.0
MRPV 052211Z 11012KT 8000 RA VCTS FEW015CB BKN030 23/18 A2996 NOSIG,MRPV,2020-05-05T22:11:00Z,9.95,-84.15,23.0,18.0,110,12,,4.97,29.958662,,,,,,TRUE,,,,RA VCTS,FEW,1500,BKN,3000,,,,,MVFR,,,,,,,,,,,,METAR,994.0
KNOW 052210Z AUTO 00000KT 10SM CLR 13/09 A3007 RMK AO2 T01320090,KNOW,2020-05-05T22:10:00Z,48.13,-123.4,13.2,9.0,0,0,,10.0,30.070866,,,TRUE,TRUE,,,,,,,CLR,,,,,,,,VFR,,,,,,,,,,,,SPECI,4.0
KSBO 052210Z AUTO 25009G14KT 10SM CLR 30/15 A2982 RMK AO2,KSBO,2020-05-05T22:10:00Z,32.62,-82.37,30.0,15.0,250,9,14,10.0,29.819881,,,TRUE,TRUE,,,,,,,CLR,,,,,,,,VFR,,,,,,,,,,,,SPECI,100.0
KAQO 052210Z AUTO 04010G18KT 10SM FEW090 28/09 A3007 RMK AO2 PWINO,KAQO,2020-05-05T22:10:00Z,30.78,-98.67,28.0,9.0,40,10,18,10.0,30.070866,,,TRUE,TRUE,,,,,TRUE,,FEW,9000,,,,,,,VFR,,,,,,,,,,,,SPECI,336.0
KBMC 052210Z AUTO 36006KT 10SM CLR 22/M14 A3021 RMK AO1 T02211145,KBMC,2020-05-05T22:10:00Z,41.55,-112.07,22.1,-14.5,360,6,,10.0,30.209646,,,TRUE,TRUE,,,,,,,CLR,,,,,,,,VFR,,,,,,,,,,,,SPECI,1288.0
KAZE 052210Z AUTO 26006G14KT 10SM SCT050 31/15 A2983 RMK AO2 T03080151,KAZE,2020-05-05T22:10:00Z,31.88,-82.65,30.8,15.1,260,6,14,10.0,29.828741,,,TRUE,TRUE,,,,,,,SCT,5000,,,,,,,VFR,,,,,,,,,,,,SPECI,78.0
KO32 052210Z AUTO 30003KT CLR 30/04 A3003 RMK AO2,KO32,2020-05-05T22:10:00Z,36.67,-119.45,30.0,4.0,300,3,,,30.029528,,,TRUE,TRUE,,,,,,,CLR,,,,,,,,,,,,,,,,,,,,SPECI,117.0
KO86 052210Z AUTO 16011KT 10SM SCT110 24/00 A3006 RMK AO1,KO86,2020-05-05T22:10:00Z,40.98,-122.7,24.0,0.0,160,11,,10.0,30.059055,,,TRUE,TRUE,,,,,,,SCT,11000,,,,,,,VFR,,,,,,,,,,,,SPECI,729.0
KCNI 052210Z AUTO 24013G17KT 10SM BKN028 BKN041 OVC070 25/18 A2983 RMK AO2,KCNI,2020-05-05T22:10:00Z,34.32,-84.42,25.0,18.0,240,13,17,10.0,29.828741,,,TRUE,TRUE,,,,,,,BKN,2800,BKN,4100,OVC,7000,,,MVFR,,,,,,,,,,,,SPECI,372.0
KDWX 052210Z AUTO 18011G14KT 10SM CLR 16/M07 A3031 RMK AO2 T01601066,KDWX,2020-05-05T22:10:00Z,41.03,-107.5,16.0,-6.6,180,11,14,10.0,30.31004,,,TRUE,TRUE,,,,,,,CLR,,,,,,,,VFR,,,,,,,,,,,,SPECI,1996.0
KDVK 052210Z AUTO 31009G14KT 4SM -DZ SCT010 BKN014 OVC020 12/11 A2985 RMK AO2,KDVK,2020-05-05T22:10:00Z,37.58,-84.77,12.0,11.0,310,9,14,4.0,29.84941,,,TRUE,TRUE,,,,,,-DZ,SCT,1000,BKN,1400,OVC,2000,,,MVFR,,,,,,,,,,,,METAR,312.0
KGVT 052210Z AUTO 01006G14KT 10SM CLR 26/08 A3008 RMK AO2,KGVT,2020-05-05T22:10:00Z,33.07,-96.07,26.0,8.0,10,6,14,10.0,30.079725,,,TRUE,TRUE,,,,,,,CLR,,,,,,,,VFR,,,,,,,,,,,,SPECI,163.0
KHSG 052210Z AUTO 06006KT 020V080 10SM SCT110 18/M07 A3023 RMK AO2 T01781068,KHSG,2020-05-05T22:10:00Z,43.72,-108.38,17.8,-6.8,60,6,,10.0,30.230314,,,TRUE,TRUE,,,,,,,SCT,11000,,,,,,,VFR,,,,,,,,,,,,SPECI,1494.0
KOWI 052210Z AUTO 32017G27KT 10SM CLR 23/01 A3001 RMK AO2 PWINO,KOWI,2020-05-05T22:10:00Z,38.53,-95.25,23.0,1.0,320,17,27,10.0,30.008858,,,TRUE,TRUE,,,,,TRUE,,CLR,,,,,,,,VFR,,,,,,,,,,,,METAR,292.0
KF45 052210Z AUTO 15008KT 10SM CLR 30/18 A2993 RMK AO2,KF45,2020-05-05T22:10:00Z,26.85,-80.22,30.0,18.0,150,8,,10.0,29.929134,,,TRUE,TRUE,,,,,,,CLR,,,,,,,,VFR,,,,,,,,,,,,SPECI,7.0
KPPQ 052210Z AUTO 31003KT 10SM SCT024 BKN060 OVC075 14/11 A2991 RMK AO2 T01410110,KPPQ,2020-05-05T22:10:00Z,39.63,-90.78,14.1,11.0,310,3,,10.0,29.911417,,,TRUE,TRUE,,,,,,,SCT,2400,BKN,6000,OVC,7500,,,VFR,,,,,,,,,,,,SPECI,216.0
KRBO 052210Z AUTO 14011KT 10SM SCT029 SCT037 32/22 A2989 RMK AO2 T03190222,KRBO,2020-05-05T22:10:00Z,27.78,-97.68,31.9,22.2,140,11,,10.0,29.890747,,,TRUE,TRUE,,,,,,,SCT,2900,SCT,3700,,,,,VFR,,,,,,,,,,,,SPECI,24.0
KRPH 052210Z AUTO 03010G15KT 10SM CLR 26/05 A3009 RMK AO2 T02550046,KRPH,2020-05-05T22:10:00Z,33.12,-98.55,25.5,4.6,30,10,15,10.0,30.088583,,,TRUE,TRUE,,,,,,,CLR,,,,,,,,VFR,,,,,,,,,,,,SPECI,342.0
KRQO 052210Z AUTO 04007KT 10SM CLR 24/01 A3014 RMK AO2 TSNO T02390011,KRQO,2020-05-05T22:10:00Z,35.47,-98.0,23.9,1.1,40,7,,10.0,30.138779,,,TRUE,TRUE,,,TRUE,,,,CLR,,,,,,,,VFR,,,,,,,,,,,,SPECI,432.0
KJTC 052210Z AUTO 33018G28KT 10SM CLR 27/M06 A3023 RMK AO2,KJTC,2020-05-05T22:10:00Z,34.13,-109.32,27.0,-6.0,330,18,28,10.0,30.230314,,,TRUE,TRUE,,,,,,,CLR,,,,,,,,VFR,,,,,,,,,,,,SPECI,2150.0
KM54 052210Z AUTO 30011G16KT 10SM SCT031 BKN043 20/13 A2984 RMK A01,KM54,2020-05-05T22:10:00Z,36.18,-86.32,20.0,13.0,300,11,16,10.0,29.840551,,,TRUE,TRUE,,,,,,,SCT,3100,BKN,4300,,,,,VFR,,,,,,,,,,,,SPECI,180.0
K65S 052210Z AUTO 00000KT 10SM CLR 19/00 A3015 RMK AO2,K65S,2020-05-05T22:10:00Z,48.73,-116.3,19.0,0.0,0,0,,10.0,30.15059,,,TRUE,TRUE,,,,,,,CLR,,,,,,,,VFR,,,,,,,,,,,,SPECI,713.0
K6I2 052210Z AUTO 27014G21KT 2 1/2SM BR FEW010 FEW018 BKN024 13/13 A2986 RMK AO2,K6I2,2020-05-05T22:10:00Z,37.63,-85.25,13.0,13.0,270,14,21,2.5,29.861221,,,TRUE,TRUE,,,,,,BR,FEW,1000,FEW,1800,BKN,2400,,,IFR,,,,,,,,,,,,SPECI,264.0
KLAA 052210Z 20005KT 10SM CLR 25/M04 A3011,KLAA,2020-05-05T22:10:00Z,38.07,-102.68,25.0,-4.0,200,5,,10.0,30.109253,,,,,,,,,,,CLR,,,,,,,,VFR,,,,,,,,,,,,METAR,1119.0
KVES 052210Z AUTO 03014G20KT 10SM OVC060 07/M03 A2985 RMK AO2,KVES,2020-05-05T22:10:00Z,40.2,-84.53,7.0,-3.0,30,14,20,10.0,29.84941,,,TRUE,TRUE,,,,,,,OVC,6000,,,,,,,VFR,,,,,,,,,,,,SPECI,307.0
KPMD 052210Z AUTO 30008KT 10SM CLR 33/M02 A3003,KPMD,2020-05-05T22:10:00Z,34.63,-118.08,33.0,-2.0,300,8,,10.0,30.029528,,,TRUE,,,,,,,,CLR,,,,,,,,VFR,,,,,,,,,,,,METAR,780.0
CYPD 052209Z AUTO 31011G18KT 290V360 4SM -RA BR OVC006 01/01 A2939 RMK SLP957,CYPD,2020-05-05T22:09:00Z,45.67,-61.37,1.0,1.0,310,11,18,4.0,29.388779,995.7,,TRUE,,,,,,,-RA BR,OVC,600,,,,,,,IFR,,,,,,,,,,,,SPECI,114.0
CYDF 052209Z 04016G26KT 10SM -SNPL SCT015 OVC043 00/M01 A2936 RMK SC4SC4 SLP946,CYDF,2020-05-05T22:09:00Z,49.22,-57.4,0.0,-1.0,40,16,26,10.0,29.359253,994.6,,,,,,,,,-SN -PL,SCT,1500,OVC,4300,,,,,VFR,,,,,,,,,,,,SPECI,22.0
CYBB 052209Z 35011KT 8SM -SN BKN010 BKN200 M11/M15 A3022 RMK ST5CI1 CI TR SLP238,CYBB,2020-05-05T22:09:00Z,68.52,-89.82,-11.0,-15.0,350,11,,8.0,30.221457,1023.8,,,,,,,,,-SN,BKN,1000,BKN,20000,,,,,MVFR,,,,,,,,,,,,SPECI,15.0
KLAF 052209Z 06009KT 10SM BKN024 OVC029 08/03 A2992 RMK AO2 WSHFT 2149 T00830033,KLAF,2020-05-05T22:09:00Z,40.42,-86.93,8.3,3.3,60,9,,10.0,29.920275,,,,TRUE,,,,,,,BKN,2400,OVC,2900,,,,,MVFR,,,,,,,,,,,,SPECI,182.0
KMLI 052209Z 09010KT 9SM -RA FEW013 BKN033 OVC040 09/06 A2996 RMK AO2 P0001 T00890061,KMLI,2020-05-05T22:09:00Z,41.45,-90.52,8.9,6.1,90,10,,9.0,29.958662,,,,TRUE,,,,,,-RA,FEW,1300,BKN,3300,OVC,4000,,,VFR,,,,,,0.01,,,,,,SPECI,184.0
KRMG 052209Z AUTO TS A2983 RMK AO2 LTG DSNT W-NE TSB03 PWINO FZRANO,KRMG,2020-05-05T22:09:00Z,34.35,-85.17,,,,,,,29.828741,,,TRUE,TRUE,,,,TRUE,TRUE,TS,,,,,,,,,,,,,,,,,,,,,SPECI,193.0
KHUA 052208Z AUTO 36010KT 10SM SCT026 21/16 A2984 RMK AO2 LTG DSNT E SLP101,KHUA,2020-05-05T22:08:00Z,34.68,-86.68,21.0,16.0,360,10,,10.0,29.840551,1010.1,,TRUE,TRUE,,,,,,,SCT,2600,,,,,,,VFR,,,,,,,,,,,,METAR,209.0
CYEV 052208Z 16004KT 3SM -SN OVC009 00/M01 A3001 RMK SN7ST1 SLP171,CYEV,2020-05-05T22:08:00Z,68.32,-133.5,0.0,-1.0,160,4,,3.0,30.008858,1017.1,,,,,,,,,-SN,OVC,900,,,,,,,IFR,,,,,,,,,,,,SPECI,68.0
RKTP 052207Z 06001KT 4800 BR SKC 12/11 A2997,RKTP,2020-05-05T22:07:00Z,36.7,126.48,12.0,11.0,60,1,,2.98,29.970472,,,,,,,,,,BR,SKC,,,,,,,,IFR,,,,,,,,,,,,SPECI,12.0
LICZ 052207Z 19001KT 0050 FG VV001 13/13 Q1017 RMK VIS MIN 0050 WIND THR28 21002KT WIND THR10 22002KT A3006 RED,LICZ,2020-05-05T22:07:00Z,37.38,14.92,13.0,13.0,190,1,,0.03,30.029528,,,,,,,,,,FG,OVX,0,,,,,,,LIFR,,,-0.2,,,,,,,,100,METAR,22.0
KDPA 052207Z 06003KT 8SM -RA SCT029 BKN034 OVC044 07/04 A2997 RMK AO2 P0001 T00720039,KDPA,2020-05-05T22:07:00Z,41.92,-88.25,7.2,3.9,60,3,,8.0,29.970472,,,,TRUE,,,,,,-RA,SCT,2900,BKN,3400,OVC,4400,,,VFR,,,,,,0.01,,,,,,METAR,231.0
KDVN 052207Z AUTO 09011KT 10SM FEW011 SCT038 OVC048 09/06 A2998 RMK AO2 RAE06 P0000 T00890061,KDVN,2020-05-05T22:07:00Z,41.62,-90.58,8.9,6.1,90,11,,10.0,29.97933,,,TRUE,TRUE,,,,,,,FEW,1100,SCT,3800,OVC,4800,,,VFR,,,,,,0.005,,,,,,METAR,230.0
KIOW 052207Z AUTO 07008KT 10SM -RA FEW008 SCT020 OVC033 09/07 A2998 RMK AO2 P0000 T00940067,KIOW,2020-05-05T22:07:00Z,41.63,-91.55,9.4,6.7,70,8,,10.0,29.97933,,,TRUE,TRUE,,,,,,-RA,FEW,800,SCT,2000,OVC,3300,,,VFR,,,,,,0.005,,,,,,METAR,198.0
KRDR 052205Z 02007KT 10SM -RA BKN045 OVC070 11/06 A3015 RMK DZB03E05RAB05 SLP221,KRDR,2020-05-05T22:05:00Z,47.97,-97.4,11.0,6.0,20,7,,10.0,30.15059,1022.1,,,,,,,,,-RA,BKN,4500,OVC,7000,,,,,VFR,,,,,,,,,,,,SPECI,278.0
KE16 052205Z AUTO 33015G23KT 10SM CLR 25/06 A3011 RMK AO2,KE16,2020-05-05T22:05:00Z,37.08,-121.6,25.0,6.0,330,15,23,10.0,30.109253,,,TRUE,TRUE,,,,,,,CLR,,,,,,,,VFR,,,,,,,,,,,,SPECI,86.0
MUCL 052205Z AUTO 15007KT 120V190 30/22 Q1012,MUCL,2020-05-05T22:05:00Z,21.63,-81.55,30.0,22.0,150,7,,,29.88189,,,TRUE,,,,,,,,,,,,,,,,,,,,,,,,,,,,METAR,5.0
MUCC 052205Z AUTO 06012KT 30/23 Q1012,MUCC,2020-05-05T22:05:00Z,22.47,-78.33,30.0,23.0,60,12,,,29.88189,,,TRUE,,,,,,,,,,,,,,,,,,,,,,,,,,,,METAR,4.0
KGMU 052205Z 05006KT 9SM VCTS SCT037 BKN048 OVC060 20/18 A2978 RMK AO2 LTG DSNT ALQDS T02000183,KGMU,2020-05-05T22:05:00Z,34.85,-82.35,20.0,18.3,50,6,,9.0,29.778543,,,,TRUE,,,,,,VCTS,SCT,3700,BKN,4800,OVC,6000,,,VFR,,,,,,,,,,,,METAR,315.0
KBMI 052203Z 04012KT 9SM -RA BKN009 OVC013 06/05 A2995 RMK AO2 CIG 007V012 P0000,KBMI,2020-05-05T22:03:00Z,40.47,-88.92,6.0,5.0,40,12,,9.0,29.949802,,,,TRUE,,,,,,-RA,BKN,900,OVC,1300,,,,,IFR,,,,,,0.005,,,,,,METAR,267.0
PALP 052203Z 31004KT 10SM BKN006 M12/M14 A3017,PALP,2020-05-05T22:03:00Z,70.33,-150.93,-12.0,-14.0,310,4,,10.0,30.171259,,,,,,,,,,,BKN,600,,,,,,,IFR,,,,,,,,,,,,SPECI,5.0
KMIW 052203Z AUTO 01007KT 10SM -RA FEW009 BKN020 OVC027 07/07 A2999 RMK AO2 P0001 T00720067,KMIW,2020-05-05T22:03:00Z,42.12,-92.92,7.2,6.7,10,7,,10.0,29.991142,,,TRUE,TRUE,,,,,,-RA,FEW,900,BKN,2000,OVC,2700,,,MVFR,,,,,,0.01,,,,,,METAR,296.0
MMIA 052202Z RTD 25010KT 6SM FEW020TCU SCT200 29/16 A2988 RMK 8/201 HZY,MMIA,2020-05-05T22:02:00Z,19.27,-103.57,29.0,16.0,250,10,,6.0,29.878937,,,,,,,,,,,FEW,2000,SCT,20000,,,,,VFR,,,,,,,,,,,,METAR,723.0
SVJM 052202Z AUTO 21005KT NCD 34/15 Q1008,SVJM,2020-05-05T22:02:00Z,9.92,-67.38,34.0,15.0,210,5,,,29.763779,,,TRUE,,,,,,,,CLR,,,,,,,,,,,,,,,,,,,,METAR,429.0
SVCJ 052202Z AUTO 19003KT NCD 37/// Q////,SVCJ,2020-05-05T22:02:00Z,9.65,-68.58,,,190,3,,,,,,TRUE,,,,,,,,CLR,,,,,,,,,,,,,,,,,,,,METAR,156.0
SVGU 052202Z AUTO 30005KT NCD 29/22 Q1008,SVGU,2020-05-05T22:02:00Z,9.03,-69.75,29.0,22.0,300,5,,,29.763779,,,TRUE,,,,,,,,CLR,,,,,,,,,,,,,,,,,,,,METAR,163.0
SVBS 052202Z AUTO 24007KT NCD 35/33 Q1010,SVBS,2020-05-05T22:02:00Z,10.25,-67.65,35.0,33.0,240,7,,,29.822834,,,TRUE,,,,,,,,CLR,,,,,,,,,,,,,,,,,,,,METAR,437.0
SVSR 052202Z AUTO NIL,SVSR,2020-05-05T22:02:00Z,7.9,-67.42,,,,,,,,,,TRUE,,,,,,,,,,,,,,,,,,,,,,,,,,,,METAR,48.0
SVPA 052202Z AUTO 19004KT NCD 30/26 Q1008,SVPA,2020-05-05T22:02:00Z,5.62,-67.6,30.0,26.0,190,4,,,29.763779,,,TRUE,,,,,,,,CLR,,,,,,,,,,,,,,,,,,,,METAR,74.0
SVFM 052202Z AUTO 10007KT NCD 32/14 Q1011,SVFM,2020-05-05T22:02:00Z,10.48,-66.83,32.0,14.0,100,7,,,29.852362,,,TRUE,,,,,,,,CLR,,,,,,,,,,,,,,,,,,,,METAR,835.0
SVCS 052202Z AUTO NIL,SVCS,2020-05-05T22:02:00Z,10.3,-66.82,,,,,,,,,,TRUE,,,,,,,,,,,,,,,,,,,,,,,,,,,,METAR,654.0
SVBM 052202Z AUTO NIL,SVBM,2020-05-05T22:02:00Z,10.05,-69.37,,,,,,,,,,TRUE,,,,,,,,,,,,,,,,,,,,,,,,,,,,METAR,614.0
SVMG 052202Z AUTO 09018KT NCD 29/23 Q1009,SVMG,2020-05-05T22:02:00Z,10.92,-63.97,29.0,23.0,90,18,,,29.793306,,,TRUE,,,,,,,,CLR,,,,,,,,,,,,,,,,,,,,METAR,23.0
SVVA 052202Z AUTO NIL,SVVA,2020-05-05T22:02:00Z,10.15,-67.92,,,,,,,,,,TRUE,,,,,,,,,,,,,,,,,,,,,,,,,,,,METAR,431.0
SVBC 052202Z AUTO 01013KT NCD 32/22 Q1008,SVBC,2020-05-05T22:02:00Z,10.12,-64.67,32.0,22.0,10,13,,,29.763779,,,TRUE,,,,,,,,CLR,,,,,,,,,,,,,,,,,,,,METAR,7.0
SVMC 052202Z AUTO NIL,SVMC,2020-05-05T22:02:00Z,10.57,-71.72,,,,,,,,,,TRUE,,,,,,,,,,,,,,,,,,,,,,,,,,,,METAR,65.0
SVMI 052202Z AUTO 07008KT NCD ///// Q1010,SVMI,2020-05-05T22:02:00Z,10.58,-67.0,,,70,8,,,29.822834,,,TRUE,,,,,,,,CLR,,,,,,,,,,,,,,,,,,,,METAR,48.0
PAMO 052202Z AUTO 34012KT 9SM CLR 09/M03 A3004 RMK AO2 SLP178 T00941033,PAMO,2020-05-05T22:02:00Z,62.1,-163.68,9.4,-3.3,340,12,,9.0,30.041338,1017.8,,TRUE,TRUE,,,,,,,CLR,,,,,,,,VFR,,,,,,,,,,,,METAR,103.0
PADM 052202Z AUTO VRB05KT 10SM OVC085 12/02 A3005 RMK AO2 SLP183 T01170017,PADM,2020-05-05T22:02:00Z,61.87,-162.03,11.7,1.7,0,5,,10.0,30.050198,1018.3,,TRUE,TRUE,,,,,,,OVC,8500,,,,,,,VFR,,,,,,,,,,,,METAR,31.0
KATY 052202Z AUTO 31011KT 10SM OVC016 07/05 A3011 RMK AO2 T00720050,KATY,2020-05-05T22:02:00Z,44.9,-97.15,7.2,5.0,310,11,,10.0,30.109253,,,TRUE,TRUE,,,,,,,OVC,1600,,,,,,,MVFR,,,,,,,,,,,,METAR,532.0
KAKH 052202Z AUTO 14005KT 5SM VCTS -RA BKN100 17/14 A2974 RMK AO2 LTG DSNT S-W TSE2156 PRESFR P0001 T01720144,KAKH,2020-05-05T22:02:00Z,35.2,-81.15,17.2,14.4,140,5,,5.0,29.740158,,,TRUE,TRUE,,,,,,VCTS -RA,BKN,10000,,,,,,,MVFR,,,,,,0.01,,,,,,METAR,243.0
SVLO 052202Z AUTO 03011KT NCD 32/27 Q1009,SVLO,2020-05-05T22:02:00Z,11.8,-66.17,32.0,27.0,30,11,,,29.793306,,,TRUE,,,,,,,,CLR,,,,,,,,,,,,,,,,,,,,METAR,3.0
MHSC 052202Z 35008KT 4000 FU SCT080 33/16 A2983 RMK SLP057 T03280162 $,MHSC,2020-05-05T22:02:00Z,14.37,-87.62,32.8,16.2,350,8,,2.49,29.828741,1005.7,,,,TRUE,,,,,FU,SCT,8000,,,,,,,IFR,,,,,,,,,,,,SPECI,626.0
KTBN 052202Z AUTO 26012G20KT 10SM SCT070 21/03 A2996 RMK AO2 WSHFT 01 SLP143,KTBN,2020-05-05T22:02:00Z,37.72,-92.12,21.0,3.0,260,12,20,10.0,29.958662,1014.3,,TRUE,TRUE,,,,,,,SCT,7000,,,,,,,VFR,,,,,,,,,,,,SPECI,353.0
KLWV 052201Z AUTO 27008G16KT 5SM BR BKN008 OVC014 12/11 A2990 RMK AO2 RAE2158 CIG 004V012 P0000 T01170106,KLWV,2020-05-05T22:01:00Z,38.77,-87.6,11.7,10.6,270,8,16,5.0,29.899607,,,TRUE,TRUE,,,,,,BR,BKN,800,OVC,1400,,,,,IFR,,,,,,0.005,,,,,,METAR,131.0
KLHQ 052201Z AUTO 14004KT 10SM OVC030 08/04 A2982 RMK AO2 T00780039,KLHQ,2020-05-05T22:01:00Z,39.75,-82.67,7.8,3.9,140,4,,10.0,29.819881,,,TRUE,TRUE,,,,,,,OVC,3000,,,,,,,MVFR,,,,,,,,,,,,METAR,260.0
KCBM 052201Z AUTO 29008KT 10SM SCT022 24/17 A2990 RMK AO2 SLP126,KCBM,2020-05-05T22:01:00Z,33.63,-88.45,24.0,17.0,290,8,,10.0,29.899607,1012.6,,TRUE,TRUE,,,,,,,SCT,2200,,,,,,,VFR,,,,,,,,,,,,METAR,67.0
OPPS 052200Z 31006KT 6000 HZ FEW040 FEW100 22/17 Q1009,OPPS,2020-05-05T22:00:00Z,34.02,71.52,22.0,17.0,310,6,,3.73,29.793306,,,,,,,,,,HZ,FEW,4000,FEW,10000,,,,,MVFR,,,,,,,,,,,,METAR,360.0
ORSU 052200Z 22006KT 8000 VCTS DU FEW035CB SCT045 BKN080 20/12 Q1009,ORSU,2020-05-05T22:00:00Z,35.57,45.32,20.0,12.0,220,6,,4.97,29.793306,,,,,,,,,,VCTS DU,FEW,3500,SCT,4500,BKN,8000,,,MVFR,,,,,,,,,,,,METAR,761.0
SARP 052200Z 09004KT 9999 SCT012 BKN100 19/19 Q1012,SARP,2020-05-05T22:00:00Z,-27.38,-55.97,19.0,19.0,90,4,,6.21,29.88189,,,,,,,,,,,SCT,1200,BKN,10000,,,,,VFR,,,,,,,,,,,,METAR,125.0
YPPD 052200Z AUTO 18006KT 9999 // NCD 18/14 Q1015,YPPD,2020-05-05T22:00:00Z,-20.37,118.62,18.0,14.0,180,6,,6.21,29.970472,,,TRUE,,,,,,,,CLR,,,,,,,,VFR,,,,,,,,,,,,METAR,6.0
UTSS 052200Z 15008KT 6000 FEW069CB 17/09 Q1014 R09/70D NOSIG,UTSS,2020-05-05T22:00:00Z,39.7,66.98,17.0,9.0,150,8,,3.73,29.940945,,,,,,TRUE,,,,,FEW,6900,,,,,,,MVFR,,,,,,,,,,,,METAR,724.0
CWWS 052200Z AUTO 02/01 RMK AO1 19 2009 SLP245 T00220005,CWWS,2020-05-05T22:00:00Z,52.82,-97.62,2.2,0.5,,,,,,1024.5,,TRUE,TRUE,,,,,,,,,,,,,,,,,,,,,,,,,,,METAR,223.0
CWDQ 052200Z AUTO 32005KT 09/ RMK AO1 SLP130 T0093 53003,CWDQ,2020-05-05T22:00:00Z,47.42,-72.78,9.3,,320,5,,,,1013.0,,TRUE,TRUE,,,,,,,,,,,,,,,,0.3,,,,,,,,,,,METAR,169.0
CWDO 052200Z AUTO 07028G35KT M00/M01 RMK AO1 PK WND 06035/2152 SLP929 T10041008 57042,CWDO,2020-05-05T22:00:00Z,49.67,-54.78,-0.4,-0.8,70,28,35,,,992.9,,TRUE,TRUE,,,,,,,,,,,,,,,,-4.2,,,,,,,,,,,METAR,92.0
CWVU 052200Z AUTO 35014G19KT 05/03 RMK AO1 PK WND 00023/2116 SLP065 T00530028 52024,CWVU,2020-05-05T22:00:00Z,44.28,-66.33,5.3,2.8,350,14,19,,,1006.5,,TRUE,TRUE,,,,,,,,,,,,,,,,2.4,,,,,,,,,,,METAR,16.0
CXSE 052200Z AUTO 27007KT M13/M18 RMK AO1 SLP333 T11261184 51003,CXSE,2020-05-05T22:00:00Z,73.77,-105.28,-12.6,-18.4,270,7,,,,1033.3,,TRUE,TRUE,,,,,,,,,,,,,,,,0.3,,,,,,,,,,,METAR,11.0
CXDK 052200Z AUTO 15/M00 RMK AO1 SLP191 T01481004 58016,CXDK,2020-05-05T22:00:00Z,61.27,-124.47,14.8,-0.4,,,,,,1019.1,,TRUE,TRUE,,,,,,,,,,,,,,,,-1.6,,,,,,,,,,,METAR,283.0
CWEZ 052200Z AUTO 30002KT 14/07 RMK AO1 SLP181 T01440073 57026,CWEZ,2020-05-05T22:00:00Z,48.78,-123.05,14.4,7.3,300,2,,,,1018.1,,TRUE,TRUE,,,,,,,,,,,,,,,,-2.6,,,,,,,,,,,METAR,7.0
UTST 052200Z 03004KT 9999 SCT050CB 17/12 Q1015 R88/CLRD70 NOSIG,UTST,2020-05-05T22:00:00Z,37.28,67.32,17.0,12.0,30,4,,6.21,29.970472,,,,,,TRUE,,,,,SCT,5000,,,,,,,VFR,,,,,,,,,,,,METAR,302.0
DAUB 052200Z 06005KT CAVOK 30/05 Q1015,DAUB,2020-05-05T22:00:00Z,34.78,5.72,30.0,5.0,60,5,,6.21,29.970472,,,,,,,,,,,CAVOK,,,,,,,,VFR,,,,,,,,,,,,METAR,87.0
YBRM 052200Z AUTO 00000KT 9999 // SCT125 17/15 Q1014,YBRM,2020-05-05T22:00:00Z,-17.93,122.22,17.0,15.0,0,0,,6.21,29.940945,,,TRUE,,,,,,,,SCT,12500,,,,,,,VFR,,,,,,,,,,,,METAR,9.0
YBRK 052200Z AUTO 11006KT 9999 // NCD 19/12 Q1024,YBRK,2020-05-05T22:00:00Z,-23.37,150.47,19.0,12.0,110,6,,6.21,30.236221,,,TRUE,,,,,,,,CLR,,,,,,,,VFR,,,,,,,,,,,,METAR,14.0
YBMA 052200Z AUTO 09012KT 9999 // NCD 21/09 Q1020,YBMA,2020-05-05T22:00:00Z,-20.67,139.47,21.0,9.0,90,12,,6.21,30.11811,,,TRUE,,,,,,,,CLR,,,,,,,,VFR,,,,,,,,,,,,METAR,344.0
YBHM 052200Z AUTO 16023KT 9999 // SCT029 BKN035 BKN043 22/19 Q1020,YBHM,2020-05-05T22:00:00Z,-20.35,148.95,22.0,19.0,160,23,,6.21,30.11811,,,TRUE,,,,,,,,SCT,2900,BKN,3500,BKN,4300,,,VFR,,,,,,,,,,,,METAR,5.0
YBCG 052200Z AUTO 21009KT 9999 // SCT077 SCT086 18/15 Q1027,YBCG,2020-05-05T22:00:00Z,-28.17,153.5,18.0,15.0,210,9,,6.21,30.324802,,,TRUE,,,,,,,,SCT,7700,SCT,8600,,,,,VFR,,,,,,,,,,,,METAR,6.0
YAMB 052200Z 19002KT 9999 FEW020 SCT060 18/14 Q1027,YAMB,2020-05-05T22:00:00Z,-27.63,152.72,18.0,14.0,190,2,,6.21,30.324802,,,,,,,,,,,FEW,2000,SCT,6000,,,,,VFR,,,,,,,,,,,,METAR,28.0
LQBK 052200Z 35006KT 9999 FEW007 BKN016 13/12 Q1015 NOSIG,LQBK,2020-05-05T22:00:00Z,44.93,17.3,13.0,12.0,350,6,,6.21,29.970472,,,,,,TRUE,,,,,FEW,700,BKN,1600,,,,,MVFR,,,,,,,,,,,,METAR,122.0
FQCH 052200Z /////KT 9999 BKN020 16/16 Q1024,FQCH,2020-05-05T22:00:00Z,-19.15,33.43,16.0,16.0,,,,6.21,30.236221,,,,,,,,,,,BKN,2000,,,,,,,MVFR,,,,,,,,,,,,METAR,732.0
BIRK 052200Z 25009KT 9999 FEW013 BKN018 07/03 Q1020,BIRK,2020-05-05T22:00:00Z,64.13,-21.93,7.0,3.0,250,9,,6.21,30.11811,,,,,,,,,,,FEW,1300,BKN,1800,,,,,MVFR,,,,,,,,,,,,METAR,61.0
BIEG 052200Z 28017KT CAVOK 08/M02 Q1015,BIEG,2020-05-05T22:00:00Z,65.27,-14.4,8.0,-2.0,280,17,,6.21,29.970472,,,,,,,,,,,CAVOK,,,,,,,,VFR,,,,,,,,,,,,METAR,38.0
BIAR 052200Z 20006KT CAVOK 08/M02 Q1016 RMK WIND VADLAHEIDI 24020KT,BIAR,2020-05-05T22:00:00Z,65.67,-18.07,8.0,-2.0,200,6,,6.21,30.0,,,,,,,,,,,CAVOK,,,,,,,,VFR,,,,,,,,,,,,SPECI,27.0
LKKV 052200Z 32003KT 290V040 9999 FEW033 03/M03 Q1020,LKKV,2020-05-05T22:00:00Z,50.2,12.92,3.0,-3.0,320,3,,6.21,30.11811,,,,,,,,,,,FEW,3300,,,,,,,VFR,,,,,,,,,,,,METAR,604.0
MGTU 052200Z 05004KT 8000 -TSRA SCT018 FEW020CB BKN060 24/24 CB/TS N/NNE/NE/ENE/NNW,MGTU,2020-05-05T22:00:00Z,,,24.0,24.0,50,4,,4.97,,,,,,,,,,,-TSRA TS,SCT,1800,FEW,2000,BKN,6000,,,MVFR,,,,,,,,,,,,METAR,
MGMT 052200Z 18004KT 8000 FEW070 OVC200 32/25 HZ,MGMT,2020-05-05T22:00:00Z,,,32.0,25.0,180,4,,4.97,,,,,,,,,,,HZ,FEW,7000,OVC,20000,,,,,MVFR,,,,,,,,,,,,METAR,
MGES 052200Z 05010KT 7000 TS SCT020 SCT025CB BKN090 29/18 QFE906.6 HZ CB/TS/LTNG/PCPN S/SW/WSW/W,MGES,2020-05-05T22:00:00Z,14.57,-89.32,29.0,18.0,50,10,,4.35,,,,,,,,,,,TS TS HZ,SCT,2000,SCT,2500,BKN,9000,,,MVFR,,,,,,,,,,,,METAR,965.0
MGZA 052200Z 06008KT 9999 FEW040 OVC200 35/20 QFE981/6 FEW090,MGZA,2020-05-05T22:00:00Z,14.97,-89.52,35.0,20.0,60,8,,6.21,,,,,,,,,,,,FEW,4000,OVC,20000,FEW,9000,,,VFR,,,,,,,,,,,,METAR,490.0
MGCB 052200Z 34004KT 8000 SCT018TCU SCT200 24/18 QFE868.4 HZ TCU E,MGCB,2020-05-05T22:00:00Z,15.48,-90.42,24.0,18.0,340,4,,4.97,,,,,,,,,,,HZ,SCT,1800,SCT,20000,,,,,MVFR,,,,,,,,,,,,METAR,1316.0
MGQZ 052200Z 36010KT 9999 +TSRA BKN018 SCT025CB 17/14 QFE771/9 CB/TS/LTNG SMC E,MGQZ,2020-05-05T22:00:00Z,14.87,-91.5,17.0,14.0,360,10,,6.21,,,,,,,,,,,+TSRA TS,BKN,1800,SCT,2500,,,,,MVFR,,,,,,,,,,,,METAR,2371.0
MGRT 052200Z 04006KT 7000 -TSRA BKN018 FEW025CB OVC090 24/23 Q1013 A2991 CB/TS/LTNG RE/ENE/E VOL. SANTA MARIA Y SANTIAGUITO EN ACTIVIDAD,MGRT,2020-05-05T22:00:00Z,14.53,-91.7,24.0,23.0,40,6,,4.35,29.911417,,,,,,,,,,-TSRA TS SA SA,BKN,1800,FEW,2500,OVC,9000,,,MVFR,,,,,,,,,,,,METAR,200.0
MGSJ 052200Z 21010KT 6000 BKN070 31/25 Q1008 A2977 HZ,MGSJ,2020-05-05T22:00:00Z,13.92,-90.83,31.0,25.0,210,10,,3.73,29.763779,,,,,,,,,,HZ,BKN,7000,,,,,,,MVFR,,,,,,,,,,,,METAR,9.0
MGPB 052200Z 09008KT 8000 FEW018 SCT090 30/25 Q1009 A2980 HZ,MGPB,2020-05-05T22:00:00Z,15.72,-88.58,30.0,25.0,90,8,,4.97,29.793306,,,,,,,,,,HZ,FEW,1800,SCT,9000,,,,,MVFR,,,,,,,,,,,,METAR,10.0
MGHT 052200Z 13010KT 8000 TSRA BKN020 FEW025CB 17/15 CB/TS E,MGHT,2020-05-05T22:00:00Z,15.32,-91.5,17.0,15.0,130,10,,4.97,,,,,,,,,,,TSRA TS,BKN,2000,FEW,2500,,,,,MVFR,,,,,,,,,,,,METAR,1901.0
MGMM 052200Z 08008KT 9999 SCT020 37/22 Q1008 A2977,MGMM,2020-05-05T22:00:00Z,16.97,-89.87,37.0,22.0,80,8,,6.21,29.763779,,,,,,,,,,,SCT,2000,,,,,,,VFR,,,,,,,,,,,,METAR,123.0
GBYD 052200Z 27008KT CAVOK 23/21 Q1010,GBYD,2020-05-05T22:00:00Z,13.33,-16.65,23.0,21.0,270,8,,6.21,29.822834,,,,,,,,,,,CAVOK,,,,,,,,VFR,,,,,,,,,,,,METAR,36.0
VECC 052200Z 19006KT 3200 HZ SCT018 BKN100 27/26 Q1005 BECMG 3000 HZ,VECC,2020-05-05T22:00:00Z,22.65,88.43,27.0,26.0,190,6,,1.99,29.675198,,,,,,,,,,HZ,SCT,1800,BKN,10000,,,,,IFR,,,,,,,,,,,,METAR,6.0
SASA 052200Z 36004KT 9999 SCT020 SCT030 18/14 Q1020,SASA,2020-05-05T22:00:00Z,-24.85,-65.47,18.0,14.0,360,4,,6.21,30.11811,,,,,,,,,,,SCT,2000,SCT,3000,,,,,VFR,,,,,,,,,,,,METAR,1216.0
MROC 052200Z 22009KT 190V250 9999 4500SW TSRA FEW025CB SCT030 BKN035 24/19 A2995 NOSIG,MROC,2020-05-05T22:00:00Z,10.0,-84.22,24.0,19.0,220,9,,6.21,29.949802,,,,,,TRUE,,,,TSRA,FEW,2500,SCT,3000,BKN,3500,,,VFR,,,,,,,,,,,,METAR,920.0
SASJ 052200Z 18014KT 9999 SCT030 20/14 Q1018,SASJ,2020-05-05T22:00:00Z,-24.37,-65.1,20.0,14.0,180,14,,6.21,30.059055,,,,,,,,,,,SCT,3000,,,,,,,VFR,,,,,,,,,,,,METAR,1167.0
WSSL 052200Z 24009G20KT 210V280 8000 VCSH FEW015 SCT017TCU FEW018CB 26/23 Q1009,WSSL,2020-05-05T22:00:00Z,1.42,103.87,26.0,23.0,240,9,20,4.97,29.793306,,,,,,,,,,VCSH,FEW,1500,SCT,1700,FEW,1800,,,MVFR,,,,,,,,,,,,METAR,14.0
FSIA 052200Z 19004KT 9999 FEW023 27/24 Q1010 NOSIG,FSIA,2020-05-05T22:00:00Z,-4.67,55.52,27.0,24.0,190,4,,6.21,29.822834,,,,,,TRUE,,,,,FEW,2300,,,,,,,VFR,,,,,,,,,,,,METAR,3.0
YCIN 052200Z AUTO 16006KT 9999 // NCD 18/08 Q1013,YCIN,2020-05-05T22:00:00Z,-17.58,123.83,18.0,8.0,160,6,,6.21,29.911417,,,TRUE,,,,,,,,CLR,,,,,,,,VFR,,,,,,,,,,,,METAR,91.0
YWHA 052200Z AUTO 34008KT 9999 // ////// 10/04 Q1022,YWHA,2020-05-05T22:00:00Z,-33.07,137.52,10.0,4.0,340,8,,6.21,30.177166,,,TRUE,,,,,,,,,,,,,,,,,,,,,,,,,,,,METAR,13.0
YWGT 052200Z AUTO 00000KT 9999 // NCD 05/05 Q1029,YWGT,2020-05-05T22:00:00Z,-36.42,146.3,5.0,5.0,0,0,,6.21,30.383858,,,TRUE,,,,,,,,CLR,,,,,,,,VFR,,,,,,,,,,,,METAR,153.0
YTRE 052200Z AUTO /////KT 9999 // NCD 14/12 Q1030,YTRE,2020-05-05T22:00:00Z,-31.88,152.52,14.0,12.0,,,,6.21,30.413385,,,TRUE,,,,,,,,CLR,,,,,,,,VFR,,,,,,,,,,,,METAR,12.0
YTNK 052200Z AUTO 11011KT 9999 // NCD 16/M04 Q1019,YTNK,2020-05-05T22:00:00Z,-19.63,134.18,16.0,-4.0,110,11,,6.21,30.088583,,,TRUE,,,,,,,,CLR,,,,,,,,VFR,,,,,,,,,,,,METAR,377.0
YTEF 052200Z AUTO 00000KT 9999 // NCD 16/M01 Q1016,YTEF,2020-05-05T22:00:00Z,-21.72,122.23,16.0,-1.0,0,0,,6.21,30.0,,,TRUE,,,,,,,,CLR,,,,,,,,VFR,,,,,,,,,,,,METAR,296.0
YSTW 052200Z AUTO 17005KT 9999 // NCD 11/09 Q1030 RF00.0/000.0,YSTW,2020-05-05T22:00:00Z,-31.07,150.85,11.0,9.0,170,5,,6.21,30.413385,,,TRUE,,,,,,,,CLR,,,,,,,,VFR,,,,,,,,,,,,METAR,410.0
TKPK 052200Z 09011KT 9999 FEW014 28/23 Q1014,TKPK,2020-05-05T22:00:00Z,17.3,-62.72,28.0,23.0,90,11,,6.21,29.940945,,,,,,,,,,,FEW,1400,,,,,,,VFR,,,,,,,,,,,,METAR,48.0
KNEL 052200Z 30006KT 10SM CLR 14/M04 A2987 RMK AO2 SLP113 T01441039,KNEL,2020-05-05T22:00:00Z,40.02,-74.33,14.4,-3.9,300,6,,10.0,29.870079,1011.3,,,TRUE,,,,,,,CLR,,,,,,,,VFR,,,,,,,,,,,,SPECI,31.0
SARE 052200Z 18006KT CAVOK 18/18 Q1014,SARE,2020-05-05T22:00:00Z,-27.43,-59.03,18.0,18.0,180,6,,6.21,29.940945,,,,,,,,,,,CAVOK,,,,,,,,VFR,,,,,,,,,,,,METAR,52.0
GQPP 052200Z 36014KT CAVOK 19/16 Q1014 NOSIG,GQPP,2020-05-05T22:00:00Z,20.92,-17.02,19.0,16.0,360,14,,6.21,29.940945,,,,,,TRUE,,,,,CAVOK,,,,,,,,VFR,,,,,,,,,,,,METAR,3.0
SEGU 052200Z 29004KT 9999 FEW020 SCT026 BKN100 30/23 Q1006 NOSIG RMK A2972,SEGU,2020-05-05T22:00:00Z,-2.13,-79.87,30.0,23.0,290,4,,6.21,29.704725,,,,,,TRUE,,,,,FEW,2000,SCT,2600,BKN,10000,,,VFR,,,,,,,,,,,,METAR,9.0
SBSN 052200Z 09004KT 9999 VCTS FEW027CB SCT080 28/26 Q1009,SBSN,2020-05-05T22:00:00Z,-2.42,-54.78,28.0,26.0,90,4,,6.21,29.793306,,,,,,,,,,VCTS,FEW,2700,SCT,8000,,,,,VFR,,,,,,,,,,,,METAR,72.0
TNCA 052200Z 08020KT 9999 FEW017 28/24 Q1009 NOSIG,TNCA,2020-05-05T22:00:00Z,12.5,-70.0,28.0,24.0,80,20,,6.21,29.793306,,,,,,TRUE,,,,,FEW,1700,,,,,,,VFR,,,,,,,,,,,,METAR,18.0
SARI 052200Z 09005KT 9999 FEW025 BKN100 20/16 Q1011,SARI,2020-05-05T22:00:00Z,-25.72,-54.47,20.0,16.0,90,5,,6.21,29.852362,,,,,,,,,,,FEW,2500,BKN,10000,,,,,VFR,,,,,,,,,,,,METAR,270.0
LBPL 052200Z 11002KT 9999 BKN100 11/06 Q1011,LBPL,2020-05-05T22:00:00Z,43.45,24.5,11.0,6.0,110,2,,6.21,29.852362,,,,,,,,,,,BKN,10000,,,,,,,VFR,,,,,,,,,,,,METAR,101.0
LBIA 052200Z 08006KT 9999 FEW200 14/07 Q1012,LBIA,2020-05-05T22:00:00Z,42.45,26.35,14.0,7.0,80,6,,6.21,29.88189,,,,,,,,,,,FEW,20000,,,,,,,VFR,,,,,,,,,,,,METAR,155.0
LBPG 052200Z 03004KT 9999 BKN200 12/07 Q1011,LBPG,2020-05-05T22:00:00Z,42.28,24.72,12.0,7.0,30,4,,6.21,29.852362,,,,,,,,,,,BKN,20000,,,,,,,VFR,,,,,,,,,,,,METAR,58.0
MMBT 052200Z RTD 00000KT 7SM SCT030 SCT200 33/20 A2979 RMK 8/101 HZY,MMBT,2020-05-05T22:00:00Z,15.77,-96.27,33.0,20.0,0,0,,7.0,29.790354,,,,,,,,,,,SCT,3000,SCT,20000,,,,,VFR,,,,,,,,,,,,METAR,143.0
SAME 052200Z 05004KT 9999 BKN035 13/01 Q1027,SAME,2020-05-05T22:00:00Z,-32.82,-68.77,13.0,1.0,50,4,,6.21,30.324802,,,,,,,,,,,BKN,3500,,,,,,,VFR,,,,,,,,,,,,METAR,704.0
NGFU 052200Z 10006KT 9999 FEW020 33/25 Q1010,NGFU,2020-05-05T22:00:00Z,-8.52,179.22,33.0,25.0,100,6,,6.21,29.822834,,,,,,,,,,,FEW,2000,,,,,,,VFR,,,,,,,,,,,,METAR,1.0
SBBG 052200Z AUTO 22017KT CAVOK 15/10 Q1013,SBBG,2020-05-05T22:00:00Z,-31.38,-54.12,15.0,10.0,220,17,,6.21,29.911417,,,TRUE,,,,,,,,CAVOK,,,,,,,,VFR,,,,,,,,,,,,METAR,180.0
SABE 052200Z 20007KT 140V250 9999 FEW045 15/07 Q1017 NOSIG,SABE,2020-05-05T22:00:00Z,-34.57,-58.42,15.0,7.0,200,7,,6.21,30.029528,,,,,,TRUE,,,,,FEW,4500,,,,,,,VFR,,,,,,,,,,,,METAR,6.0
MHGS 052200Z 32004KT 3000 TS SCT030TCU FEW032CB 30/18 RMK 3KM ALL FU CB TS NE,MHGS,2020-05-05T22:00:00Z,14.57,-88.6,30.0,18.0,320,4,,1.86,,,,,,,,,,,TS,SCT,3000,FEW,3200,,,,,IFR,,,,,,,,,,,,METAR,913.0
MHNO 052200Z 02004KT 9999 TS BKN040CB 26/21 RMK CB TS NE W,MHNO,2020-05-05T22:00:00Z,14.43,-89.18,26.0,21.0,20,4,,6.21,,,,,,,,,,,TS,BKN,4000,,,,,,,VFR,,,,,,,,,,,,METAR,2.0
MHSR 052200Z 36008KT 3000 FU SCT030TCU BKN250 29/19 RMK 3KM ALL FU,MHSR,2020-05-05T22:00:00Z,14.78,-88.78,29.0,19.0,360,8,,1.86,,,,,,,,,,,FU,SCT,3000,BKN,25000,,,,,IFR,,,,,,,,,,,,METAR,1079.0
MHCA 052200Z 08004KT 9999 FEW030 34/16,MHCA,2020-05-05T22:00:00Z,14.9,-85.78,34.0,16.0,80,4,,6.21,,,,,,,,,,,,FEW,3000,,,,,,,VFR,,,,,,,,,,,,METAR,442.0
MHPL 052200Z 06010KT 9999 FEW028 BKN250 31/25 Q1010,MHPL,2020-05-05T22:00:00Z,15.27,-83.78,31.0,25.0,60,10,,6.21,29.822834,,,,,,,,,,,FEW,2800,BKN,25000,,,,,VFR,,,,,,,,,,,,METAR,13.0
YPKG 052200Z AUTO 29017G27KT 9999 // OVC037 15/09 Q1011,YPKG,2020-05-05T22:00:00Z,-30.77,121.45,15.0,9.0,290,17,27,6.21,29.852362,,,TRUE,,,,,,,,OVC,3700,,,,,,,VFR,,,,,,,,,,,,METAR,360.0
NCAI 052200Z AUTO 10006KT 050V140 //// // ///////// 29/25 Q1013,NCAI,2020-05-05T22:00:00Z,-18.82,-159.77,29.0,25.0,100,6,,,29.911417,,,TRUE,,,,,,,,,,,,,,,,,,,,,,,,,,,,METAR,6.0
SBRJ 052200Z 19005KT CAVOK 25/20 Q1011,SBRJ,2020-05-05T22:00:00Z,-22.88,-43.17,25.0,20.0,190,5,,6.21,29.852362,,,,,,,,,,,CAVOK,,,,,,,,VFR,,,,,,,,,,,,METAR,3.0
TNCC 052200Z 10013KT 9999 FEW026 29/23 Q1010 NOSIG,TNCC,2020-05-05T22:00:00Z,12.2,-68.97,29.0,23.0,100,13,,6.21,29.822834,,,,,,TRUE,,,,,FEW,2600,,,,,,,VFR,,,,,,,,,,,,METAR,9.0
TBPB 052200Z 10019KT 9999 SCT020 28/23 Q1013 NOSIG,TBPB,2020-05-05T22:00:00Z,13.07,-59.48,28.0,23.0,100,19,,6.21,29.911417,,,,,,TRUE,,,,,SCT,2000,,,,,,,VFR,,,,,,,,,,,,METAR,52.0
SBJP 052200Z 19005KT 9999 FEW020 26/25 Q1013,SBJP,2020-05-05T22:00:00Z,-7.15,-34.95,26.0,25.0,190,5,,6.21,29.911417,,,,,,,,,,,FEW,2000,,,,,,,VFR,,,,,,,,,,,,METAR,66.0
OMSJ 052200Z 12004KT CAVOK 22/13 Q1008 NOSIG,OMSJ,2020-05-05T22:00:00Z,25.32,55.52,22.0,13.0,120,4,,6.21,29.763779,,,,,,TRUE,,,,,CAVOK,,,,,,,,VFR,,,,,,,,,,,,METAR,33.0
OMRK 052200Z 23005KT CAVOK 21/12 Q1008 A2978,OMRK,2020-05-05T22:00:00Z,25.62,55.92,21.0,12.0,230,5,,6.21,29.763779,,,,,,,,,,,CAVOK,,,,,,,,VFR,,,,,,,,,,,,METAR,31.0
OMFJ 052200Z 31005KT CAVOK 30/08 Q1007 RMK A2975,OMFJ,2020-05-05T22:00:00Z,25.1,56.32,30.0,8.0,310,5,,6.21,29.734253,,,,,,,,,,,CAVOK,,,,,,,,VFR,,,,,,,,,,,,SPECI,28.0
OMDW 052200Z 10004KT CAVOK 22/15 Q1009 NOSIG,OMDW,2020-05-05T22:00:00Z,24.9,55.17,22.0,15.0,100,4,,6.21,29.793306,,,,,,TRUE,,,,,CAVOK,,,,,,,,VFR,,,,,,,,,,,,METAR,25.0
OMDB 052200Z 11003KT CAVOK 28/17 Q1007 NOSIG,OMDB,2020-05-05T22:00:00Z,25.25,55.37,28.0,17.0,110,3,,6.21,29.734253,,,,,,TRUE,,,,,CAVOK,,,,,,,,VFR,,,,,,,,,,,,METAR,5.0
OMAL 052200Z 04005KT CAVOK 28/04 Q1009 NOSIG,OMAL,2020-05-05T22:00:00Z,24.25,55.6,28.0,4.0,40,5,,6.21,29.793306,,,,,,TRUE,,,,,CAVOK,,,,,,,,VFR,,,,,,,,,,,,METAR,262.0
OMAD 052200Z 08002KT CAVOK 26/20 Q1007 NOSIG,OMAD,2020-05-05T22:00:00Z,24.42,54.47,26.0,20.0,80,2,,6.21,29.734253,,,,,,TRUE,,,,,CAVOK,,,,,,,,VFR,,,,,,,,,,,,METAR,3.0
OMAA 052200Z 05004KT CAVOK 25/21 Q1007 NOSIG,OMAA,2020-05-05T22:00:00Z,24.42,54.63,25.0,21.0,50,4,,6.21,29.734253,,,,,,TRUE,,,,,CAVOK,,,,,,,,VFR,,,,,,,,,,,,METAR,27.0
GOBD 052200Z VRB03KT 8000 NSC 23/18 Q1011 NOSIG,GOBD,2020-05-05T22:00:00Z,14.67,-17.07,23.0,18.0,0,3,,4.97,29.852362,,,,,,TRUE,,,,,CLR,,,,,,,,MVFR,,,,,,,,,,,,METAR,88.0
SBGL 052200Z 29002KT CAVOK 25/21 Q1012,SBGL,2020-05-05T22:00:00Z,-22.82,-43.25,25.0,21.0,290,2,,6.21,29.88189,,,,,,,,,,,CAVOK,,,,,,,,VFR,,,,,,,,,,,,METAR,6.0
LFRG 052200Z AUTO 04003KT 3800 BR SCT040 08/08 Q1020,LFRG,2020-05-05T22:00:00Z,49.37,0.15,8.0,8.0,40,3,,2.36,30.11811,,,TRUE,,,,,,,BR,SCT,4000,,,,,,,IFR,,,,,,,,,,,,METAR,146.0
CWAE 052200Z 36004KT 15SM BKN210 16/02 A3010 RMK CI6 WND ESTD SLP201 DENSITY ALT 2600FT,CWAE,2020-05-05T22:00:00Z,50.13,-122.95,16.0,2.0,360,4,,15.0,30.100393,1020.1,,,,,,,,,,BKN,21000,,,,,,,VFR,,,,,,,,,,,,METAR,658.0
YSNW 052200Z 31013KT CAVOK 14/09 Q1028 NOSIG,YSNW,2020-05-05T22:00:00Z,-34.95,150.52,14.0,9.0,310,13,,6.21,30.35433,,,,,,TRUE,,,,,CAVOK,,,,,,,,VFR,,,,,,,,,,,,METAR,110.0
YMOR 052200Z AUTO /////KT 9999 // NCD 14/09 Q1029,YMOR,2020-05-05T22:00:00Z,-29.5,149.85,14.0,9.0,,,,6.21,30.383858,,,TRUE,,,,,,,,CLR,,,,,,,,VFR,,,,,,,,,,,,METAR,214.0
YMIA 052200Z AUTO 02005KT 9999 // NCD 08/08 Q1025,YMIA,2020-05-05T22:00:00Z,-34.23,142.08,8.0,8.0,20,5,,6.21,30.265747,,,TRUE,,,,,,,,CLR,,,,,,,,VFR,,,,,,,,,,,,METAR,51.0
YMER 052200Z AUTO 21001KT 9999 // NCD 08/08 Q1026,YMER,2020-05-05T22:00:00Z,-36.92,149.9,8.0,8.0,210,1,,6.21,30.295275,,,TRUE,,,,,,,,CLR,,,,,,,,VFR,,,,,,,,,,,,METAR,2.0
YMEN 052200Z AUTO 36011KT 9999 // NCD 13/08 Q1025,YMEN,2020-05-05T22:00:00Z,-37.72,144.9,13.0,8.0,360,11,,6.21,30.265747,,,TRUE,,,,,,,,CLR,,,,,,,,VFR,,,,,,,,,,,,METAR,86.0
YMEK 052200Z AUTO 27007KT 9999 // NCD 17/12 Q1016,YMEK,2020-05-05T22:00:00Z,-26.62,118.55,17.0,12.0,270,7,,6.21,30.0,,,TRUE,,,,,,,,CLR,,,,,,,,VFR,,,,,,,,,,,,METAR,522.0
YMAY 052200Z AUTO 00000KT 9999 // NCD 07/07 Q1030,YMAY,2020-05-05T22:00:00Z,-36.07,146.93,7.0,7.0,0,0,,6.21,30.413385,,,TRUE,,,,,,,,CLR,,,,,,,,VFR,,,,,,,,,,,,METAR,171.0
YLRE 052200Z AUTO 10010KT 9999 // NCD 16/03 Q1024,YLRE,2020-05-05T22:00:00Z,-23.43,144.28,16.0,3.0,100,10,,6.21,30.236221,,,TRUE,,,,,,,,CLR,,,,,,,,VFR,,,,,,,,,,,,METAR,193.0
FOOL 052200Z 20004KT 120V270 9999 FEW013 28/26 Q1011 NOSIG,FOOL,2020-05-05T22:00:00Z,0.45,9.42,28.0,26.0,200,4,,6.21,29.852362,,,,,,TRUE,,,,,FEW,1300,,,,,,,VFR,,,,,,,,,,,,METAR,15.0
OIZH 052200Z 20004KT CAVOK 17/03 Q1019 A3009,OIZH,2020-05-05T22:00:00Z,29.47,60.92,17.0,3.0,200,4,,6.21,30.088583,,,,,,,,,,,CAVOK,,,,,,,,VFR,,,,,,,,,,,,METAR,1370.0
OIKK 052200Z 00000KT CAVOK 15/04 Q1021 A3017,OIKK,2020-05-05T22:00:00Z,30.25,56.97,15.0,4.0,0,0,,6.21,30.147638,,,,,,,,,,,CAVOK,,,,,,,,VFR,,,,,,,,,,,,METAR,1754.0
OIKB 052200Z VRB02KT CAVOK 25/17 Q1007 A2975,OIKB,2020-05-05T22:00:00Z,27.22,56.37,25.0,17.0,0,2,,6.21,29.734253,,,,,,,,,,,CAVOK,,,,,,,,VFR,,,,,,,,,,,,METAR,10.0
OIAW 052200Z 20006KT 2500 DU FEW035CB SCT040 BKN100 30/14 Q1005,OIAW,2020-05-05T22:00:00Z,31.32,48.77,30.0,14.0,200,6,,1.55,29.675198,,,,,,,,,,DU,FEW,3500,SCT,4000,BKN,10000,,,IFR,,,,,,,,,,,,METAR,22.0
OISY 052200Z 00000KT 9999 BKN080 16/05 Q1023,OISY,2020-05-05T22:00:00Z,30.7,51.55,16.0,5.0,0,0,,6.21,30.206694,,,,,,,,,,,BKN,8000,,,,,,,VFR,,,,,,,,,,,,METAR,1811.0
OINN 052200Z 18004KT 9999 BKN040 21/15 Q1005,OINN,2020-05-05T22:00:00Z,36.67,51.47,21.0,15.0,180,4,,6.21,29.675198,,,,,,,,,,,BKN,4000,,,,,,,VFR,,,,,,,,,,,,METAR,-19.0
OIKQ 052200Z 24006KT 6000 NSC 26/24 Q1007,OIKQ,2020-05-05T22:00:00Z,26.75,55.9,26.0,24.0,240,6,,3.73,29.734253,,,,,,,,,,,CLR,,,,,,,,MVFR,,,,,,,,,,,,METAR,12.0
OICI 052200Z 18008KT 8000 SCT040 OVC090 23/05 Q1013 A2993,OICI,2020-05-05T22:00:00Z,33.58,46.4,23.0,5.0,180,8,,4.97,29.911417,,,,,,,,,,,SCT,4000,OVC,9000,,,,,MVFR,,,,,,,,,,,,METAR,1343.0
OIAM 052200Z 20020KT 4000 SA SCT040 BKN100 33/20 Q1006,OIAM,2020-05-05T22:00:00Z,30.55,49.15,33.0,20.0,200,20,,2.49,29.704725,,,,,,,,,,SA,SCT,4000,BKN,10000,,,,,IFR,,,,,,,,,,,,METAR,4.0
OITP 052200Z 26006KT 9999 SCT035CB SCT040 17/16 Q1008,OITP,2020-05-05T22:00:00Z,39.6,47.88,17.0,16.0,260,6,,6.21,29.763779,,,,,,,,,,,SCT,3500,SCT,4000,,,,,VFR,,,,,,,,,,,,METAR,77.0
OISF 052200Z 32004KT CAVOK 14/10 Q1016 A3000,OISF,2020-05-05T22:00:00Z,28.9,53.72,14.0,10.0,320,4,,6.21,30.0,,,,,,,,,,,CAVOK,,,,,,,,VFR,,,,,,,,,,,,METAR,1383.0
OIAH 052200Z 00000KT 9999 FEW040 BKN100 26/10 Q1012,OIAH,2020-05-05T22:00:00Z,30.33,50.83,26.0,10.0,0,0,,6.21,29.88189,,,,,,,,,,,FEW,4000,BKN,10000,,,,,VFR,,,,,,,,,,,,METAR,738.0
OIMT 052200Z AUTO 10004KT //// // ////// 25/00 Q1012,OIMT,2020-05-05T22:00:00Z,33.67,56.92,25.0,0.0,100,4,,,29.88189,,,TRUE,,,,,,,,,,,,,,,,,,,,,,,,,,,,METAR,711.0
OIMN 052200Z 00000KT CAVOK 12/08 Q1017,OIMN,2020-05-05T22:00:00Z,37.48,57.3,12.0,8.0,0,0,,6.21,30.029528,,,,,,,,,,,CAVOK,,,,,,,,VFR,,,,,,,,,,,,METAR,1074.0
OIMB 052200Z 11006KT CAVOK 13/00 Q1020,OIMB,2020-05-05T22:00:00Z,32.9,59.28,13.0,0.0,110,6,,6.21,30.11811,,,,,,,,,,,CAVOK,,,,,,,,VFR,,,,,,,,,,,,METAR,1491.0
OIFS 052200Z 04004KT 9999 FEW030CB BKN080 10/05 Q1022,OIFS,2020-05-05T22:00:00Z,32.32,50.85,10.0,5.0,40,4,,6.21,30.177166,,,,,,,,,,,FEW,3000,BKN,8000,,,,,VFR,,,,,,,,,,,,METAR,2078.0
OINE 052200Z AUTO 00000KT //// // ////// 16/14 Q1007,OINE,2020-05-05T22:00:00Z,37.38,55.45,16.0,14.0,0,0,,,29.734253,,,TRUE,,,,,,,,,,,,,,,,,,,,,,,,,,,,METAR,130.0
OIMQ 052200Z AUTO 06010KT //// // ////// 20/06 Q1018,OIMQ,2020-05-05T22:00:00Z,35.23,58.47,20.0,6.0,60,10,,,30.059055,,,TRUE,,,,,,,,,,,,,,,,,,,,,,,,,,,,METAR,1140.0
OIMD 052200Z AUTO 22004KT //// // ////// 18/05 Q1015,OIMD,2020-05-05T22:00:00Z,34.38,58.63,18.0,5.0,220,4,,,29.970472,,,TRUE,,,,,,,,,,,,,,,,,,,,,,,,,,,,METAR,1100.0
OIMC 052200Z AUTO 00000KT //// // ////// 20/14 Q1014,OIMC,2020-05-05T22:00:00Z,36.5,61.07,20.0,14.0,0,0,,,29.940945,,,TRUE,,,,,,,,,,,,,,,,,,,,,,,,,,,,METAR,288.0
OIIK 052200Z 04002KT 9999 FEW040CB OVC090 17/08 Q1014,OIIK,2020-05-05T22:00:00Z,36.25,50.05,17.0,8.0,40,2,,6.21,29.940945,,,,,,,,,,,FEW,4000,OVC,9000,,,,,VFR,,,,,,,,,,,,METAR,1278.0
OIYY 052200Z 17006KT CAVOK 23/M04 Q1017,OIYY,2020-05-05T22:00:00Z,31.9,54.28,23.0,-4.0,170,6,,6.21,30.029528,,,,,,,,,,,CAVOK,,,,,,,,VFR,,,,,,,,,,,,METAR,1236.0
OITR 052200Z 27006KT 9999 FEW040 09/09 Q1010,OITR,2020-05-05T22:00:00Z,37.67,45.07,9.0,9.0,270,6,,6.21,29.822834,,,,,,,,,,,FEW,4000,,,,,,,VFR,,,,,,,,,,,,METAR,1312.0
OIIE 052200Z 00000KT CAVOK 21/11 Q1014,OIIE,2020-05-05T22:00:00Z,35.42,51.15,21.0,11.0,0,0,,6.21,29.940945,,,,,,,,,,,CAVOK,,,,,,,,VFR,,,,,,,,,,,,METAR,1008.0
OICC 052200Z 09016KT 9999 FEW035CB SCT040 BKN090 21/00 Q1013 A2992,OICC,2020-05-05T22:00:00Z,34.35,47.17,21.0,0.0,90,16,,6.21,29.911417,,,,,,,,,,,FEW,3500,SCT,4000,BKN,9000,,,VFR,,,,,,,,,,,,METAR,1322.0
OIAA 052200Z 19027KT 8000 TS FEW025CB SCT040 BKN100 33/12 Q1005,OIAA,2020-05-05T22:00:00Z,30.37,48.25,33.0,12.0,190,27,,4.97,29.675198,,,,,,,,,,TS,FEW,2500,SCT,4000,BKN,10000,,,MVFR,,,,,,,,,,,,METAR,11.0
OING 052200Z 20006KT CAVOK 18/13 Q1008,OING,2020-05-05T22:00:00Z,36.9,54.4,18.0,13.0,200,6,,6.21,29.763779,,,,,,,,,,,CAVOK,,,,,,,,VFR,,,,,,,,,,,,METAR,155.0
UTAT 052200Z 05006KT CAVOK 16/11 Q1015 NOSIG,UTAT,2020-05-05T22:00:00Z,41.77,59.83,16.0,11.0,50,6,,6.21,29.970472,,,,,,TRUE,,,,,CAVOK,,,,,,,,VFR,,,,,,,,,,,,METAR,83.0
UTAM 052200Z 00000KT 6000 NSC 19/14 Q1014 R88/CLRD70 NOSIG,UTAM,2020-05-05T22:00:00Z,37.62,61.9,19.0,14.0,0,0,,3.73,29.940945,,,,,,TRUE,,,,,CLR,,,,,,,,MVFR,,,,,,,,,,,,SPECI,222.0
UTAK 052200Z 07008KT CAVOK 27/07 Q1008 R16R/CLRD70 NOSIG,UTAK,2020-05-05T22:00:00Z,40.05,53.0,27.0,7.0,70,8,,6.21,29.763779,,,,,,TRUE,,,,,CAVOK,,,,,,,,VFR,,,,,,,,,,,,METAR,85.0
UTAA 052200Z VRB02KT 9999 NSC 19/14 Q1013 R88/CLRD70 NOSIG,UTAA,2020-05-05T22:00:00Z,37.98,58.37,19.0,14.0,0,2,,6.21,29.911417,,,,,,TRUE,,,,,CLR,,,,,,,,VFR,,,,,,,,,,,,METAR,210.0
SBGR 052200Z 00000KT CAVOK 20/11 Q1016,SBGR,2020-05-05T22:00:00Z,-23.42,-46.47,20.0,11.0,0,0,,6.21,30.0,,,,,,,,,,,CAVOK,,,,,,,,VFR,,,,,,,,,,,,METAR,750.0
GMTN 052200Z VRB05KT CAVOK 18/08 Q1017 NOSIG,GMTN,2020-05-05T22:00:00Z,35.57,-5.32,18.0,8.0,0,5,,6.21,30.029528,,,,,,TRUE,,,,,CAVOK,,,,,,,,VFR,,,,,,,,,,,,METAR,10.0
GMTA 052200Z 00000KT CAVOK 19/12 Q1016 NOSIG,GMTA,2020-05-05T22:00:00Z,35.17,-3.85,19.0,12.0,0,0,,6.21,30.0,,,,,,TRUE,,,,,CAVOK,,,,,,,,VFR,,,,,,,,,,,,METAR,14.0
GMMZ 052200Z 26006KT CAVOK 27/M05 Q1019 NOSIG,GMMZ,2020-05-05T22:00:00Z,30.92,-6.9,27.0,-5.0,260,6,,6.21,30.088583,,,,,,TRUE,,,,,CAVOK,,,,,,,,VFR,,,,,,,,,,,,METAR,1140.0
GMMW 052200Z 30004KT CAVOK 19/09 Q1016 NOSIG,GMMW,2020-05-05T22:00:00Z,34.98,-3.02,19.0,9.0,300,4,,6.21,30.0,,,,,,TRUE,,,,,CAVOK,,,,,,,,VFR,,,,,,,,,,,,METAR,175.0
GMFK 052200Z 19003KT 160V230 CAVOK 27/M04 Q1018 NOSIG,GMFK,2020-05-05T22:00:00Z,31.95,-4.4,27.0,-4.0,190,3,,6.21,30.059055,,,,,,TRUE,,,,,CAVOK,,,,,,,,VFR,,,,,,,,,,,,METAR,1045.0
GMMX 052200Z 02004KT 340V060 CAVOK 22/14 Q1018 NOSIG,GMMX,2020-05-05T22:00:00Z,31.62,-8.02,22.0,14.0,20,4,,6.21,30.059055,,,,,,TRUE,,,,,CAVOK,,,,,,,,VFR,,,,,,,,,,,,METAR,466.0
MKJP 052200Z 16018KT 9999 FEW020 FEW022CB 29/24 Q1011,MKJP,2020-05-05T22:00:00Z,17.92,-76.78,29.0,24.0,160,18,,6.21,29.852362,,,,,,,,,,,FEW,2000,FEW,2200,,,,,VFR,,,,,,,,,,,,METAR,3.0
YBDV 052200Z AUTO 11006KT //// // ////// 13/M01 Q1022,YBDV,2020-05-05T22:00:00Z,-25.9,139.35,13.0,-1.0,110,6,,,30.177166,,,TRUE,,,,,,,,,,,,,,,,,,,,,,,,,,,,METAR,47.0
YBCV 052200Z AUTO 05008KT 9999 // NCD 15/03 Q1026,YBCV,2020-05-05T22:00:00Z,-26.38,146.27,15.0,3.0,50,8,,6.21,30.295275,,,TRUE,,,,,,,,CLR,,,,,,,,VFR,,,,,,,,,,,,METAR,304.0
YBAS 052200Z AUTO 26004KT 9999 // NCD 06/M07 Q1022 RF00.0/000.0,YBAS,2020-05-05T22:00:00Z,-23.8,133.9,6.0,-7.0,260,4,,6.21,30.177166,,,TRUE,,,,,,,,CLR,,,,,,,,VFR,,,,,,,,,,,,SPECI,541.0
YAYE 052200Z AUTO 18006KT 9999 // NCD 07/M06 Q1020,YAYE,2020-05-05T22:00:00Z,-25.18,130.98,7.0,-6.0,180,6,,6.21,30.11811,,,TRUE,,,,,,,,CLR,,,,,,,,VFR,,,,,,,,,,,,METAR,496.0
YARG 052200Z AUTO 02003KT 9999 // NCD 18/01 Q1017,YARG,2020-05-05T22:00:00Z,-16.63,128.45,18.0,1.0,20,3,,6.21,30.029528,,,TRUE,,,,,,,,CLR,,,,,,,,VFR,,,,,,,,,,,,METAR,165.0
TNCM 052200Z 09010KT 060V120 9999 FEW018 29/23 Q1015 NOSIG ,TNCM,2020-05-05T22:00:00Z,18.05,-63.12,29.0,23.0,90,10,,6.21,29.970472,,,,,,TRUE,,,,,FEW,1800,,,,,,,VFR,,,,,,,,,,,,METAR,4.0
FGSL 052200Z 22005KT 9999 SCT010 26/26 Q1012 NOSIG,FGSL,2020-05-05T22:00:00Z,3.75,8.72,26.0,26.0,220,5,,6.21,29.88189,,,,,,TRUE,,,,,SCT,1000,,,,,,,VFR,,,,,,,,,,,,METAR,56.0
FZAA 052200Z 25008KT 8000 FEW016 FEW026CB BKN080 24/23 Q1014 CB NE NOSIG,FZAA,2020-05-05T22:00:00Z,-4.38,15.45,24.0,23.0,250,8,,4.97,29.940945,,,,,,TRUE,,,,,FEW,1600,FEW,2600,BKN,8000,,,MVFR,,,,,,,,,,,,METAR,312.0
FQPB 052200Z 21013KT 9999 FEW020 BKN100 24/21 Q1016,FQPB,2020-05-05T22:00:00Z,-12.97,40.5,24.0,21.0,210,13,,6.21,30.0,,,,,,,,,,,FEW,2000,BKN,10000,,,,,VFR,,,,,,,,,,,,METAR,50.0
FKKD 052200Z VRB01KT 9999 FEW016 FEW020CB 28/26 Q1011 NOSIG,FKKD,2020-05-05T22:00:00Z,4.0,9.72,28.0,26.0,0,1,,6.21,29.852362,,,,,,TRUE,,,,,FEW,1600,FEW,2000,,,,,VFR,,,,,,,,,,,,METAR,9.0
FEFF 052200Z 16007KT 6000 NSC 24/23 Q1012 NOSIG,FEFF,2020-05-05T22:00:00Z,4.4,18.52,24.0,23.0,160,7,,3.73,29.88189,,,,,,TRUE,,,,,CLR,,,,,,,,MVFR,,,,,,,,,,,,METAR,366.0
AYPY 052200Z 15015KT 9999 HZ FEW030 SCT040 27/24 Q1012,AYPY,2020-05-05T22:00:00Z,-9.42,147.22,27.0,24.0,150,15,,6.21,29.88189,,,,,,,,,,HZ,FEW,3000,SCT,4000,,,,,VFR,,,,,,,,,,,,METAR,47.0
YLEC 052200Z AUTO 09003KT 9999 // NCD 11/00 Q1024,YLEC,2020-05-05T22:00:00Z,-30.6,138.43,11.0,0.0,90,3,,6.21,30.236221,,,TRUE,,,,,,,,CLR,,,,,,,,VFR,,,,,,,,,,,,METAR,262.0
YBHI 052200Z AUTO 02008KT 9999 // NCD 11/05 Q1025,YBHI,2020-05-05T22:00:00Z,-32.0,141.47,11.0,5.0,20,8,,6.21,30.265747,,,TRUE,,,,,,,,CLR,,,,,,,,VFR,,,,,,,,,,,,METAR,292.0
YBNA 052200Z AUTO 23009KT 9999 // SCT052 OVC067 17/16 Q1028,YBNA,2020-05-05T22:00:00Z,-28.83,153.57,17.0,16.0,230,9,,6.21,30.35433,,,TRUE,,,,,,,,SCT,5200,OVC,6700,,,,,VFR,,,,,,,,,,,,METAR,2.0
YBMK 052200Z AUTO 18012KT 9999 // NCD 20/16 Q1021,YBMK,2020-05-05T22:00:00Z,-21.17,149.17,20.0,16.0,180,12,,6.21,30.147638,,,TRUE,,,,,,,,CLR,,,,,,,,VFR,,,,,,,,,,,,METAR,31.0
YBOK 052200Z AUTO 07003KT 9999 // NCD 15/10 Q1028,YBOK,2020-05-05T22:00:00Z,-27.42,151.72,15.0,10.0,70,3,,6.21,30.35433,,,TRUE,,,,,,,,CLR,,,,,,,,VFR,,,,,,,,,,,,METAR,407.0
YBPN 052200Z AUTO 16012KT 9999 // NCD 22/17 Q1021,YBPN,2020-05-05T22:00:00Z,-20.5,148.55,22.0,17.0,160,12,,6.21,30.147638,,,TRUE,,,,,,,,CLR,,,,,,,,VFR,,,,,,,,,,,,METAR,25.0
YCNM 052200Z AUTO 07006KT //// // ////// 13/11 Q1029,YCNM,2020-05-05T22:00:00Z,-30.98,148.38,13.0,11.0,70,6,,,30.383858,,,TRUE,,,,,,,,,,,,,,,,,,,,,,,,,,,,METAR,184.0
YCDU 052200Z AUTO 02019KT 9999 // NCD 14/01 Q1017,YCDU,2020-05-05T22:00:00Z,-32.12,133.7,14.0,1.0,20,19,,6.21,30.029528,,,TRUE,,,,,,,,CLR,,,,,,,,VFR,,,,,,,,,,,,METAR,15.0
LFRD 052200Z AUTO 08009KT 7000 NSC 13/12 Q1019,LFRD,2020-05-05T22:00:00Z,48.58,-2.07,13.0,12.0,80,9,,4.35,30.088583,,,TRUE,,,,,,,,CLR,,,,,,,,MVFR,,,,,,,,,,,,METAR,59.0
YCOM 052200Z AUTO 04007KT 9999 // ////// 04/04 Q1028,YCOM,2020-05-05T22:00:00Z,-36.3,148.97,4.0,4.0,40,7,,6.21,30.35433,,,TRUE,,,,,,,,,,,,,,,,,,,,,,,,,,,,METAR,941.0
CWEP 052200Z AUTO 33022KT 01/M00 RMK AO1 2PAST HR 2009 PK WND 33026/2157 SLP965 P0001 T00121004 50006,CWEP,2020-05-05T22:00:00Z,46.45,-61.97,1.2,-0.4,330,22,,,,996.5,,TRUE,TRUE,,,,,,,,,,,,,,,,0.6,,,,,0.01,,,,,,METAR,11.0
YDBY 052200Z AUTO 15005KT 9999 // NCD 17/13 Q1014,YDBY,2020-05-05T22:00:00Z,-17.37,123.67,17.0,13.0,150,5,,6.21,29.940945,,,TRUE,,,,,,,,CLR,,,,,,,,VFR,,,,,,,,,,,,METAR,7.0
YEML 052200Z AUTO 14012KT 9999 // NCD 18/08 Q1024,YEML,2020-05-05T22:00:00Z,-23.57,148.18,18.0,8.0,140,12,,6.21,30.236221,,,TRUE,,,,,,,,CLR,,,,,,,,VFR,,,,,,,,,,,,METAR,190.0
YBUD 052200Z AUTO 16008KT 9999 // SCT079 18/15 Q1024,YBUD,2020-05-05T22:00:00Z,-24.9,152.32,18.0,15.0,160,8,,6.21,30.236221,,,TRUE,,,,,,,,SCT,7900,,,,,,,VFR,,,,,,,,,,,,METAR,82.0
YBWP 052200Z AUTO 14007KT 9999 // NCD 23/19 Q1014,YBWP,2020-05-05T22:00:00Z,-12.68,141.92,23.0,19.0,140,7,,6.21,29.940945,,,TRUE,,,,,,,,CLR,,,,,,,,VFR,,,,,,,,,,,,METAR,12.0
YBWX 052200Z AUTO 19011KT //// // ////// 26/21 Q1014,YBWX,2020-05-05T22:00:00Z,-20.88,115.4,26.0,21.0,190,11,,,29.940945,,,TRUE,,,,,,,,,,,,,,,,,,,,,,,,,,,,METAR,6.0
YCBA 052200Z AUTO 05009KT 9999 // NCD 12/11 Q1028,YCBA,2020-05-05T22:00:00Z,-31.53,145.8,12.0,11.0,50,9,,6.21,30.35433,,,TRUE,,,,,,,,CLR,,,,,,,,VFR,,,,,,,,,,,,METAR,221.0
YCAS 052200Z AUTO 02003KT //// // ////// 15/15 Q1028,YCAS,2020-05-05T22:00:00Z,-28.88,153.07,15.0,15.0,20,3,,,30.35433,,,TRUE,,,,,,,,,,,,,,,,,,,,,,,,,,,,METAR,26.0
YCCY 052200Z AUTO 11009KT 9999 // NCD 20/09 Q1020,YCCY,2020-05-05T22:00:00Z,-20.67,140.5,20.0,9.0,110,9,,6.21,30.11811,,,TRUE,,,,,,,,CLR,,,,,,,,VFR,,,,,,,,,,,,METAR,570.0
YCBP 052200Z AUTO 03015KT 9999 // NCD 09/M01 Q1021,YCBP,2020-05-05T22:00:00Z,-29.03,134.72,9.0,-1.0,30,15,,6.21,30.147638,,,TRUE,,,,,,,,CLR,,,,,,,,VFR,,,,,,,,,,,,METAR,226.0
YCBB 052200Z AUTO 03005KT //// // NCD 12/09 Q1030,YCBB,2020-05-05T22:00:00Z,-31.33,149.27,12.0,9.0,30,5,,,30.413385,,,TRUE,,,,,,,,CLR,,,,,,,,,,,,,,,,,,,,METAR,645.0
YNBR 052200Z AUTO 16003KT 9999 // NCD 12/08 Q1029,YNBR,2020-05-05T22:00:00Z,-30.32,149.83,12.0,8.0,160,3,,6.21,30.383858,,,TRUE,,,,,,,,CLR,,,,,,,,VFR,,,,,,,,,,,,METAR,240.0
YNAR 052200Z AUTO 11006KT 9999 // NCD 10/09 Q1029,YNAR,2020-05-05T22:00:00Z,-34.7,146.52,10.0,9.0,110,6,,6.21,30.383858,,,TRUE,,,,,,,,CLR,,,,,,,,VFR,,,,,,,,,,,,METAR,145.0
YNTN 052200Z AUTO 12004KT 9999 // NCD 20/11 Q1017,YNTN,2020-05-05T22:00:00Z,-17.68,141.07,20.0,11.0,120,4,,6.21,30.029528,,,TRUE,,,,,,,,CLR,,,,,,,,VFR,,,,,,,,,,,,METAR,22.0
YNWN 052200Z AUTO 21005KT 9999 // NCD 12/M03 Q1017,YNWN,2020-05-05T22:00:00Z,-23.42,119.8,12.0,-3.0,210,5,,6.21,30.029528,,,TRUE,,,,,,,,CLR,,,,,,,,VFR,,,,,,,,,,,,METAR,525.0
YPBO 052200Z AUTO /////KT 9999 // NCD 17/00 Q1017,YPBO,2020-05-05T22:00:00Z,-23.2,117.75,17.0,0.0,,,,6.21,30.029528,,,TRUE,,,,,,,,CLR,,,,,,,,VFR,,,,,,,,,,,,METAR,1292.0
YOLD 052200Z AUTO 03008KT 9999 // NCD 09/01 Q1023,YOLD,2020-05-05T22:00:00Z,-30.48,136.88,9.0,1.0,30,8,,6.21,30.206694,,,TRUE,,,,,,,,CLR,,,,,,,,VFR,,,,,,,,,,,,METAR,105.0
CWWX 052200Z AUTO 32008KT 04/M03 RMK AO1 SLP170 T00371026 56014,CWWX,2020-05-05T22:00:00Z,45.32,-81.73,3.7,-2.6,320,8,,,,1017.0,,TRUE,TRUE,,,,,,,,,,,,,,,,-1.4,,,,,,,,,,,METAR,181.0
CWHP 052200Z AUTO 01028G35KT M00/ RMK AO1 PK WND 01035/2151 SLP006 T1004 56014,CWHP,2020-05-05T22:00:00Z,49.07,-61.7,-0.4,,10,28,35,,,1000.6,,TRUE,TRUE,,,,,,,,,,,,,,,,-1.4,,,,,,,,,,,METAR,4.0
CXDP 052200Z AUTO 17006KT 17/M00 RMK AO1 PK WND 17017/2141 T01731003,CXDP,2020-05-05T22:00:00Z,54.32,-113.95,17.3,-0.3,170,6,,,,,,TRUE,TRUE,,,,,,,,,,,,,,,,,,,,,,,,,,,METAR,614.0
CWZL 052200Z AUTO 12019KT 09/ RMK AO1 PK WND 13024/2100 SLP174 T0086 58006,CWZL,2020-05-05T22:00:00Z,53.03,-131.6,8.6,,120,19,,,,1017.4,,TRUE,TRUE,,,,,,,,,,,,,,,,-0.6,,,,,,,,,,,METAR,17.0
CWJO 052200Z AUTO 07/04 RMK AO1 5000 SLP126 T00710039 50010,CWJO,2020-05-05T22:00:00Z,48.43,-71.15,7.1,3.9,,,,,,1012.6,,TRUE,TRUE,,,,,,,,,,,,,,,,1.0,,,,,,,,,,,METAR,133.0
CXTV 052200Z AUTO 18004KT M01/M03 RMK AO1 SOG 28 3001 SLP167 T10051026,CXTV,2020-05-05T22:00:00Z,68.75,-133.5,-0.5,-2.6,180,4,,,,1016.7,,TRUE,TRUE,,,,,,,,,,,,,,,,,,,,,,,,,,,METAR,85.0
CWZV 052200Z AUTO 12025G30KT 09/07 RMK AO1 4PAST HR 8016 PK WND 12030/2159 SLP154 P0002 T00890070 50009,CWZV,2020-05-05T22:00:00Z,51.93,-131.02,8.9,7.0,120,25,30,,,1015.4,,TRUE,TRUE,,,,,,,,,,,,,,,,0.9,,,,,0.02,,,,,,METAR,92.0
CWWL 052200Z AUTO 15018KT 11/05 RMK AO1 PK WND 16025/2120 SLP184 T01050051 58008,CWWL,2020-05-05T22:00:00Z,53.5,-130.63,10.5,5.1,150,18,,,,1018.4,,TRUE,TRUE,,,,,,,,,,,,,,,,-0.8,,,,,,,,,,,METAR,17.0
CWRU 052200Z AUTO 10017KT 10/ RMK AO1 PK WND 11027/2100 SLP125 T0099 57021,CWRU,2020-05-05T22:00:00Z,50.12,-127.93,9.9,,100,17,,,,1012.5,,TRUE,TRUE,,,,,,,,,,,,,,,,-2.1,,,,,,,,,,,METAR,98.0
CWQS 052200Z AUTO 15009KT 11/05 RMK AO1 PK WND 16019/2102 SLP145 T01080051 58008,CWQS,2020-05-05T22:00:00Z,53.32,-132.77,10.8,5.1,150,9,,,,1014.5,,TRUE,TRUE,,,,,,,,,,,,,,,,-0.8,,,,,,,,,,,METAR,14.0
CWME 052200Z AUTO 03015KT 14/04 RMK AO1 PK WND 03019/2101 T01390036,CWME,2020-05-05T22:00:00Z,52.18,-127.47,13.9,3.6,30,15,,,,,,TRUE,TRUE,,,,,,,,,,,,,,,,,,,,,,,,,,,METAR,32.0
VRMM 052200Z 25004KT 9999 FEW017TCU BKN110 28/25 Q1008 TEMPO 6000 -TSRA,VRMM,2020-05-05T22:00:00Z,4.2,73.52,28.0,25.0,250,4,,6.21,29.763779,,,,,,,,,,,FEW,1700,BKN,11000,,,,,VFR,,,,,,,,,,,,SPECI,2.0
KMHV 052200Z AUTO 22006KT 10SM CLR 30/M05 A3004 RMK A01,KMHV,2020-05-05T22:00:00Z,35.07,-118.15,30.0,-5.0,220,6,,10.0,30.041338,,,TRUE,TRUE,,,,,,,CLR,,,,,,,,VFR,,,,,,,,,,,,SPECI,849.0
LPMT 052200Z 22004KT 180V250 9999 FEW011 17/15 Q1018,LPMT,2020-05-05T22:00:00Z,38.7,-9.05,17.0,15.0,220,4,,6.21,30.059055,,,,,,,,,,,FEW,1100,,,,,,,VFR,,,,,,,,,,,,METAR,11.0
LPMR 052200Z 22004KT 9999 FEW010 16/14 Q1019,LPMR,2020-05-05T22:00:00Z,39.82,-8.87,16.0,14.0,220,4,,6.21,30.088583,,,,,,,,,,,FEW,1000,,,,,,,VFR,,,,,,,,,,,,METAR,54.0
TDPD 052200Z 11010KT 9999 SCT017 27/23 Q1014,TDPD,2020-05-05T22:00:00Z,15.55,-61.3,27.0,23.0,110,10,,6.21,29.940945,,,,,,,,,,,SCT,1700,,,,,,,VFR,,,,,,,,,,,,METAR,14.0
UBBN 052200Z 02004KT 9999 FEW046CB SCT100 11/11 Q1008 R14R/CLRD// NOSIG RMK MT OP QFE682,UBBN,2020-05-05T22:00:00Z,39.18,45.45,11.0,11.0,20,4,,6.21,29.763779,,,,,,TRUE,,,,,FEW,4600,SCT,10000,,,,,VFR,,,,,,,,,,,,METAR,873.0
LFRC 052200Z AUTO 09011KT 9999 FEW042 09/08 Q1020,LFRC,2020-05-05T22:00:00Z,49.63,-1.47,9.0,8.0,90,11,,6.21,30.11811,,,TRUE,,,,,,,,FEW,4200,,,,,,,VFR,,,,,,,,,,,,METAR,138.0
SYCJ 052200Z 05010KT 9999 FEW018 27/24 Q1010 NOSIG,SYCJ,2020-05-05T22:00:00Z,6.5,-58.25,27.0,24.0,50,10,,6.21,29.822834,,,,,,TRUE,,,,,FEW,1800,,,,,,,VFR,,,,,,,,,,,,METAR,30.0
CXAG 052200Z AUTO 18008KT 18/M02 RMK AO1 T01801019,CXAG,2020-05-05T22:00:00Z,53.92,-112.28,18.0,-1.9,180,8,,,,,,TRUE,TRUE,,,,,,,,,,,,,,,,,,,,,,,,,,,METAR,625.0
CWDZ 052200Z AUTO 16006KT 16/01 RMK AO1 T01640010,CWDZ,2020-05-05T22:00:00Z,51.42,-112.67,16.4,1.0,160,6,,,,,,TRUE,TRUE,,,,,,,,,,,,,,,,,,,,,,,,,,,METAR,678.0
CZPS 052200Z AUTO 18007KT 14/02 RMK AO1 T01440016,CZPS,2020-05-05T22:00:00Z,52.43,-113.6,14.4,1.6,180,7,,,,,,TRUE,TRUE,,,,,,,,,,,,,,,,,,,,,,,,,,,METAR,965.0
CZOL 052200Z AUTO 18006KT 18/01 RMK AO1 T01760011,CZOL,2020-05-05T22:00:00Z,53.65,-113.35,17.6,1.1,180,6,,,,,,TRUE,TRUE,,,,,,,,,,,,,,,,,,,,,,,,,,,METAR,665.0
DTKA 052200Z 08004KT CAVOK 19/15 Q1014 NOSIG,DTKA,2020-05-05T22:00:00Z,36.98,8.88,19.0,15.0,80,4,,6.21,29.940945,,,,,,TRUE,,,,,CAVOK,,,,,,,,VFR,,,,,,,,,,,,METAR,21.0
TDCF 052200Z 11003KT 9999 FEW020 29/21 Q1012,TDCF,2020-05-05T22:00:00Z,15.33,-61.4,29.0,21.0,110,3,,6.21,29.88189,,,,,,,,,,,FEW,2000,,,,,,,VFR,,,,,,,,,,,,METAR,5.0
FAWB 052200Z AUTO 23002KT //// // ////// 11/09 Q1026,FAWB,2020-05-05T22:00:00Z,-25.63,28.22,11.0,9.0,230,2,,,30.295275,,,TRUE,,,,,,,,,,,,,,,,,,,,,,,,,,,,METAR,1248.0
FALA 052200Z AUTO VRB02KT //// // ////// 11/07 Q1029,FALA,2020-05-05T22:00:00Z,-25.92,27.92,11.0,7.0,0,2,,,30.383858,,,TRUE,,,,,,,,,,,,,,,,,,,,,,,,,,,,METAR,1377.0
FAWK 052200Z AUTO 12002KT //// // ////// 11/09 Q1029,FAWK,2020-05-05T22:00:00Z,-25.82,28.22,11.0,9.0,120,2,,,30.383858,,,TRUE,,,,,,,,,,,,,,,,,,,,,,,,,,,,METAR,1500.0
RKPS 052200Z 07006KT 8000 FEW010 FEW150 15/14 Q1013 RMK SLP130 8/620 9/110,RKPS,2020-05-05T22:00:00Z,35.07,128.07,15.0,14.0,70,6,,4.97,29.911417,1013.0,,,,,,,,,,FEW,1000,FEW,15000,,,,,MVFR,,,,,,,,,,,,METAR,8.0
RKJJ 052200Z 36005KT 8000 NSC 17/15 Q1013 RMK SLP130 8/020 9/010,RKJJ,2020-05-05T22:00:00Z,35.12,126.82,17.0,15.0,360,5,,4.97,29.911417,1013.0,,,,,,,,,,CLR,,,,,,,,MVFR,,,,,,,,,,,,METAR,13.0
DTTF 052200Z 23004KT CAVOK 29/02 Q1017,DTTF,2020-05-05T22:00:00Z,34.42,8.82,29.0,2.0,230,4,,6.21,30.029528,,,,,,,,,,,CAVOK,,,,,,,,VFR,,,,,,,,,,,,METAR,314.0
DTTG 052200Z 24006KT CAVOK 26/09 Q1015 NOSIG,DTTG,2020-05-05T22:00:00Z,33.73,9.92,26.0,9.0,240,6,,6.21,29.970472,,,,,,TRUE,,,,,CAVOK,,,,,,,,VFR,,,,,,,,,,,,METAR,5.0
DTTX 052200Z 00000KT CAVOK 22/15 Q1015,DTTX,2020-05-05T22:00:00Z,34.72,10.67,22.0,15.0,0,0,,6.21,29.970472,,,,,,,,,,,CAVOK,,,,,,,,VFR,,,,,,,,,,,,METAR,23.0
DTTZ 052200Z AUTO 26007KT NCD 29/03 Q1014,DTTZ,2020-05-05T22:00:00Z,33.92,8.08,29.0,3.0,260,7,,,29.940945,,,TRUE,,,,,,,,CLR,,,,,,,,,,,,,,,,,,,,METAR,93.0
SBCO 052200Z 29005KT 9999 FEW045 BKN070 19/16 Q1011,SBCO,2020-05-05T22:00:00Z,-29.95,-51.15,19.0,16.0,290,5,,6.21,29.852362,,,,,,,,,,,FEW,4500,BKN,7000,,,,,VFR,,,,,,,,,,,,METAR,47.0
SBBI 052200Z 31004KT CAVOK 18/13 Q1015,SBBI,2020-05-05T22:00:00Z,-25.4,-49.23,18.0,13.0,310,4,,6.21,29.970472,,,,,,,,,,,CAVOK,,,,,,,,VFR,,,,,,,,,,,,METAR,923.0
SBAN 052200Z 00000KT 9999 FEW035 19/14 Q1019,SBAN,2020-05-05T22:00:00Z,-16.22,-48.97,19.0,14.0,0,0,,6.21,30.088583,,,,,,,,,,,FEW,3500,,,,,,,VFR,,,,,,,,,,,,METAR,1137.0
TLPC 052200Z 09009KT 9999 SCT024 29/23 Q1013 NOSIG,TLPC,2020-05-05T22:00:00Z,14.02,-61.0,29.0,23.0,90,9,,6.21,29.911417,,,,,,TRUE,,,,,SCT,2400,,,,,,,VFR,,,,,,,,,,,,METAR,2.0
RKTH 052200Z 01005KT 9999 FEW030 FEW200 16/15 Q1013 RMK SLP136 8/505 9/101,RKTH,2020-05-05T22:00:00Z,35.97,129.42,16.0,15.0,10,5,,6.21,29.911417,1013.6,,,,,,,,,,FEW,3000,FEW,20000,,,,,VFR,,,,,,,,,,,,METAR,20.0
RKSM 052200Z 00000KT 9000 BR FEW200 12/10 A2998,RKSM,2020-05-05T22:00:00Z,37.42,127.12,12.0,10.0,0,0,,5.59,29.97933,,,,,,,,,,BR,FEW,20000,,,,,,,VFR,,,,,,,,,,,,METAR,20.0
VILK 052200Z 00000KT 3000 BR NSC 20/19 Q1007 NOSIG,VILK,2020-05-05T22:00:00Z,26.75,80.87,20.0,19.0,0,0,,1.86,29.734253,,,,,,TRUE,,,,BR,CLR,,,,,,,,IFR,,,,,,,,,,,,METAR,128.0
SBAA 052200Z AUTO 08003KT //// // NCD 29/24 Q1010,SBAA,2020-05-05T22:00:00Z,-8.35,-49.3,29.0,24.0,80,3,,,29.822834,,,TRUE,,,,,,,,CLR,,,,,,,,,,,,,,,,,,,,METAR,199.0
SBIC 052200Z AUTO VRB01KT CAVOK 27/26 Q1009,SBIC,2020-05-05T22:00:00Z,-3.12,-58.47,27.0,26.0,0,1,,6.21,29.793306,,,TRUE,,,,,,,,CAVOK,,,,,,,,VFR,,,,,,,,,,,,METAR,43.0
SBTK 052200Z AUTO /////KT ///V/// //// // ///////// ///// Q////,SBTK,2020-05-05T22:00:00Z,-8.17,-70.77,,,,,,,,,,TRUE,,,,,,,,,,,,,,,,,,,,,,,,,,,,METAR,188.0
SBMY 052200Z AUTO VRB01KT CAVOK 27/25 Q1009,SBMY,2020-05-05T22:00:00Z,-5.82,-61.28,27.0,25.0,0,1,,6.21,29.793306,,,TRUE,,,,,,,,CAVOK,,,,,,,,VFR,,,,,,,,,,,,METAR,49.0
SBSY 052200Z AUTO 00000KT CAVOK 22/14 Q1015,SBSY,2020-05-05T22:00:00Z,-11.57,-50.67,22.0,14.0,0,0,,6.21,29.970472,,,TRUE,,,,,,,,CAVOK,,,,,,,,VFR,,,,,,,,,,,,METAR,197.0
SBVH 052200Z 24003KT 5000 -TSRA SCT020 FEW025CB OVC080 22/22 Q1013,SBVH,2020-05-05T22:00:00Z,-12.72,-60.12,22.0,22.0,240,3,,3.11,29.911417,,,,,,,,,,-TSRA,SCT,2000,FEW,2500,OVC,8000,,,MVFR,,,,,,,,,,,,METAR,652.0
SBJV 052200Z 11003KT 9999 FEW020 22/19 Q1011,SBJV,2020-05-05T22:00:00Z,-26.22,-48.8,22.0,19.0,110,3,,6.21,29.852362,,,,,,,,,,,FEW,2000,,,,,,,VFR,,,,,,,,,,,,METAR,4.0
SBNM 052200Z AUTO 15005KT 8000 SCT001 BKN004 OVC042 16/16 Q1013,SBNM,2020-05-05T22:00:00Z,-28.27,-54.17,16.0,16.0,150,5,,4.97,29.911417,,,TRUE,,,,,,,,SCT,100,BKN,400,OVC,4200,,,LIFR,,,,,,,,,,,,METAR,322.0
SBSM 052200Z VRB01KT 9999 BKN040 18/16 Q1012,SBSM,2020-05-05T22:00:00Z,-29.72,-53.7,18.0,16.0,0,1,,6.21,29.88189,,,,,,,,,,,BKN,4000,,,,,,,VFR,,,,,,,,,,,,METAR,85.0
SBLB 052200Z AUTO 02018KT 9999 NCD 25/20 Q1014 W26/S4,SBLB,2020-05-05T22:00:00Z,-22.1,-39.92,25.0,20.0,20,18,,6.21,29.940945,,,TRUE,,,,,,,,CLR,,,,,,,,VFR,,,,,,,,,,,,METAR,10.0
SBHT 052200Z 00000KT 9999 FEW023 SCT090 27/26 Q1009,SBHT,2020-05-05T22:00:00Z,-3.25,-52.27,27.0,26.0,0,0,,6.21,29.793306,,,,,,,,,,,FEW,2300,SCT,9000,,,,,VFR,,,,,,,,,,,,METAR,74.0
KGZN 052200Z AUTO 03013G20KT 10SM FEW095 25/05 A3012 RMK AO2,KGZN,2020-05-05T22:00:00Z,32.37,-99.02,25.0,5.0,30,13,20,10.0,30.121063,,,TRUE,TRUE,,,,,,,FEW,9500,,,,,,,VFR,,,,,,,,,,,,SPECI,522.0
YPEA 052200Z 26016KT 9999 -SHRA SCT045 BKN055 13/06 Q1012 INTER 2200/0100 25022G35KT 4000 SHRA SCT015 FM2200 MOD TURB BLW 3000FT,YPEA,2020-05-05T22:00:00Z,-31.67,116.02,13.0,6.0,260,16,,6.21,29.88189,,,,,,,,,,-SHRA,SCT,4500,BKN,5500,,,,,VFR,,,,,,,,,,,,METAR,49.0
YBTL 052200Z 18009KT 9999 FEW032 23/15 Q1020,YBTL,2020-05-05T22:00:00Z,-19.25,146.75,23.0,15.0,180,9,,6.21,30.11811,,,,,,,,,,,FEW,3200,,,,,,,VFR,,,,,,,,,,,,METAR,6.0
LPBJ 052200Z 29009KT CAVOK 15/13 Q1019,LPBJ,2020-05-05T22:00:00Z,38.08,-7.93,15.0,13.0,290,9,,6.21,30.088583,,,,,,,,,,,CAVOK,,,,,,,,VFR,,,,,,,,,,,,METAR,194.0
ULPB 052200Z AUTO 22001MPS 9999 // NSC 03/00 Q1013 RMK QFE756/1008,ULPB,2020-05-05T22:00:00Z,61.88,34.15,3.0,0.0,220,2,,6.21,29.911417,,,TRUE,,,,,,,,CLR,,,,,,,,VFR,,,,,,,,,,,,METAR,46.0
ULOO 052200Z AUTO 01003MPS 9999 // NCD 11/03 Q1009 RMK QFE752,ULOO,2020-05-05T22:00:00Z,57.78,28.4,11.0,3.0,10,6,,6.21,29.793306,,,TRUE,,,,,,,,CLR,,,,,,,,VFR,,,,,,,,,,,,METAR,47.0
ULMM 052200Z 19003MPS CAVOK 05/M04 Q1006 R31/090070 NOSIG RMK QFE747,ULMM,2020-05-05T22:00:00Z,68.78,32.75,5.0,-4.0,190,6,,6.21,29.704725,,,,,,TRUE,,,,,CAVOK,,,,,,,,VFR,,,,,,,,,,,,SPECI,51.0
YPDN 052200Z 10009KT CAVOK 24/16 Q1013 NOSIG,YPDN,2020-05-05T22:00:00Z,-12.42,130.9,24.0,16.0,100,9,,6.21,29.911417,,,,,,TRUE,,,,,CAVOK,,,,,,,,VFR,,,,,,,,,,,,METAR,30.0
YPCC 052200Z AUTO 15015KT 9999 // SCT021 SCT029 BKN036 28/24 Q1009,YPCC,2020-05-05T22:00:00Z,-12.17,96.82,28.0,24.0,150,15,,6.21,29.793306,,,TRUE,,,,,,,,SCT,2100,SCT,2900,BKN,3600,,,VFR,,,,,,,,,,,,METAR,3.0
YPKU 052200Z AUTO 00000KT 9999 // NCD 14/11 Q1015,YPKU,2020-05-05T22:00:00Z,-15.77,128.68,14.0,11.0,0,0,,6.21,29.970472,,,TRUE,,,,,,,,CLR,,,,,,,,VFR,,,,,,,,,,,,METAR,45.0
YSSY 052200Z 31007KT CAVOK 14/10 Q1030,YSSY,2020-05-05T22:00:00Z,-33.95,151.17,14.0,10.0,310,7,,6.21,30.413385,,,,,,,,,,,CAVOK,,,,,,,,VFR,,,,,,,,,,,,METAR,3.0
YPTN 052200Z AUTO 12007KT 9999 // NCD 16/09 Q1015,YPTN,2020-05-05T22:00:00Z,-14.52,132.38,16.0,9.0,120,7,,6.21,29.970472,,,TRUE,,,,,,,,CLR,,,,,,,,VFR,,,,,,,,,,,,METAR,109.0
YPLM 052200Z AUTO 19007KT 9999 // SCT032 22/18 Q1016,YPLM,2020-05-05T22:00:00Z,-22.22,114.07,22.0,18.0,190,7,,6.21,30.0,,,TRUE,,,,,,,,SCT,3200,,,,,,,VFR,,,,,,,,,,,,METAR,6.0
DABB 052200Z 19003KT CAVOK 18/16 Q1013,DABB,2020-05-05T22:00:00Z,36.82,7.82,18.0,16.0,190,3,,6.21,29.911417,,,,,,,,,,,CAVOK,,,,,,,,VFR,,,,,,,,,,,,METAR,4.0
DABC 052200Z 00000KT CAVOK 19/14 Q1019,DABC,2020-05-05T22:00:00Z,36.27,6.62,19.0,14.0,0,0,,6.21,30.088583,,,,,,,,,,,CAVOK,,,,,,,,VFR,,,,,,,,,,,,METAR,694.0
MWCR 052200Z 11007KT 9999 FEW016 31/24 Q1011,MWCR,2020-05-05T22:00:00Z,19.3,-81.37,31.0,24.0,110,7,,6.21,29.852362,,,,,,,,,,,FEW,1600,,,,,,,VFR,,,,,,,,,,,,METAR,3.0
RKTU 052200Z 01002KT 1000 R24/P2000 BR FEW000 BKN002 12/12 Q1015,RKTU,2020-05-05T22:00:00Z,36.7,127.5,12.0,12.0,10,2,,0.62,29.970472,,,,,,,,,,BR,FEW,0,BKN,200,,,,,LIFR,,,,,,,,,,,,METAR,66.0
LPLA 052200Z /////KT 9999 FEW024 16/12 Q1014,LPLA,2020-05-05T22:00:00Z,38.77,-27.1,16.0,12.0,,,,6.21,29.940945,,,,,,,,,,,FEW,2400,,,,,,,VFR,,,,,,,,,,,,METAR,55.0
SAWH 052200Z 36003KT CAVOK 05/M01 Q1019,SAWH,2020-05-05T22:00:00Z,-54.85,-68.3,5.0,-1.0,360,3,,6.21,30.088583,,,,,,,,,,,CAVOK,,,,,,,,VFR,,,,,,,,,,,,METAR,14.0
VOMM 052200Z 25003KT 6000 FEW020 29/26 Q1007 NOSIG,VOMM,2020-05-05T22:00:00Z,13.0,80.17,29.0,26.0,250,3,,3.73,29.734253,,,,,,TRUE,,,,,FEW,2000,,,,,,,MVFR,,,,,,,,,,,,METAR,16.0
VOCI 052200Z 00000KT 4000 BR SCT080 27/26 Q1007 NOSIG,VOCI,2020-05-05T22:00:00Z,10.15,76.4,27.0,26.0,0,0,,2.49,29.734253,,,,,,TRUE,,,,BR,SCT,8000,,,,,,,IFR,,,,,,,,,,,,METAR,8.0
FQTT 052200Z 00000KT CAVOK 22/17 Q1020,FQTT,2020-05-05T22:00:00Z,-16.1,33.62,22.0,17.0,0,0,,6.21,30.11811,,,,,,,,,,,CAVOK,,,,,,,,VFR,,,,,,,,,,,,METAR,160.0
KJSL 052200Z AUTO 00000KT 10SM FEW020 SCT024 SCT029 28/22 A2994 RMK A01,KJSL,2020-05-05T22:00:00Z,26.23,-95.25,28.0,22.0,0,0,,10.0,29.940945,,,TRUE,TRUE,,,,,,,FEW,2000,SCT,2400,SCT,2900,,,VFR,,,,,,,,,,,,METAR,10.0
DTTB 052200Z 00000KT CAVOK 18/16 Q1014,DTTB,2020-05-05T22:00:00Z,37.25,9.8,18.0,16.0,0,0,,6.21,29.940945,,,,,,,,,,,CAVOK,,,,,,,,VFR,,,,,,,,,,,,METAR,3.0
DTTD 052200Z AUTO 28004KT NCD 29/M00 Q1017,DTTD,2020-05-05T22:00:00Z,32.32,10.4,29.0,0.0,280,4,,,30.029528,,,TRUE,,,,,,,,CLR,,,,,,,,,,,,,,,,,,,,METAR,301.0
VOTV 052200Z VRB02KT 3000 BR FEW015 SCT080 26/24 Q1006 NOSIG,VOTV,2020-05-05T22:00:00Z,8.47,76.95,26.0,24.0,0,2,,1.86,29.704725,,,,,,TRUE,,,,BR,FEW,1500,SCT,8000,,,,,IFR,,,,,,,,,,,,METAR,8.0
SBAR 052200Z 11008KT 9999 SCT019 29/22 Q1014,SBAR,2020-05-05T22:00:00Z,-10.97,-37.07,29.0,22.0,110,8,,6.21,29.940945,,,,,,,,,,,SCT,1900,,,,,,,VFR,,,,,,,,,,,,METAR,9.0
DTTK 052200Z VRB02KT CAVOK 22/17 Q1015,DTTK,2020-05-05T22:00:00Z,35.67,10.08,22.0,17.0,0,2,,6.21,29.970472,,,,,,,,,,,CAVOK,,,,,,,,VFR,,,,,,,,,,,,METAR,68.0
DTTL 052200Z AUTO 15004KT 100V200 NCD 19/18 Q1016,DTTL,2020-05-05T22:00:00Z,36.85,11.07,19.0,18.0,150,4,,,30.0,,,TRUE,,,,,,,,CLR,,,,,,,,,,,,,,,,,,,,METAR,30.0
VANP 052200Z 00000KT 5000 HZ FEW020 29/16 Q1007 NOSIG,VANP,2020-05-05T22:00:00Z,21.08,79.05,29.0,16.0,0,0,,3.11,29.734253,,,,,,TRUE,,,,HZ,FEW,2000,,,,,,,MVFR,,,,,,,,,,,,METAR,310.0
CYYH 052200Z 01011KT 15SM FEW017 M12/M16 A3029 RMK SC1 SC TR SLP264,CYYH,2020-05-05T22:00:00Z,69.53,-93.57,-12.0,-16.0,10,11,,15.0,30.28937,1026.4,,,,,,,,,,FEW,1700,,,,,,,VFR,,,,,,,,,,,,METAR,28.0
CWXL 052200Z AUTO 18004KT 16/M00 RMK AO1 T01631004,CWXL,2020-05-05T22:00:00Z,49.73,-111.45,16.3,-0.4,180,4,,,,,,TRUE,TRUE,,,,,,,,,,,,,,,,,,,,,,,,,,,METAR,817.0
CWXC 052200Z AUTO 36005KT 05/ RMK AO1 SLP109 T0047 53004,CWXC,2020-05-05T22:00:00Z,48.88,-71.03,4.7,,360,5,,,,1010.9,,TRUE,TRUE,,,,,,,,,,,,,,,,0.4,,,,,,,,,,,METAR,300.0
VOTR 052200Z 00000KT 6000 FEW018 29/25 Q1008 NOSIG,VOTR,2020-05-05T22:00:00Z,10.77,78.72,29.0,25.0,0,0,,3.73,29.763779,,,,,,TRUE,,,,,FEW,1800,,,,,,,MVFR,,,,,,,,,,,,METAR,88.0
DTTN 052200Z 23005KT 8000 FEW020 19/14 Q1015,DTTN,2020-05-05T22:00:00Z,36.47,8.8,19.0,14.0,230,5,,4.97,29.970472,,,,,,,,,,,FEW,2000,,,,,,,MVFR,,,,,,,,,,,,METAR,144.0
FAPE 052200Z 27007KT CAVOK 17/13 Q1026 NOSIG,FAPE,2020-05-05T22:00:00Z,-33.97,25.6,17.0,13.0,270,7,,6.21,30.295275,,,,,,TRUE,,,,,CAVOK,,,,,,,,VFR,,,,,,,,,,,,METAR,60.0
FLKK 052200Z VRB02KT CAVOK 13/10 Q1024,FLKK,2020-05-05T22:00:00Z,-15.32,28.45,13.0,10.0,0,2,,6.21,30.236221,,,,,,,,,,,CAVOK,,,,,,,,VFR,,,,,,,,,,,,METAR,1154.0
UMGG 052200Z 27003MPS 9999 OVC018 12/10 Q1006 R28/CLRD// NOSIG,UMGG,2020-05-05T22:00:00Z,52.53,31.02,12.0,10.0,270,6,,6.21,29.704725,,,,,,TRUE,,,,,OVC,1800,,,,,,,MVFR,,,,,,,,,,,,METAR,144.0
VIJP 052200Z 20005KT 3000 HZ SCT030 FEW035CB BKN100 28/14 Q1008 TEMPO 1500 TSRA,VIJP,2020-05-05T22:00:00Z,26.82,75.78,28.0,14.0,200,5,,1.86,29.763779,,,,,,,,,,HZ,SCT,3000,FEW,3500,BKN,10000,,,IFR,,,,,,,,,,,,METAR,390.0
RPLB 052200Z 06006KT 9999 FEW020 BKN300 27/25 Q1010 NOSIG RMK A2983,RPLB,2020-05-05T22:00:00Z,14.8,120.27,27.0,25.0,60,6,,6.21,29.822834,,,,,,TRUE,,,,,FEW,2000,BKN,30000,,,,,VFR,,,,,,,,,,,,METAR,17.0
RPMD 052200Z VRB02KT 9999 FEW015CB SCT090 BKN290 28/25 Q1011 RMK A2985 CB WSW,RPMD,2020-05-05T22:00:00Z,7.12,125.65,28.0,25.0,0,2,,6.21,29.852362,,,,,,,,,,,FEW,1500,SCT,9000,BKN,29000,,,VFR,,,,,,,,,,,,METAR,18.0
RPVM 052200Z 00000KT 9999 FEW020 SCT300 28/25 Q1011 NOSIG RMK A2985,RPVM,2020-05-05T22:00:00Z,10.32,123.98,28.0,25.0,0,0,,6.21,29.852362,,,,,,TRUE,,,,,FEW,2000,SCT,30000,,,,,VFR,,,,,,,,,,,,METAR,10.0
RPLL 052200Z 12003KT 070V160 9999 SCT023 SCT300 30/25 Q1010 NOSIG RMK A2983,RPLL,2020-05-05T22:00:00Z,14.52,121.0,30.0,25.0,120,3,,6.21,29.822834,,,,,,TRUE,,,,,SCT,2300,SCT,30000,,,,,VFR,,,,,,,,,,,,METAR,21.0
RPVP 052200Z 27004KT 9999 FEW019TCU SCT240 27/25 Q1010 RMK A2983 TCU NE AND S,RPVP,2020-05-05T22:00:00Z,9.75,118.72,27.0,25.0,270,4,,6.21,29.822834,,,,,,,,,,,FEW,1900,SCT,24000,,,,,VFR,,,,,,,,,,,,METAR,16.0
RPLC 052200Z 18002KT 9999 FEW020 BKN300 28/25 Q1010 NOSIG RMK A2983,RPLC,2020-05-05T22:00:00Z,15.17,120.58,28.0,25.0,180,2,,6.21,29.822834,,,,,,TRUE,,,,,FEW,2000,BKN,30000,,,,,VFR,,,,,,,,,,,,METAR,196.0
RKNY 052200Z AUTO 27006KT 9999 NCD 13/11 Q1015,RKNY,2020-05-05T22:00:00Z,38.07,128.67,13.0,11.0,270,6,,6.21,29.970472,,,TRUE,,,,,,,,CLR,,,,,,,,VFR,,,,,,,,,,,,METAR,74.0
RKTN 052200Z 34002KT 8000 FEW005 FEW010 SCT200 14/13 Q1013,RKTN,2020-05-05T22:00:00Z,35.88,128.65,14.0,13.0,340,2,,4.97,29.911417,,,,,,,,,,,FEW,500,FEW,1000,SCT,20000,,,MVFR,,,,,,,,,,,,METAR,35.0
RKPK 052200Z 35005KT CAVOK 16/13 Q1012,RKPK,2020-05-05T22:00:00Z,35.17,128.92,16.0,13.0,350,5,,6.21,29.88189,,,,,,,,,,,CAVOK,,,,,,,,VFR,,,,,,,,,,,,METAR,15.0
YMML 052200Z 02014KT 9999 FEW025 BKN240 12/08 Q1025 FM2300 36018G28KT CAVOK FM2200 MOD TURB BLW 5000FT,YMML,2020-05-05T22:00:00Z,-37.67,144.82,12.0,8.0,20,14,,6.21,30.265747,,,,,,,,,,,FEW,2500,BKN,24000,,,,,VFR,,,,,,,,,,,,METAR,141.0
VIAR 052200Z 00000KT 4000 BR NSC 20/17 Q1006 NOSIG,VIAR,2020-05-05T22:00:00Z,31.7,74.8,20.0,17.0,0,0,,2.49,29.704725,,,,,,TRUE,,,,BR,CLR,,,,,,,,IFR,,,,,,,,,,,,METAR,234.0
RPLI 052200Z VRB01KT 5000 HZ FEW018 SCT090 26/25 Q1010 NOSIG RMK A22983,RPLI,2020-05-05T22:00:00Z,18.17,120.52,26.0,25.0,0,1,,3.11,29.822834,,,,,,TRUE,,,,HZ,FEW,1800,SCT,9000,,,,,MVFR,,,,,,,,,,,,METAR,5.0
RPMZ 052200Z 04004KT 9999 FEW017 SCT300 27/24 Q1010 RMK A2983,RPMZ,2020-05-05T22:00:00Z,6.92,122.07,27.0,24.0,40,4,,6.21,29.822834,,,,,,,,,,,FEW,1700,SCT,30000,,,,,VFR,,,,,,,,,,,,METAR,6.0
UTTT 052200Z 06008KT CAVOK 16/10 Q1015 R08R/CLRD70 NOSIG,UTTT,2020-05-05T22:00:00Z,41.27,69.27,16.0,10.0,60,8,,6.21,29.970472,,,,,,TRUE,,,,,CAVOK,,,,,,,,VFR,,,,,,,,,,,,METAR,489.0
YKRY 052200Z AUTO 14010KT 9999 // NCD 14/12 Q1027,YKRY,2020-05-05T22:00:00Z,-26.57,151.83,14.0,12.0,140,10,,6.21,30.324802,,,TRUE,,,,,,,,CLR,,,,,,,,VFR,,,,,,,,,,,,METAR,434.0
YHUG 052200Z AUTO 09009KT 9999 // NCD 20/10 Q1022,YHUG,2020-05-05T22:00:00Z,-20.82,144.23,20.0,10.0,90,9,,6.21,30.177166,,,TRUE,,,,,,,,CLR,,,,,,,,VFR,,,,,,,,,,,,METAR,318.0
YGTH 052200Z AUTO 00000KT 9999 // NCD 11/10 Q1028,YGTH,2020-05-05T22:00:00Z,-34.25,146.07,11.0,10.0,0,0,,6.21,30.35433,,,TRUE,,,,,,,,CLR,,,,,,,,VFR,,,,,,,,,,,,METAR,134.0
YGTE 052200Z AUTO 12003KT 9999 // NCD 22/21 Q1014,YGTE,2020-05-05T22:00:00Z,-13.97,136.45,22.0,21.0,120,3,,6.21,29.940945,,,TRUE,,,,,,,,CLR,,,,,,,,VFR,,,,,,,,,,,,METAR,14.0
YGFN 052200Z AUTO 22005KT 9999 // NCD 17/16 Q1029,YGFN,2020-05-05T22:00:00Z,-29.77,153.03,17.0,16.0,220,5,,6.21,30.383858,,,TRUE,,,,,,,,CLR,,,,,,,,VFR,,,,,,,,,,,,METAR,34.0
YRMD 052200Z AUTO 10009KT 9999 // NCD 18/11 Q1021,YRMD,2020-05-05T22:00:00Z,-20.7,143.12,18.0,11.0,100,9,,6.21,30.147638,,,TRUE,,,,,,,,CLR,,,,,,,,VFR,,,,,,,,,,,,METAR,207.0
CXLL 052200Z AUTO 34003KT 11/01 RMK AO1 SLP215 T01080010 58013,CXLL,2020-05-05T22:00:00Z,61.12,-122.85,10.8,1.0,340,3,,,,1021.5,,TRUE,TRUE,,,,,,,,,,,,,,,,-1.3,,,,,,,,,,,METAR,183.0
OEDR 052200Z 12005KT CAVOK 28/15 Q1006,OEDR,2020-05-05T22:00:00Z,26.27,50.17,28.0,15.0,120,5,,6.21,29.704725,,,,,,,,,,,CAVOK,,,,,,,,VFR,,,,,,,,,,,,METAR,17.0
FALE 052200Z 21003KT 9999 SCT049 17/14 Q1024 NOSIG,FALE,2020-05-05T22:00:00Z,-29.62,31.12,17.0,14.0,210,3,,6.21,30.236221,,,,,,TRUE,,,,,SCT,4900,,,,,,,VFR,,,,,,,,,,,,METAR,109.0
FAKN 052200Z AUTO 28001KT //// // ////// 17/14 Q1024,FAKN,2020-05-05T22:00:00Z,-25.38,31.1,17.0,14.0,280,1,,,30.236221,,,TRUE,,,,,,,,,,,,,,,,,,,,,,,,,,,,METAR,862.0
FAKM 052200Z AUTO 00000KT //// // ////// 07/04 Q1028,FAKM,2020-05-05T22:00:00Z,-28.8,24.77,7.0,4.0,0,0,,,30.35433,,,TRUE,,,,,,,,,,,,,,,,,,,,,,,,,,,,METAR,1192.0
FAHS 052200Z AUTO 05001KT //// // ////// 19/15 Q1023,FAHS,2020-05-05T22:00:00Z,-24.37,31.02,19.0,15.0,50,1,,,30.206694,,,TRUE,,,,,,,,,,,,,,,,,,,,,,,,,,,,METAR,500.0
FACT 052200Z 21008KT CAVOK 17/15 Q1025 NOSIG,FACT,2020-05-05T22:00:00Z,-33.97,18.6,17.0,15.0,210,8,,6.21,30.265747,,,,,,TRUE,,,,,CAVOK,,,,,,,,VFR,,,,,,,,,,,,METAR,42.0
LEBZ 052200Z AUTO 27006KT CAVOK 16/12 Q1018,LEBZ,2020-05-05T22:00:00Z,38.87,-6.82,16.0,12.0,270,6,,6.21,30.059055,,,TRUE,,,,,,,,CAVOK,,,,,,,,VFR,,,,,,,,,,,,METAR,192.0
LEAB 052200Z 26005KT CAVOK 17/10 Q1018 NOSIG,LEAB,2020-05-05T22:00:00Z,38.95,-1.85,17.0,10.0,260,5,,6.21,30.059055,,,,,,TRUE,,,,,CAVOK,,,,,,,,VFR,,,,,,,,,,,,METAR,704.0
LETO 052200Z 17004KT 100V200 CAVOK 16/00 Q1018 NOSIG,LETO,2020-05-05T22:00:00Z,40.47,-3.47,16.0,0.0,170,4,,6.21,30.059055,,,,,,TRUE,,,,,CAVOK,,,,,,,,VFR,,,,,,,,,,,,METAR,608.0
LERT 052200Z AUTO 28011KT 250V320 9999 NCD 18/16 Q1017,LERT,2020-05-05T22:00:00Z,36.63,-6.33,18.0,16.0,280,11,,6.21,30.029528,,,TRUE,,,,,,,,CLR,,,,,,,,VFR,,,,,,,,,,,,METAR,26.0
LKNA 052200Z 31011KT CAVOK 03/M00 Q1017 RMK BLU,LKNA,2020-05-05T22:00:00Z,49.17,16.12,3.0,0.0,310,11,,6.21,30.029528,,,,,,,,,,,CAVOK,,,,,,,,VFR,,,,,,,,,,,,METAR,472.0
LKLN 052200Z AUTO VRB01KT CAVOK 04/M02 Q1021,LKLN,2020-05-05T22:00:00Z,49.68,13.27,4.0,-2.0,0,1,,6.21,30.147638,,,TRUE,,,,,,,,CAVOK,,,,,,,,VFR,,,,,,,,,,,,METAR,362.0
LKKB 052200Z 30007KT CAVOK 05/M00 Q1020 NOSIG,LKKB,2020-05-05T22:00:00Z,50.12,14.53,5.0,0.0,300,7,,6.21,30.11811,,,,,,TRUE,,,,,CAVOK,,,,,,,,VFR,,,,,,,,,,,,METAR,286.0
CYOW 052200Z 30005KT 280V040 15SM SCT065 10/M06 A2994 RMK CU3 SLP144,CYOW,2020-05-05T22:00:00Z,45.32,-75.67,10.0,-6.0,300,5,,15.0,29.940945,1014.4,,,,,,,,,,SCT,6500,,,,,,,VFR,,,,,,,,,,,,METAR,114.0
CYPC 052200Z 07006KT 15SM BKN063 OVC140 M01/M03 A3015 RMK SC5AC3 SLP213,CYPC,2020-05-05T22:00:00Z,69.37,-124.07,-1.0,-3.0,70,6,,15.0,30.15059,1021.3,,,,,,,,,,BKN,6300,OVC,14000,,,,,VFR,,,,,,,,,,,,METAR,6.0
FAUT 052200Z AUTO 27002KT //// // ////// 13/13 Q1027,FAUT,2020-05-05T22:00:00Z,-31.52,28.67,13.0,13.0,270,2,,,30.324802,,,TRUE,,,,,,,,,,,,,,,,,,,,,,,,,,,,METAR,732.0
FAPP 052200Z AUTO 18003KT //// // ////// 12/09 Q1026,FAPP,2020-05-05T22:00:00Z,-23.83,29.45,12.0,9.0,180,3,,,30.295275,,,TRUE,,,,,,,,,,,,,,,,,,,,,,,,,,,,METAR,1242.0
MKJS 052200Z 16008KT 9999 SCT022 SCT024CB 28/23 Q1011,MKJS,2020-05-05T22:00:00Z,18.5,-77.92,28.0,23.0,160,8,,6.21,29.852362,,,,,,,,,,,SCT,2200,SCT,2400,,,,,VFR,,,,,,,,,,,,METAR,1.0
ZWSH 052200Z 28004MPS 9999 FEW033CB SCT040 19/M02 Q1012 NOSIG,ZWSH,2020-05-05T22:00:00Z,39.55,76.02,19.0,-2.0,280,8,,6.21,29.88189,,,,,,TRUE,,,,,FEW,3300,SCT,4000,,,,,VFR,,,,,,,,,,,,METAR,1380.0
TAPA 052200Z 10009KT 050V140 9999 SCT020 27/22 Q1014 NOSIG,TAPA,2020-05-05T22:00:00Z,17.12,-61.78,27.0,22.0,100,9,,6.21,29.940945,,,,,,TRUE,,,,,SCT,2000,,,,,,,VFR,,,,,,,,,,,,METAR,14.0
NFNA 052200Z 00000KT 9999 SCT020 BKN300 28/24 Q1012,NFNA,2020-05-05T22:00:00Z,-18.05,178.57,28.0,24.0,0,0,,6.21,29.88189,,,,,,,,,,,SCT,2000,BKN,30000,,,,,VFR,,,,,,,,,,,,METAR,5.0
FALW 052200Z AUTO 20006KT //// // ////// 15/12 Q1023,FALW,2020-05-05T22:00:00Z,-32.97,18.17,15.0,12.0,200,6,,,30.206694,,,TRUE,,,,,,,,,,,,,,,,,,,,,,,,,,,,METAR,0.0
ZGSZ 052200Z 15005MPS CAVOK 26/25 Q1008 NOSIG,ZGSZ,2020-05-05T22:00:00Z,22.63,113.8,26.0,25.0,150,10,,6.21,29.763779,,,,,,TRUE,,,,,CAVOK,,,,,,,,VFR,,,,,,,,,,,,METAR,18.0
ZGOW 052200Z 27001MPS CAVOK 25/24 Q1008 NOSIG,ZGOW,2020-05-05T22:00:00Z,23.55,116.5,25.0,24.0,270,2,,6.21,29.763779,,,,,,TRUE,,,,,CAVOK,,,,,,,,VFR,,,,,,,,,,,,METAR,3.0
ZGNN 052200Z 09001MPS CAVOK 25/22 Q1006 NOSIG,ZGNN,2020-05-05T22:00:00Z,22.62,108.17,25.0,22.0,90,2,,6.21,29.704725,,,,,,TRUE,,,,,CAVOK,,,,,,,,VFR,,,,,,,,,,,,METAR,73.0
ZGKL 052200Z 18003MPS 9999 OVC036 26/23 Q1005 NOSIG,ZGKL,2020-05-05T22:00:00Z,25.22,110.03,26.0,23.0,180,6,,6.21,29.675198,,,,,,TRUE,,,,,OVC,3600,,,,,,,VFR,,,,,,,,,,,,METAR,166.0
ZLXY 052200Z 06007MPS CAVOK 18/12 Q1006 NOSIG,ZLXY,2020-05-05T22:00:00Z,34.43,108.75,18.0,12.0,60,14,,6.21,29.704725,,,,,,TRUE,,,,,CAVOK,,,,,,,,VFR,,,,,,,,,,,,METAR,479.0
ZPPP 052200Z 23008MPS CAVOK 17/11 Q1017 NOSIG,ZPPP,2020-05-05T22:00:00Z,25.0,102.65,17.0,11.0,230,16,,6.21,30.029528,,,,,,TRUE,,,,,CAVOK,,,,,,,,VFR,,,,,,,,,,,,METAR,1885.0
ZSAM 052200Z 04004MPS 8000 NSC 25/24 Q1007 NOSIG,ZSAM,2020-05-05T22:00:00Z,24.53,118.13,25.0,24.0,40,8,,4.97,29.734253,,,,,,TRUE,,,,,CLR,,,,,,,,MVFR,,,,,,,,,,,,METAR,18.0
GOSP 052200Z 34002KT CAVOK 36/10 Q1008,GOSP,2020-05-05T22:00:00Z,16.68,-14.97,36.0,10.0,340,2,,6.21,29.763779,,,,,,,,,,,CAVOK,,,,,,,,VFR,,,,,,,,,,,,METAR,7.0
ZUUU 052200Z 26002MPS 220V300 7000 NSC 24/21 Q1002 NOSIG,ZUUU,2020-05-05T22:00:00Z,30.58,103.95,24.0,21.0,260,4,,4.35,29.586615,,,,,,TRUE,,,,,CLR,,,,,,,,MVFR,,,,,,,,,,,,METAR,508.0
ZUGY 052200Z 19004MPS 9999 FEW026 23/19 Q1007 NOSIG,ZUGY,2020-05-05T22:00:00Z,26.53,106.8,23.0,19.0,190,8,,6.21,29.734253,,,,,,TRUE,,,,,FEW,2600,,,,,,,VFR,,,,,,,,,,,,METAR,1074.0
ZSQD 052200Z VRB01MPS CAVOK 13/10 Q1014 NOSIG,ZSQD,2020-05-05T22:00:00Z,36.27,120.38,13.0,10.0,0,2,,6.21,29.940945,,,,,,TRUE,,,,,CAVOK,,,,,,,,VFR,,,,,,,,,,,,METAR,77.0
ZSNB 052200Z 33004MPS 4000 BR SCT007 BKN016 19/17 Q1010 NOSIG,ZSNB,2020-05-05T22:00:00Z,29.83,121.47,19.0,17.0,330,8,,2.49,29.822834,,,,,,TRUE,,,,BR,SCT,700,BKN,1600,,,,,IFR,,,,,,,,,,,,METAR,4.0
CXTN 052200Z AUTO 13022KT M04/M04 RMK AO1 PK WND 14034/2143 SLP233 T10361044 58015,CXTN,2020-05-05T22:00:00Z,69.2,-122.35,-3.6,-4.4,130,22,,,,1023.3,,TRUE,TRUE,,,,,,,,,,,,,,,,-1.5,,,,,,,,,,,METAR,552.0
ZGHA 052200Z 02003MPS 2200 -RA BR BKN005 OVC040 21/20 Q1007 NOSIG,ZGHA,2020-05-05T22:00:00Z,28.18,113.22,21.0,20.0,20,6,,1.37,29.734253,,,,,,TRUE,,,,-RA BR,BKN,500,OVC,4000,,,,,IFR,,,,,,,,,,,,METAR,66.0
ZBHH 052200Z 06002MPS CAVOK 12/M04 Q1012 NOSIG,ZBHH,2020-05-05T22:00:00Z,40.85,111.82,12.0,-4.0,60,4,,6.21,29.88189,,,,,,TRUE,,,,,CAVOK,,,,,,,,VFR,,,,,,,,,,,,METAR,1065.0
FAUP 052200Z AUTO 24002KT //// // ////// 12/M01 Q1026,FAUP,2020-05-05T22:00:00Z,-28.38,21.27,12.0,-1.0,240,2,,,30.295275,,,TRUE,,,,,,,,,,,,,,,,,,,,,,,,,,,,METAR,836.0
YPAD 052200Z 05008KT CAVOK 10/03 Q1022 FM0000 36018G28KT CAVOK,YPAD,2020-05-05T22:00:00Z,-34.95,138.52,10.0,3.0,50,8,,6.21,30.177166,,,,,,,,,,,CAVOK,,,,,,,,VFR,,,,,,,,,,,,METAR,4.0
UBBQ 052200Z 04004KT 9999 BKN160 14/12 Q1009 R16/////// NOSIG RMK MT OP,UBBQ,2020-05-05T22:00:00Z,40.82,47.72,14.0,12.0,40,4,,6.21,29.793306,,,,,,TRUE,,,,,BKN,16000,,,,,,,VFR,,,,,,,,,,,,METAR,338.0
YBBN 052200Z 22009KT 9999 VCSH FEW019 SCT038 BKN070 17/14 Q1027 INTER 2200/0000 4000 SHRA BKN012,YBBN,2020-05-05T22:00:00Z,-27.38,153.13,17.0,14.0,220,9,,6.21,30.324802,,,,,,,,,,VCSH,FEW,1900,SCT,3800,BKN,7000,,,VFR,,,,,,,,,,,,METAR,5.0
UCFL 052200Z 02003MPS 9999 FEW030CB 07/M00 Q1021 R07/CLRD//,UCFL,2020-05-05T22:00:00Z,42.58,76.7,7.0,0.0,20,6,,6.21,30.147638,,,,,,,,,,,FEW,3000,,,,,,,VFR,,,,,,,,,,,,METAR,1648.0
DAOO 052200Z 23010KT CAVOK 18/13 Q1016,DAOO,2020-05-05T22:00:00Z,35.62,-0.6,18.0,13.0,230,10,,6.21,30.0,,,,,,,,,,,CAVOK,,,,,,,,VFR,,,,,,,,,,,,METAR,90.0
UAOO 052200Z 07006MPS CAVOK 16/M03 Q1018 NOSIG RMK QFE752/1002,UAOO,2020-05-05T22:00:00Z,44.7,65.6,16.0,-3.0,70,12,,6.21,30.059055,,,,,,TRUE,,,,,CAVOK,,,,,,,,VFR,,,,,,,,,,,,METAR,129.0
VTSB 052200Z 21002KT 7000 FEW020 25/24 Q1008,VTSB,2020-05-05T22:00:00Z,9.12,99.13,25.0,24.0,210,2,,4.35,29.763779,,,,,,,,,,,FEW,2000,,,,,,,MVFR,,,,,,,,,,,,METAR,11.0
UASK 052200Z 31002MPS 270V360 9999 FEW233 02/00 Q1029 R30/190250 NOSIG RMK QFE746/0995,UASK,2020-05-05T22:00:00Z,50.03,82.5,2.0,0.0,310,4,,6.21,30.383858,,,,,,TRUE,,,,,FEW,23300,,,,,,,VFR,,,,,,,,,,,,METAR,286.0
UARR 052200Z 12007MPS CAVOK 13/01 Q1020 R04/CLRD70 NOSIG RMK QFE761/1015,UARR,2020-05-05T22:00:00Z,51.15,51.53,13.0,1.0,120,14,,6.21,30.11811,,,,,,TRUE,,,,,CAVOK,,,,,,,,VFR,,,,,,,,,,,,METAR,38.0
ZUCK 052200Z 01003MPS CAVOK 22/21 Q1001 NOSIG,ZUCK,2020-05-05T22:00:00Z,29.72,106.63,22.0,21.0,10,6,,6.21,29.557087,,,,,,TRUE,,,,,CAVOK,,,,,,,,VFR,,,,,,,,,,,,METAR,416.0
ZSOF 052200Z 08002MPS 050V110 6000 OVC026 16/14 Q1011 NOSIG,ZSOF,2020-05-05T22:00:00Z,31.98,116.97,16.0,14.0,80,4,,3.73,29.852362,,,,,,TRUE,,,,,OVC,2600,,,,,,,MVFR,,,,,,,,,,,,METAR,63.0
ZSNJ 052200Z 06002MPS 3500 BR BKN009 OVC030 15/15 Q1012 NOSIG,ZSNJ,2020-05-05T22:00:00Z,31.75,118.87,15.0,15.0,60,4,,2.17,29.88189,,,,,,TRUE,,,,BR,BKN,900,OVC,3000,,,,,IFR,,,,,,,,,,,,METAR,33.0
ZLLL 052200Z 03003MPS 9999 FEW046 12/12 Q1008 NOSIG,ZLLL,2020-05-05T22:00:00Z,36.52,103.62,12.0,12.0,30,6,,6.21,29.763779,,,,,,TRUE,,,,,FEW,4600,,,,,,,VFR,,,,,,,,,,,,METAR,1947.0
ZJSY 052200Z 08003MPS 9999 FEW018 27/23 Q1008 NOSIG,ZJSY,2020-05-05T22:00:00Z,18.3,109.42,27.0,23.0,80,6,,6.21,29.763779,,,,,,TRUE,,,,,FEW,1800,,,,,,,VFR,,,,,,,,,,,,METAR,27.0
ZJHK 052200Z VRB01MPS CAVOK 23/21 Q1006 NOSIG,ZJHK,2020-05-05T22:00:00Z,19.93,110.47,23.0,21.0,0,2,,6.21,29.704725,,,,,,TRUE,,,,,CAVOK,,,,,,,,VFR,,,,,,,,,,,,METAR,23.0
ZHHH 052200Z 05004MPS 5000 BR OVC023 19/16 Q1008 NOSIG,ZHHH,2020-05-05T22:00:00Z,30.78,114.22,19.0,16.0,50,8,,3.11,29.763779,,,,,,TRUE,,,,BR,OVC,2300,,,,,,,MVFR,,,,,,,,,,,,METAR,33.0
ZHCC 052200Z VRB01MPS 4000 BR NSC 14/13 Q1012 NOSIG,ZHCC,2020-05-05T22:00:00Z,34.52,113.83,14.0,13.0,0,2,,2.49,29.88189,,,,,,TRUE,,,,BR,CLR,,,,,,,,IFR,,,,,,,,,,,,METAR,151.0
UTAV 052200Z 19002KT CAV0K 17/15 Q1014 R31/CLRD70 NOSIG,UTAV,2020-05-05T22:00:00Z,39.08,63.62,17.0,15.0,190,2,,,29.940945,,,,,,TRUE,,,,,,,,,,,,,,,,,,,,,,,,,METAR,192.0
ZYHB 052200Z 30001MPS CAVOK 09/03 Q1017 NOSIG,ZYHB,2020-05-05T22:00:00Z,45.62,126.25,9.0,3.0,300,2,,6.21,30.029528,,,,,,TRUE,,,,,CAVOK,,,,,,,,VFR,,,,,,,,,,,,METAR,140.0
ZYCC 052200Z VRB01MPS 6000 NSC 08/05 Q1018 NOSIG,ZYCC,2020-05-05T22:00:00Z,43.98,125.68,8.0,5.0,0,2,,3.73,30.059055,,,,,,TRUE,,,,,CLR,,,,,,,,MVFR,,,,,,,,,,,,METAR,238.0
HEMM 052200Z 32010KT CAVOK 17/12 Q1017 NOSIG,HEMM,2020-05-05T22:00:00Z,31.32,27.22,17.0,12.0,320,10,,6.21,30.029528,,,,,,TRUE,,,,,CAVOK,,,,,,,,VFR,,,,,,,,,,,,METAR,30.0
HEAX 052200Z 28010KT 9999 SCT020 19/12 Q1016 NOSIG,HEAX,2020-05-05T22:00:00Z,31.18,29.93,19.0,12.0,280,10,,6.21,30.0,,,,,,TRUE,,,,,SCT,2000,,,,,,,VFR,,,,,,,,,,,,METAR,7.0
HELX 052200Z 35010KT CAVOK 26/09 Q1012 NOSIG,HELX,2020-05-05T22:00:00Z,25.67,32.7,26.0,9.0,350,10,,6.21,29.88189,,,,,,TRUE,,,,,CAVOK,,,,,,,,VFR,,,,,,,,,,,,METAR,88.0
HEGN 052200Z 33014KT CAVOK 24/08 Q1013 NOSIG,HEGN,2020-05-05T22:00:00Z,27.18,33.8,24.0,8.0,330,14,,6.21,29.911417,,,,,,TRUE,,,,,CAVOK,,,,,,,,VFR,,,,,,,,,,,,METAR,14.0
HEPS 052200Z 28010KT CAVOK 19/14 Q1016 NOSIG,HEPS,2020-05-05T22:00:00Z,31.28,32.25,19.0,14.0,280,10,,6.21,30.0,,,,,,TRUE,,,,,CAVOK,,,,,,,,VFR,,,,,,,,,,,,METAR,6.0
HESC 052200Z 26015KT CAVOK 16/M03 Q1020 NOSIG,HESC,2020-05-05T22:00:00Z,28.68,34.07,16.0,-3.0,260,15,,6.21,30.11811,,,,,,TRUE,,,,,CAVOK,,,,,,,,VFR,,,,,,,,,,,,METAR,1332.0
HEBL 052200Z 04010KT CAVOK 27/05 Q1012 NOSIG,HEBL,2020-05-05T22:00:00Z,22.38,31.62,27.0,5.0,40,10,,6.21,29.88189,,,,,,TRUE,,,,,CAVOK,,,,,,,,VFR,,,,,,,,,,,,METAR,188.0
HEBA 052200Z 30012KT 9999 SCT020 18/12 Q1016 NOSIG,HEBA,2020-05-05T22:00:00Z,30.92,29.7,18.0,12.0,300,12,,6.21,30.0,,,,,,TRUE,,,,,SCT,2000,,,,,,,VFR,,,,,,,,,,,,METAR,54.0
HEAT 052200Z 34014KT CAVOK 20/07 Q1018 NOSIG,HEAT,2020-05-05T22:00:00Z,27.05,31.02,20.0,7.0,340,14,,6.21,30.059055,,,,,,TRUE,,,,,CAVOK,,,,,,,,VFR,,,,,,,,,,,,METAR,70.0
HESH 052200Z 01018KT 6000 NSC 23/18 Q1012 NOSIG,HESH,2020-05-05T22:00:00Z,27.97,34.38,23.0,18.0,10,18,,3.73,29.88189,,,,,,TRUE,,,,,CLR,,,,,,,,MVFR,,,,,,,,,,,,METAR,50.0
HESG 052200Z 31010KT CAVOK 24/01 Q1013 NOSIG,HESG,2020-05-05T22:00:00Z,26.33,31.75,24.0,1.0,310,10,,6.21,29.911417,,,,,,TRUE,,,,,CAVOK,,,,,,,,VFR,,,,,,,,,,,,METAR,70.0
ROIG 052200Z 24008KT 9999 FEW007 BKN010 26/26 Q1007,ROIG,2020-05-05T22:00:00Z,24.32,124.17,26.0,26.0,240,8,,6.21,29.734253,,,,,,,,,,,FEW,700,BKN,1000,,,,,MVFR,,,,,,,,,,,,METAR,7.0
RJTT 052200Z 02009KT 9999 FEW008 BKN010 17/14 Q1013 NOSIG RMK 1ST008 7CU010 A2994,RJTT,2020-05-05T22:00:00Z,35.53,139.77,17.0,14.0,20,9,,6.21,29.911417,,,,,,TRUE,,,,,FEW,800,BKN,1000,,,,,MVFR,,,,,,,,,,,,METAR,8.0
RJSY 052200Z 06003KT 020V120 9999 FEW020 SCT040 BKN050 13/09 Q1012,RJSY,2020-05-05T22:00:00Z,38.82,139.77,13.0,9.0,60,3,,6.21,29.88189,,,,,,,,,,,FEW,2000,SCT,4000,BKN,5000,,,VFR,,,,,,,,,,,,METAR,22.0
ROMD 052200Z AUTO 18011KT 9999 OVC002 24/24 Q1009,ROMD,2020-05-05T22:00:00Z,25.83,131.25,24.0,24.0,180,11,,6.21,29.793306,,,TRUE,,,,,,,,OVC,200,,,,,,,LIFR,,,,,,,,,,,,METAR,15.0
ZSFZ 052200Z 01002MPS 330V030 2200 BR BKN006 BKN015 23/22 Q1008 NOSIG,ZSFZ,2020-05-05T22:00:00Z,25.93,119.67,23.0,22.0,10,4,,1.37,29.763779,,,,,,TRUE,,,,BR,BKN,600,BKN,1500,,,,,IFR,,,,,,,,,,,,METAR,85.0
RORY 052200Z AUTO 23013KT 1000 +RA BR BKN002 BKN005 OVC070 //////TCU 23/23 Q1006,RORY,2020-05-05T22:00:00Z,27.05,128.4,23.0,23.0,230,13,,0.62,29.704725,,,TRUE,,,,,,,+RA BR,BKN,200,BKN,500,OVC,7000,,,LIFR,,,,,,,,,,,,METAR,16.0
DAAE 052200Z 13003KT 110V180 CAVOK 19/17 Q1014,DAAE,2020-05-05T22:00:00Z,36.72,5.07,19.0,17.0,130,3,,6.21,29.940945,,,,,,,,,,,CAVOK,,,,,,,,VFR,,,,,,,,,,,,METAR,2.0
ROYN 052200Z AUTO 08008KT 9999 FEW005 BKN120 BKN130 26/25 Q1006,ROYN,2020-05-05T22:00:00Z,24.47,122.97,26.0,25.0,80,8,,6.21,29.704725,,,TRUE,,,,,,,,FEW,500,BKN,12000,BKN,13000,,,VFR,,,,,,,,,,,,METAR,17.0
DAAJ 052200Z 13011KT CAVOK 26/M10 Q1021,DAAJ,2020-05-05T22:00:00Z,24.28,9.47,26.0,-10.0,130,11,,6.21,30.147638,,,,,,,,,,,CAVOK,,,,,,,,VFR,,,,,,,,,,,,METAR,968.0
DAAV 052200Z 00000KT CAVOK 18/16 Q1015,DAAV,2020-05-05T22:00:00Z,36.8,5.88,18.0,16.0,0,0,,6.21,29.970472,,,,,,,,,,,CAVOK,,,,,,,,VFR,,,,,,,,,,,,METAR,11.0
DAUZ 052200Z 09010KT CAVOK 27/M06 Q1019,DAUZ,2020-05-05T22:00:00Z,28.05,9.62,27.0,-6.0,90,10,,6.21,30.088583,,,,,,,,,,,CAVOK,,,,,,,,VFR,,,,,,,,,,,,METAR,562.0
VTCT 052200Z 00000KT 9999 FEW030 24/23 Q1008 NOSIG,VTCT,2020-05-05T22:00:00Z,19.95,99.88,24.0,23.0,0,0,,6.21,29.763779,,,,,,TRUE,,,,,FEW,3000,,,,,,,VFR,,,,,,,,,,,,METAR,390.0
DAUA 052200Z 17008KT 8000 NSC 33/// Q1011,DAUA,2020-05-05T22:00:00Z,27.83,-0.18,,,170,8,,4.97,29.852362,,,,,,,,,,,CLR,,,,,,,,MVFR,,,,,,,,,,,,METAR,263.0
DAOB 052200Z 22005KT CAVOK 19/10 Q1020,DAOB,2020-05-05T22:00:00Z,35.33,1.47,19.0,10.0,220,5,,6.21,30.11811,,,,,,,,,,,CAVOK,,,,,,,,VFR,,,,,,,,,,,,METAR,989.0
DABS 052200Z 12004KT 9999 FEW040 SCT233 21/07 Q1020,DABS,2020-05-05T22:00:00Z,35.43,8.12,21.0,7.0,120,4,,6.21,30.11811,,,,,,,,,,,FEW,4000,SCT,23300,,,,,VFR,,,,,,,,,,,,METAR,813.0
DAUG 052200Z 12004KT CAVOK 29/M05 Q1017,DAUG,2020-05-05T22:00:00Z,32.37,3.82,29.0,-5.0,120,4,,6.21,30.029528,,,,,,,,,,,CAVOK,,,,,,,,VFR,,,,,,,,,,,,METAR,450.0
CZKD 052200Z AUTO 01006KT 02/M07 RMK AO1 SLP272 T00161070 58001,CZKD,2020-05-05T22:00:00Z,56.03,-96.52,1.6,-7.0,10,6,,,,1027.2,,TRUE,TRUE,,,,,,,,,,,,,,,,-0.1,,,,,,,,,,,METAR,183.0
CXYH 052200Z AUTO 19006KT 12/01 RMK AO1 SLP192 T01220012 58014,CXYH,2020-05-05T22:00:00Z,61.25,-123.75,12.2,1.2,190,6,,,,1019.2,,TRUE,TRUE,,,,,,,,,,,,,,,,-1.4,,,,,,,,,,,METAR,204.0
RJEC 052200Z 33003KT 290V010 9999 FEW015 BKN100 BKN/// 03/02 Q1015,RJEC,2020-05-05T22:00:00Z,43.67,142.43,3.0,2.0,330,3,,6.21,29.970472,,,,,,,,,,,FEW,1500,BKN,10000,,,,,VFR,,,,,,,,,,,,METAR,211.0
RJDC 052200Z 27003KT 9999 FEW010 SCT030 BKN040 18/16 Q1010,RJDC,2020-05-05T22:00:00Z,33.92,131.27,18.0,16.0,270,3,,6.21,29.822834,,,,,,,,,,,FEW,1000,SCT,3000,BKN,4000,,,VFR,,,,,,,,,,,,METAR,8.0
RJCO 052200Z 17013KT 9999 FEW015 BKN025 BKN120 10/06 Q1016,RJCO,2020-05-05T22:00:00Z,43.12,141.37,10.0,6.0,170,13,,6.21,30.0,,,,,,,,,,,FEW,1500,BKN,2500,BKN,12000,,,MVFR,,,,,,,,,,,,METAR,11.0
RJCK 052200Z 16004KT 130V190 9999 FEW030 SCT/// 07/03 Q1018,RJCK,2020-05-05T22:00:00Z,43.02,144.18,7.0,3.0,160,4,,6.21,30.059055,,,,,,,,,,,FEW,3000,,,,,,,VFR,,,,,,,,,,,,METAR,98.0
RJCH 052200Z 11005KT 9999 FEW040 11/03 Q1013,RJCH,2020-05-05T22:00:00Z,41.77,140.82,11.0,3.0,110,5,,6.21,29.911417,,,,,,,,,,,FEW,4000,,,,,,,VFR,,,,,,,,,,,,METAR,36.0
RJBE 052200Z 05011KT 9999 FEW020 SCT030 BKN050 19/09 Q1010,RJBE,2020-05-05T22:00:00Z,34.63,135.23,19.0,9.0,50,11,,6.21,29.822834,,,,,,,,,,,FEW,2000,SCT,3000,BKN,5000,,,VFR,,,,,,,,,,,,METAR,5.0
RJBB 052200Z 04012KT 9999 FEW020 BKN030 19/12 Q1010 NOSIG,RJBB,2020-05-05T22:00:00Z,34.42,135.25,19.0,12.0,40,12,,6.21,29.822834,,,,,,TRUE,,,,,FEW,2000,BKN,3000,,,,,MVFR,,,,,,,,,,,,METAR,8.0
RJAH 052200Z 01007KT 8000 -SHRA FEW015 BKN020 BKN030 14/12 Q1014,RJAH,2020-05-05T22:00:00Z,36.17,140.42,14.0,12.0,10,7,,4.97,29.940945,,,,,,,,,,-SHRA,FEW,1500,BKN,2000,BKN,3000,,,MVFR,,,,,,,,,,,,METAR,35.0
RJSS 052200Z 12006KT 9999 FEW008 BKN010 BKN020 11/09 Q1015,RJSS,2020-05-05T22:00:00Z,38.12,140.92,11.0,9.0,120,6,,6.21,29.970472,,,,,,,,,,,FEW,800,BKN,1000,BKN,2000,,,MVFR,,,,,,,,,,,,METAR,5.0
RJSN 052200Z 35003KT 310V020 9999 FEW010 BKN070 13/11 Q1012,RJSN,2020-05-05T22:00:00Z,37.95,139.12,13.0,11.0,350,3,,6.21,29.88189,,,,,,,,,,,FEW,1000,BKN,7000,,,,,VFR,,,,,,,,,,,,METAR,4.0
RJSM 052200Z 13014KT 9999 FEW015 11/06 Q1013,RJSM,2020-05-05T22:00:00Z,40.7,141.37,11.0,6.0,130,14,,6.21,29.911417,,,,,,,,,,,FEW,1500,,,,,,,VFR,,,,,,,,,,,,METAR,36.0
RJSK 052200Z 14005KT 100V190 9999 FEW050 12/08 Q1012,RJSK,2020-05-05T22:00:00Z,39.62,140.22,12.0,8.0,140,5,,6.21,29.88189,,,,,,,,,,,FEW,5000,,,,,,,VFR,,,,,,,,,,,,METAR,96.0
RJSF 052200Z 18003KT 130V210 9999 FEW005 BKN010 BKN015 13/13 Q1014,RJSF,2020-05-05T22:00:00Z,37.22,140.42,13.0,13.0,180,3,,6.21,29.940945,,,,,,,,,,,FEW,500,BKN,1000,BKN,1500,,,MVFR,,,,,,,,,,,,METAR,375.0
RJSD 052200Z AUTO VRB02KT 9999 NSC 12/10 Q1012,RJSD,2020-05-05T22:00:00Z,38.03,138.42,12.0,10.0,0,2,,6.21,29.88189,,,TRUE,,,,,,,,CLR,,,,,,,,VFR,,,,,,,,,,,,METAR,26.0
RJSA 052200Z VRB02KT 9999 FEW020 09/05 Q1012,RJSA,2020-05-05T22:00:00Z,40.72,140.68,9.0,5.0,0,2,,6.21,29.88189,,,,,,,,,,,FEW,2000,,,,,,,VFR,,,,,,,,,,,,METAR,201.0
RJOT 052200Z VRB01KT 9000 FEW020 SCT035 BKN/// 19/17 Q1010,RJOT,2020-05-05T22:00:00Z,34.22,134.02,19.0,17.0,0,1,,5.59,29.822834,,,,,,,,,,,FEW,2000,SCT,3500,,,,,VFR,,,,,,,,,,,,METAR,188.0
RJOR 052200Z VRB01KT 9999 VCSH FEW004 SCT060 BKN080 15/14 Q1010,RJOR,2020-05-05T22:00:00Z,35.52,134.17,15.0,14.0,0,1,,6.21,29.822834,,,,,,,,,,VCSH,FEW,400,SCT,6000,BKN,8000,,,VFR,,,,,,,,,,,,METAR,18.0
RJOO 052200Z 34007KT 9999 FEW030 BKN040 BKN/// 19/09 Q1010 RMK 1CU030 5SC040 A2985,RJOO,2020-05-05T22:00:00Z,34.77,135.43,19.0,9.0,340,7,,6.21,29.822834,,,,,,,,,,,FEW,3000,BKN,4000,,,,,VFR,,,,,,,,,,,,METAR,15.0
RJOM 052200Z 01004KT 7000 FEW010 SCT030 BKN040 19/18 Q1010,RJOM,2020-05-05T22:00:00Z,33.82,132.68,19.0,18.0,10,4,,4.35,29.822834,,,,,,,,,,,FEW,1000,SCT,3000,BKN,4000,,,MVFR,,,,,,,,,,,,METAR,7.0
RJOK 052200Z 28003KT 9999 BKN050 20/18 Q1010,RJOK,2020-05-05T22:00:00Z,33.52,133.67,20.0,18.0,280,3,,6.21,29.822834,,,,,,,,,,,BKN,5000,,,,,,,VFR,,,,,,,,,,,,METAR,10.0
RJOH 052200Z 02004KT 340V050 9999 FEW008 BKN010 BKN050 16/14 Q1011,RJOH,2020-05-05T22:00:00Z,35.47,133.25,16.0,14.0,20,4,,6.21,29.852362,,,,,,,,,,,FEW,800,BKN,1000,BKN,5000,,,MVFR,,,,,,,,,,,,METAR,9.0
RJOC 052200Z 16003KT 9999 FEW008 SCT015 BKN060 16/14 Q1011,RJOC,2020-05-05T22:00:00Z,35.42,132.87,16.0,14.0,160,3,,6.21,29.852362,,,,,,,,,,,FEW,800,SCT,1500,BKN,6000,,,VFR,,,,,,,,,,,,METAR,5.0
RJOB 052200Z 20001KT 9999 FEW025 BKN035 17/14 Q1011,RJOB,2020-05-05T22:00:00Z,34.75,133.83,17.0,14.0,200,1,,6.21,29.852362,,,,,,,,,,,FEW,2500,BKN,3500,,,,,VFR,,,,,,,,,,,,METAR,242.0
RJOA 052200Z 31003KT 9000 FEW015 BKN020 19/17 Q1011,RJOA,2020-05-05T22:00:00Z,34.42,132.92,19.0,17.0,310,3,,5.59,29.852362,,,,,,,,,,,FEW,1500,BKN,2000,,,,,MVFR,,,,,,,,,,,,METAR,6.0
RJNT 052200Z VRB02KT 9999 VCSH FEW002 SCT060 BKN080 14/12 Q1012,RJNT,2020-05-05T22:00:00Z,36.63,137.17,14.0,12.0,0,2,,6.21,29.88189,,,,,,,,,,VCSH,FEW,200,SCT,6000,BKN,8000,,,VFR,,,,,,,,,,,,METAR,27.0
RJNK 052200Z VRB02KT 9999 FEW050 BKN080 BKN100 15/13 Q1011,RJNK,2020-05-05T22:00:00Z,36.37,136.42,15.0,13.0,0,2,,6.21,29.852362,,,,,,,,,,,FEW,5000,BKN,8000,BKN,10000,,,VFR,,,,,,,,,,,,METAR,9.0
RJKI 052200Z AUTO 17004KT 9999 FEW015 SCT017 BKN090 //////TCU 23/23 Q1006,RJKI,2020-05-05T22:00:00Z,28.32,129.92,23.0,23.0,170,4,,6.21,29.704725,,,TRUE,,,,,,,,FEW,1500,SCT,1700,BKN,9000,,,VFR,,,,,,,,,,,,METAR,6.0
DAOI 052200Z 24011KT CAVOK 22/11 Q1014,DAOI,2020-05-05T22:00:00Z,36.22,1.32,22.0,11.0,240,11,,6.21,29.940945,,,,,,,,,,,CAVOK,,,,,,,,VFR,,,,,,,,,,,,METAR,143.0
RJFO 052200Z 02003KT 9999 FEW015 BKN025 BKN035 18/16 Q1010,RJFO,2020-05-05T22:00:00Z,33.47,131.72,18.0,16.0,20,3,,6.21,29.822834,,,,,,,,,,,FEW,1500,BKN,2500,BKN,3500,,,MVFR,,,,,,,,,,,,METAR,8.0
RJFR 052200Z 34007KT 9999 FEW015 SCT025 BKN035 18/16 Q1010,RJFR,2020-05-05T22:00:00Z,33.82,131.03,18.0,16.0,340,7,,6.21,29.822834,,,,,,,,,,,FEW,1500,SCT,2500,BKN,3500,,,VFR,,,,,,,,,,,,METAR,6.0
UBBY 052200Z 02004KT 9999 FEW050CB BKN100 15/13 Q1012 R33/////// NOSIG RMK MT OP,UBBY,2020-05-05T22:00:00Z,41.57,46.67,15.0,13.0,20,4,,6.21,29.88189,,,,,,TRUE,,,,,FEW,5000,BKN,10000,,,,,VFR,,,,,,,,,,,,METAR,390.0
SARF 052200Z 18020KT 9999 OVC012 22/19 Q1011,SARF,2020-05-05T22:00:00Z,-26.22,-58.22,22.0,19.0,180,20,,6.21,29.852362,,,,,,,,,,,OVC,1200,,,,,,,MVFR,,,,,,,,,,,,METAR,60.0
MMCU 052200Z RTD 34012KT 10SM SKC 34/03 A3005,MMCU,2020-05-05T22:00:00Z,28.7,-105.97,34.0,3.0,340,12,,10.0,30.050198,,,,,,,,,,,SKC,,,,,,,,VFR,,,,,,,,,,,,SPECI,1372.0
SADF 052200Z 20012KT 9999 BKN042 14/09 Q1017,SADF,2020-05-05T22:00:00Z,-34.45,-58.58,14.0,9.0,200,12,,6.21,30.029528,,,,,,,,,,,BKN,4200,,,,,,,VFR,,,,,,,,,,,,METAR,4.0
KPKV 052200Z AUTO 14010KT 10SM SCT036 33/24 A2989 RMK AO2 T03290243,KPKV,2020-05-05T22:00:00Z,28.65,-96.68,32.9,24.3,140,10,,10.0,29.890747,,,TRUE,TRUE,,,,,,,SCT,3600,,,,,,,VFR,,,,,,,,,,,,METAR,9.0
GOOD 052200Z 18004KT 8000 NSC 32/18 Q1010,GOOD,2020-05-05T22:00:00Z,14.65,-16.22,32.0,18.0,180,4,,4.97,29.822834,,,,,,,,,,,CLR,,,,,,,,MVFR,,,,,,,,,,,,METAR,9.0
GOSM 052200Z 00000KT CAVOK 24/13 Q1008,GOSM,2020-05-05T22:00:00Z,15.6,-13.33,24.0,13.0,0,0,,6.21,29.763779,,,,,,,,,,,CAVOK,,,,,,,,VFR,,,,,,,,,,,,METAR,17.0
DABT 052200Z 08003KT CAVOK 20/03 Q1020,DABT,2020-05-05T22:00:00Z,35.75,6.32,20.0,3.0,80,3,,6.21,30.11811,,,,,,,,,,,CAVOK,,,,,,,,VFR,,,,,,,,,,,,METAR,823.0
CWND 052200Z AUTO 09009KT M03/M04 RMK AO1 SLP147 T10271043 51001,CWND,2020-05-05T22:00:00Z,69.63,-135.43,-2.7,-4.3,90,9,,,,1014.7,,TRUE,TRUE,,,,,,,,,,,,,,,,0.1,,,,,,,,,,,METAR,12.0
DAAP 052200Z 06004KT CAVOK 29/04 Q1018,DAAP,2020-05-05T22:00:00Z,26.72,8.62,29.0,4.0,60,4,,6.21,30.059055,,,,,,,,,,,CAVOK,,,,,,,,VFR,,,,,,,,,,,,METAR,558.0
DAAY 052200Z 18008KT 8000 NSC 25/M04 Q1022,DAAY,2020-05-05T22:00:00Z,33.53,-0.25,25.0,-4.0,180,8,,4.97,30.177166,,,,,,,,,,,CLR,,,,,,,,MVFR,,,,,,,,,,,,METAR,1149.0
DAOF 052200Z 32016KT CAVOK 30/02 Q1013,DAOF,2020-05-05T22:00:00Z,27.7,-8.17,30.0,2.0,320,16,,6.21,29.911417,,,,,,,,,,,CAVOK,,,,,,,,VFR,,,,,,,,,,,,METAR,431.0
DAOL 052200Z 26008KT CAVOK 20/11 Q1017,DAOL,2020-05-05T22:00:00Z,35.53,-0.52,20.0,11.0,260,8,,6.21,30.029528,,,,,,,,,,,CAVOK,,,,,,,,VFR,,,,,,,,,,,,METAR,112.0
DAOR 052200Z 13002KT 8000 NSC 30/// Q1016,DAOR,2020-05-05T22:00:00Z,31.65,-2.27,,,130,2,,4.97,30.0,,,,,,,,,,,CLR,,,,,,,,MVFR,,,,,,,,,,,,METAR,773.0
RORK 052200Z AUTO 18013KT 9000 OVC004 24/24 Q1008,RORK,2020-05-05T22:00:00Z,25.92,131.32,24.0,24.0,180,13,,5.59,29.763779,,,TRUE,,,,,,,,OVC,400,,,,,,,LIFR,,,,,,,,,,,,METAR,22.0
ROMY 052200Z 23011KT 8000 -SHRA FEW006 SCT008 BKN011 26/25 Q1007,ROMY,2020-05-05T22:00:00Z,24.77,125.27,26.0,25.0,230,11,,4.97,29.734253,,,,,,,,,,-SHRA,FEW,600,SCT,800,BKN,1100,,,MVFR,,,,,,,,,,,,METAR,41.0
DAAS 052200Z 03003KT 350V110 9999 FEW030 BKN233 21/03 Q1021,DAAS,2020-05-05T22:00:00Z,36.18,5.33,21.0,3.0,30,3,,6.21,30.147638,,,,,,,,,,,FEW,3000,BKN,23300,,,,,VFR,,,,,,,,,,,,METAR,1038.0
UKDR 052200Z 26003MPS 9999 SCT030CB 13/11 Q1006 R36/09//70 NOSIG,UKDR,2020-05-05T22:00:00Z,48.05,33.22,13.0,11.0,260,6,,6.21,29.704725,,,,,,TRUE,,,,,SCT,3000,,,,,,,VFR,,,,,,,,,,,,METAR,124.0
UKDD 052200Z 18002MPS 150V210 9999 FEW022CB 13/11 Q1006 R08/090070 NOSIG,UKDD,2020-05-05T22:00:00Z,48.37,35.1,13.0,11.0,180,4,,6.21,29.704725,,,,,,TRUE,,,,,FEW,2200,,,,,,,VFR,,,,,,,,,,,,METAR,149.0
EIME 052200Z 06005KT CAVOK 09/06 Q1022,EIME,2020-05-05T22:00:00Z,53.3,-6.45,9.0,6.0,60,5,,6.21,30.177166,,,,,,,,,,,CAVOK,,,,,,,,VFR,,,,,,,,,,,,METAR,93.0
NVSG 052200Z AUTO 17002KT //// // NCD ///// Q1012,NVSG,2020-05-05T22:00:00Z,-15.3,167.97,,,170,2,,,29.88189,,,TRUE,,,,,,,,CLR,,,,,,,,,,,,,,,,,,,,METAR,51.0
VEBS 052200Z 13002KT 4000 -RA BKN018 FEW030CB BKN100 28/26 Q1006 TEMPO 3000 -TSRA,VEBS,2020-05-05T22:00:00Z,20.25,85.82,28.0,26.0,130,2,,2.49,29.704725,,,,,,,,,,-RA,BKN,1800,FEW,3000,BKN,10000,,,IFR,,,,,,,,,,,,METAR,46.0
NVSS 052200Z 20006KT 9999 SCT020 BKN130 26/23 Q1010,NVSS,2020-05-05T22:00:00Z,-15.52,167.22,26.0,23.0,200,6,,6.21,29.822834,,,,,,,,,,,SCT,2000,BKN,13000,,,,,VFR,,,,,,,,,,,,METAR,44.0
NVVV 052200Z 12002KT 9999 -SHRA SCT020 OVC110 25/24 Q1011,NVVV,2020-05-05T22:00:00Z,-17.68,168.3,25.0,24.0,120,2,,6.21,29.852362,,,,,,,,,,-SHRA,SCT,2000,OVC,11000,,,,,VFR,,,,,,,,,,,,METAR,21.0
NVVW 052200Z 00000KT 9999 RA SCT018 BKN020 OVC100 24/23 Q1011,NVVW,2020-05-05T22:00:00Z,-19.45,169.22,24.0,23.0,0,0,,6.21,29.852362,,,,,,,,,,RA,SCT,1800,BKN,2000,OVC,10000,,,MVFR,,,,,,,,,,,,METAR,6.0
WBGG 052200Z VRB02KT 9999 FEW003 SCT020 25/25 Q1009 NOSIG,WBGG,2020-05-05T22:00:00Z,1.47,110.35,25.0,25.0,0,2,,6.21,29.793306,,,,,,TRUE,,,,,FEW,300,SCT,2000,,,,,VFR,,,,,,,,,,,,METAR,27.0
SGES 052200Z 06006KT 9999 TS SCT033 FEW040CB BKN070 22/16 Q1010,SGES,2020-05-05T22:00:00Z,-25.45,-54.85,22.0,16.0,60,6,,6.21,29.822834,,,,,,,,,,TS,SCT,3300,FEW,4000,BKN,7000,,,VFR,,,,,,,,,,,,METAR,849.0
SGAS 052200Z 21011KT 9999 OVC020 26/20 Q1010 RETS,SGAS,2020-05-05T22:00:00Z,-25.25,-57.52,26.0,20.0,210,11,,6.21,29.822834,,,,,,,,,,,OVC,2000,,,,,,,MVFR,,,,,,,,,,,,METAR,101.0
VTUK 052200Z VRB01KT 8000 NSC 29/23 Q1006 NOSIG,VTUK,2020-05-05T22:00:00Z,16.47,102.78,29.0,23.0,0,1,,4.97,29.704725,,,,,,TRUE,,,,,CLR,,,,,,,,MVFR,,,,,,,,,,,,METAR,204.0
VTUO 052200Z 22005KT 6000 NSC 29/25 Q1007 NOSIG,VTUO,2020-05-05T22:00:00Z,15.23,103.25,29.0,25.0,220,5,,3.73,29.734253,,,,,,TRUE,,,,,CLR,,,,,,,,MVFR,,,,,,,,,,,,METAR,183.0
VTUV 052200Z 00000KT 8000 NSC 27/26 Q1006 NOSIG,VTUV,2020-05-05T22:00:00Z,16.12,103.78,27.0,26.0,0,0,,4.97,29.704725,,,,,,TRUE,,,,,CLR,,,,,,,,MVFR,,,,,,,,,,,,METAR,138.0
VTUU 052200Z 22005KT 9000 NSC 29/25 Q1006 NOSIG,VTUU,2020-05-05T22:00:00Z,15.25,104.87,29.0,25.0,220,5,,5.59,29.704725,,,,,,TRUE,,,,,CLR,,,,,,,,VFR,,,,,,,,,,,,METAR,127.0
OJAM 052200Z 24016KT 7000 FEW015 SCT020 11/09 Q1013 NOSIG,OJAM,2020-05-05T22:00:00Z,31.97,35.97,11.0,9.0,240,16,,4.35,29.911417,,,,,,TRUE,,,,,FEW,1500,SCT,2000,,,,,MVFR,,,,,,,,,,,,METAR,773.0
VVCR 052200Z VRB01KT CAVOK 26/24 Q1009 NOSIG,VVCR,2020-05-05T22:00:00Z,12.0,109.22,26.0,24.0,0,1,,6.21,29.793306,,,,,,TRUE,,,,,CAVOK,,,,,,,,VFR,,,,,,,,,,,,METAR,12.0
RJKA 052200Z 19003KT 9999 FEW003 SCT007 BKN100 23/23 Q1005,RJKA,2020-05-05T22:00:00Z,28.42,129.72,23.0,23.0,190,3,,6.21,29.675198,,,,,,,,,,,FEW,300,SCT,700,BKN,10000,,,VFR,,,,,,,,,,,,METAR,7.0
RJGG 052200Z 34008KT 9999 -SHRA FEW007 BKN015 17/13 Q1011 BECMG 14006KT TEMPO 4000 -TSRA BR FEW005 BKN008 FEW020CB,RJGG,2020-05-05T22:00:00Z,34.87,136.8,17.0,13.0,340,8,,6.21,29.852362,,,,,,,,,,-SHRA,FEW,700,BKN,1500,,,,,MVFR,,,,,,,,,,,,METAR,5.0
RJFT 052200Z 05003KT 6000 NSC 19/18 Q1010,RJFT,2020-05-05T22:00:00Z,32.82,130.83,19.0,18.0,50,3,,3.73,29.822834,,,,,,,,,,,CLR,,,,,,,,MVFR,,,,,,,,,,,,METAR,196.0
RJFS 052200Z VRB01KT 9999 FEW015 SCT025 BKN/// 19/17 Q1009,RJFS,2020-05-05T22:00:00Z,33.15,130.3,19.0,17.0,0,1,,6.21,29.793306,,,,,,,,,,,FEW,1500,SCT,2500,,,,,VFR,,,,,,,,,,,,METAR,5.0
SKPV 052200Z 08008KT 9999 SCT017 OVC200 29/25 A2983,SKPV,2020-05-05T22:00:00Z,13.37,-81.33,29.0,25.0,80,8,,6.21,29.828741,,,,,,,,,,,SCT,1700,OVC,20000,,,,,VFR,,,,,,,,,,,,METAR,6.0
NZCH 052200Z AUTO 07002KT 9999 BKN055/// 07/03 Q1014 NOSIG,NZCH,2020-05-05T22:00:00Z,-43.47,172.55,7.0,3.0,70,2,,6.21,29.940945,,,TRUE,,,TRUE,,,,,BKN,5500,,,,,,,VFR,,,,,,,,,,,,METAR,34.0
NZWN 052200Z AUTO 21015KT 9999 NCD 12/05 Q1016 NOSIG,NZWN,2020-05-05T22:00:00Z,-41.32,174.8,12.0,5.0,210,15,,6.21,30.0,,,TRUE,,,TRUE,,,,,CLR,,,,,,,,VFR,,,,,,,,,,,,METAR,7.0
RJAW 052200Z 16005KT 9999 FEW010 SCT230 25/21 Q1013 RMK 2CU010 A2994,RJAW,2020-05-05T22:00:00Z,24.77,141.32,25.0,21.0,160,5,,6.21,29.911417,,,,,,,,,,,FEW,1000,SCT,23000,,,,,VFR,,,,,,,,,,,,METAR,116.0
SKMR 052200Z 34006KT 9999 FEW020 BKN100 30/27 A2968,SKMR,2020-05-05T22:00:00Z,8.82,-75.83,30.0,27.0,340,6,,6.21,29.681103,,,,,,,,,,,FEW,2000,BKN,10000,,,,,VFR,,,,,,,,,,,,METAR,26.0
SKLC 052200Z 34008KT 9999 FEW015 SCT100 BKN300 29/26 A2971,SKLC,2020-05-05T22:00:00Z,7.82,-76.7,29.0,26.0,340,8,,6.21,29.71063,,,,,,,,,,,FEW,1500,SCT,10000,BKN,30000,,,VFR,,,,,,,,,,,,METAR,30.0
SKUC 052200Z 35003KT 9999 BKN020 27/25 A2977,SKUC,2020-05-05T22:00:00Z,7.07,-70.72,27.0,25.0,350,3,,6.21,29.769686,,,,,,,,,,,BKN,2000,,,,,,,MVFR,,,,,,,,,,,,METAR,128.0
SKIB 052200Z 13005KT 9999 FEW030 SCT100 28/22 A2993,SKIB,2020-05-05T22:00:00Z,4.42,-75.15,28.0,22.0,130,5,,6.21,29.929134,,,,,,,,,,,FEW,3000,SCT,10000,,,,,VFR,,,,,,,,,,,,METAR,928.0
SKUI 052200Z 30005KT 8000 VCSH BKN016 BKN080 30/25 A2971 RMK VCSH SE/NW,SKUI,2020-05-05T22:00:00Z,5.72,-76.62,30.0,25.0,300,5,,4.97,29.71063,,,,,,,,,,VCSH,BKN,1600,BKN,8000,,,,,MVFR,,,,,,,,,,,,METAR,33.0
SKMD 052200Z 09014KT 9999 FEW040CB SCT200 29/13 A2996 RMK CB/S/SW,SKMD,2020-05-05T22:00:00Z,6.22,-75.58,29.0,13.0,90,14,,6.21,29.958662,,,,,,,,,,,FEW,4000,SCT,20000,,,,,VFR,,,,,,,,,,,,METAR,1499.0
SKVV 052200Z 04004KT 9999 FEW020 SCT090 28/23 A2983,SKVV,2020-05-05T22:00:00Z,4.17,-73.62,28.0,23.0,40,4,,6.21,29.828741,,,,,,,,,,,FEW,2000,SCT,9000,,,,,VFR,,,,,,,,,,,,METAR,431.0
TTPP 052200Z 09014KT 9999 FEW020 29/23 Q1011 NOSIG,TTPP,2020-05-05T22:00:00Z,10.58,-61.35,29.0,23.0,90,14,,6.21,29.852362,,,,,,TRUE,,,,,FEW,2000,,,,,,,VFR,,,,,,,,,,,,METAR,15.0
TTCP 052200Z 11010KT 9999 FEW020 28/23 Q1011 NOSIG,TTCP,2020-05-05T22:00:00Z,11.15,-60.85,28.0,23.0,110,10,,6.21,29.852362,,,,,,TRUE,,,,,FEW,2000,,,,,,,VFR,,,,,,,,,,,,METAR,8.0
FAVV 052200Z AUTO /////KT //// // ////// 08/04 Q1031,FAVV,2020-05-05T22:00:00Z,-26.57,27.97,8.0,4.0,,,,,30.442913,,,TRUE,,,,,,,,,,,,,,,,,,,,,,,,,,,,METAR,1483.0
CYWH 052200Z 02005KT 310V070 15SM FEW035 BKN240 16/08 A3006 RMK CU1CI5 SLP182,CYWH,2020-05-05T22:00:00Z,48.42,-123.38,16.0,8.0,20,5,,15.0,30.059055,1018.2,,,,,,,,,,FEW,3500,BKN,24000,,,,,VFR,,,,,,,,,,,,METAR,10.0
CYBG 052200Z 26008KT 25SM BKN040 BKN070 06/03 A2987 RMK SC5AC2 SLP123,CYBG,2020-05-05T22:00:00Z,48.33,-70.98,6.0,3.0,260,8,,25.0,29.870079,1012.3,,,,,,,,,,BKN,4000,BKN,7000,,,,,VFR,,,,,,,,,,,,METAR,159.0
CYEG 052200Z 14008G15KT 110V190 20SM BKN060 BKN200 16/01 A3019 RMK CU5CC2 SLP244 DENSITY ALT 2800FT,CYEG,2020-05-05T22:00:00Z,53.28,-113.57,16.0,1.0,140,8,15,20.0,30.188976,1024.4,,,,,,,,,,BKN,6000,BKN,20000,,,,,VFR,,,,,,,,,,,,METAR,723.0
CYFB 052200Z 31009KT 30SM SKC M07/M12 A3005 RMK SLP183,CYFB,2020-05-05T22:00:00Z,63.75,-68.55,-7.0,-12.0,310,9,,30.0,30.050198,1018.3,,,,,,,,,,SKC,,,,,,,,VFR,,,,,,,,,,,,METAR,34.0
CYMX 052200Z 01005KT 350V080 45SM BKN064 BKN075 11/M04 A2990 RMK SC6AC1 SLP130,CYMX,2020-05-05T22:00:00Z,45.67,-74.02,11.0,-4.0,10,5,,45.0,29.899607,1013.0,,,,,,,,,,BKN,6400,BKN,7500,,,,,VFR,,,,,,,,,,,,METAR,82.0
CYJT 052200Z 04011G17KT 010V080 15SM FEW018 OVC032 03/M01 A2931 RMK SC2SC6 SLP929,CYJT,2020-05-05T22:00:00Z,48.55,-58.57,3.0,-1.0,40,11,17,15.0,29.309055,992.9,,,,,,,,,,FEW,1800,OVC,3200,,,,,VFR,,,,,,,,,,,,METAR,26.0
CYGL 052200Z 24005KT 180V260 15SM OVC085 01/M11 A3002 RMK AS8 SLP182,CYGL,2020-05-05T22:00:00Z,53.62,-77.7,1.0,-11.0,240,5,,15.0,30.02067,1018.2,,,,,,,,,,OVC,8500,,,,,,,VFR,,,,,,,,,,,,METAR,195.0
CYQX 052200Z 06011KT 1 1/2SM -RA BR OVC002 01/01 A2929 RMK FG4SF4 SLP926,CYQX,2020-05-05T22:00:00Z,48.95,-54.58,1.0,1.0,60,11,,1.5,29.291338,992.6,,,,,,,,,-RA BR,OVC,200,,,,,,,LIFR,,,,,,,,,,,,METAR,151.0
CYQQ 052200Z 13005KT 20SM FEW030 BKN250 16/06 A3010 RMK SC1CI6 SLP193,CYQQ,2020-05-05T22:00:00Z,49.72,-124.9,16.0,6.0,130,5,,20.0,30.100393,1019.3,,,,,,,,,,FEW,3000,BKN,25000,,,,,VFR,,,,,,,,,,,,METAR,24.0
CYQG 052200Z AUTO 03014G21KT 9SM OVC130 09/M01 A2994 RMK SLP143,CYQG,2020-05-05T22:00:00Z,42.27,-82.97,9.0,-1.0,30,14,21,9.0,29.940945,1014.3,,TRUE,,,,,,,,OVC,13000,,,,,,,VFR,,,,,,,,,,,,METAR,190.0
CYQB 052200Z 06011KT 30SM SCT040 BKN060 BKN085 07/02 A2989 RMK SC3SC3AC1 SLP125,CYQB,2020-05-05T22:00:00Z,46.78,-71.37,7.0,2.0,60,11,,30.0,29.890747,1012.5,,,,,,,,,,SCT,4000,BKN,6000,BKN,8500,,,VFR,,,,,,,,,,,,METAR,73.0
CYQY 052200Z 34011KT 15SM SCT006 BKN028 BKN040 02/01 A2932 RMK ST4SC2SC1 SLP932,CYQY,2020-05-05T22:00:00Z,46.17,-60.03,2.0,1.0,340,11,,15.0,29.320866,993.2,,,,,,,,,,SCT,600,BKN,2800,BKN,4000,,,MVFR,,,,,,,,,,,,METAR,62.0
CYTR 052200Z 19010KT 15SM BKN220 07/M02 A2996 RMK CI7 SLP150,CYTR,2020-05-05T22:00:00Z,44.12,-77.52,7.0,-2.0,190,10,,15.0,29.958662,1015.0,,,,,,,,,,BKN,22000,,,,,,,VFR,,,,,,,,,,,,METAR,86.0
CYUL 052200Z VRB06KT 30SM BKN060 BKN075 11/M03 A2991 RMK SC5AC2 SLP130,CYUL,2020-05-05T22:00:00Z,45.47,-73.73,11.0,-3.0,0,6,,30.0,29.911417,1013.0,,,,,,,,,,BKN,6000,BKN,7500,,,,,VFR,,,,,,,,,,,,METAR,36.0
CYVR 052200Z 29014KT 20SM FEW036 FEW070 SCT260 15/10 A3007 RMK CU1AC1CI3 CU TR SLP185,CYVR,2020-05-05T22:00:00Z,49.17,-123.17,15.0,10.0,290,14,,20.0,30.070866,1018.5,,,,,,,,,,FEW,3600,FEW,7000,SCT,26000,,,VFR,,,,,,,,,,,,METAR,2.0
CYWG 052200Z 36007KT 15SM SCT060 BKN250 15/M01 A3013 RMK CU3CS3 SLP212,CYWG,2020-05-05T22:00:00Z,49.9,-97.23,15.0,-1.0,360,7,,15.0,30.129921,1021.2,,,,,,,,,,SCT,6000,BKN,25000,,,,,VFR,,,,,,,,,,,,METAR,239.0
CYXX 052200Z 04004KT 340V060 30SM SCT060 BKN230 20/07 A3006 RMK CU3CI3 SLP179 DENSITY ALT 700FT,CYXX,2020-05-05T22:00:00Z,49.03,-122.38,20.0,7.0,40,4,,30.0,30.059055,1017.9,,,,,,,,,,SCT,6000,BKN,23000,,,,,VFR,,,,,,,,,,,,METAR,58.0
DAUI 052200Z 23010KT 6000 NSC 38/// Q1011,DAUI,2020-05-05T22:00:00Z,27.25,2.52,,,230,10,,3.73,29.852362,,,,,,,,,,,CLR,,,,,,,,MVFR,,,,,,,,,,,,METAR,269.0
DAUU 052200Z 11010KT CAVOK 31/M02 Q1014,DAUU,2020-05-05T22:00:00Z,31.92,5.4,31.0,-2.0,110,10,,6.21,29.940945,,,,,,,,,,,CAVOK,,,,,,,,VFR,,,,,,,,,,,,METAR,141.0
DAUL 052200Z 17012KT CAVOK 28/M02 Q1019,DAUL,2020-05-05T22:00:00Z,33.77,2.92,28.0,-2.0,170,12,,6.21,30.088583,,,,,,,,,,,CAVOK,,,,,,,,VFR,,,,,,,,,,,,METAR,765.0
DAUT 052200Z 24004KT 8000 NSC 33/M03 Q1011,DAUT,2020-05-05T22:00:00Z,29.25,0.27,33.0,-3.0,240,4,,4.97,29.852362,,,,,,,,,,,CLR,,,,,,,,MVFR,,,,,,,,,,,,METAR,312.0
DAUO 052200Z 15002KT CAVOK 30/08 Q1014,DAUO,2020-05-05T22:00:00Z,33.5,6.78,30.0,8.0,150,2,,6.21,29.940945,,,,,,,,,,,CAVOK,,,,,,,,VFR,,,,,,,,,,,,METAR,63.0
DAUK 052200Z 12005KT CAVOK 29/03 Q1015,DAUK,2020-05-05T22:00:00Z,33.08,6.12,29.0,3.0,120,5,,6.21,29.970472,,,,,,,,,,,CAVOK,,,,,,,,VFR,,,,,,,,,,,,METAR,85.0
DAUE 052200Z 09007KT CAVOK 32/// Q1015,DAUE,2020-05-05T22:00:00Z,30.57,2.87,,,90,7,,6.21,29.970472,,,,,,,,,,,CAVOK,,,,,,,,VFR,,,,,,,,,,,,METAR,397.0
OTHH 052200Z AUTO VRB01KT CAVOK 25/18 Q1007 NOSIG,OTHH,2020-05-05T22:00:00Z,25.25,51.6,25.0,18.0,0,1,,6.21,29.734253,,,TRUE,,,TRUE,,,,,CAVOK,,,,,,,,VFR,,,,,,,,,,,,METAR,0.0
CYYC 052200Z 12009G15KT 070V170 40SM FEW066 SCT280 15/M02 A3018 RMK CU1CI4 CU TR SLP245 DENSITY ALT 4200FT,CYYC,2020-05-05T22:00:00Z,51.12,-114.02,15.0,-2.0,120,9,15,40.0,30.180119,1024.5,,,,,,,,,,FEW,6600,SCT,28000,,,,,VFR,,,,,,,,,,,,METAR,1084.0
CYYJ 052200Z 01008KT 350V080 20SM FEW040 BKN240 18/09 A3006 RMK SC1CI7 SC TR SLP182 DENSITY ALT 300FT,CYYJ,2020-05-05T22:00:00Z,48.63,-123.42,18.0,9.0,10,8,,20.0,30.059055,1018.2,,,,,,,,,,FEW,4000,BKN,24000,,,,,VFR,,,,,,,,,,,,METAR,19.0
ZBSJ 052200Z 07001MPS 0900 R15/0200D FG NSC 11/11 Q1012 BECMG TL2330 1600 BR,ZBSJ,2020-05-05T22:00:00Z,38.28,114.7,11.0,11.0,70,2,,0.56,29.88189,,,,,,,,,,FG,CLR,,,,,,,,LIFR,,,,,,,,,,,,METAR,71.0
CYLJ 052200Z 04006KT 360V140 15SM FEW073 18/01 A3019 RMK CU1 SLP242 DENSITY ALT 2100FT,CYLJ,2020-05-05T22:00:00Z,54.12,-108.52,18.0,1.0,40,6,,15.0,30.188976,1024.2,,,,,,,,,,FEW,7300,,,,,,,VFR,,,,,,,,,,,,METAR,480.0
CYIO 052200Z VRB05KT 40SM FEW036 FEW230 SCT280 M14/M17 A3017 RMK SC1CC1CC1 SLP228,CYIO,2020-05-05T22:00:00Z,72.67,-77.97,-14.0,-17.0,0,5,,40.0,30.171259,1022.8,,,,,,,,,,FEW,3600,FEW,23000,SCT,28000,,,VFR,,,,,,,,,,,,METAR,57.0
CYEK 052200Z 34027G35KT 15SM FEW016 M08/M11 A3028 RMK SC1 AFT 21UTC/LAST STFD OBS/NXT 061200Z SLP256,CYEK,2020-05-05T22:00:00Z,61.1,-94.07,-8.0,-11.0,340,27,35,15.0,30.280512,1025.6,,,,,,,,,,FEW,1600,,,,,,,VFR,,,,,,,,,,,,METAR,10.0
CYED 052200Z AUTO 18013KT 9SM FEW067 17/03 A3019 RMK SLP237,CYED,2020-05-05T22:00:00Z,53.67,-113.47,17.0,3.0,180,13,,9.0,30.188976,1023.7,,TRUE,,,,,,,,FEW,6700,,,,,,,VFR,,,,,,,,,,,,METAR,688.0
CYCY 052200Z 33007KT 25SM FEW210 M11/M13 A3015 RMK CS1 SLP214,CYCY,2020-05-05T22:00:00Z,70.47,-68.52,-11.0,-13.0,330,7,,25.0,30.15059,1021.4,,,,,,,,,,FEW,21000,,,,,,,VFR,,,,,,,,,,,,METAR,26.0
CYBW 052200Z AUTO 14011G18KT 9SM FEW230 15/M03 A3017 RMK SLP246 DENSITY ALT 4500FT,CYBW,2020-05-05T22:00:00Z,51.1,-114.37,15.0,-3.0,140,11,18,9.0,30.171259,1024.6,,TRUE,,,,,,,,FEW,23000,,,,,,,VFR,,,,,,,,,,,,METAR,1200.0
CYZX 052200Z 35011G22KT 15SM -SHRASN FEW010 BKN023 OVC037 03/00 A2967 RMK SC2SC3SC2 SLP049,CYZX,2020-05-05T22:00:00Z,44.98,-64.92,3.0,0.0,350,11,22,15.0,29.66929,1004.9,,,,,,,,,-SHRA -SHSN,FEW,1000,BKN,2300,OVC,3700,,,MVFR,,,,,,,,,,,,METAR,28.0
CYZV 052200Z 01012G19KT 320V030 30SM FEW060 SCT110 BKN180 10/M06 A2975 RMK SC1AC3AS4 SC TR SLP078,CYZV,2020-05-05T22:00:00Z,50.22,-66.27,10.0,-6.0,10,12,19,30.0,29.749016,1007.8,,,,,,,,,,FEW,6000,SCT,11000,BKN,18000,,,VFR,,,,,,,,,,,,METAR,55.0
CYZF 052200Z 17007KT 120V190 15SM FEW120 FEW240 07/M05 A3035 RMK AC1CI1 AC TR CI TR SLP293,CYZF,2020-05-05T22:00:00Z,62.47,-114.45,7.0,-5.0,170,7,,15.0,30.351377,1029.3,,,,,,,,,,FEW,12000,FEW,24000,,,,,VFR,,,,,,,,,,,,METAR,206.0
CYYZ 052200Z 15007KT 120V190 15SM BKN210 08/M04 A2995 RMK CS6 SLP149,CYYZ,2020-05-05T22:00:00Z,43.67,-79.62,8.0,-4.0,150,7,,15.0,29.949802,1014.9,,,,,,,,,,BKN,21000,,,,,,,VFR,,,,,,,,,,,,METAR,173.0
CYOD 052200Z 35002KT 15SM SCT075 18/M00 A3020 RMK CU4 SLP240,CYOD,2020-05-05T22:00:00Z,54.4,-110.28,18.0,0.0,350,2,,15.0,30.200787,1024.0,,,,,,,,,,SCT,7500,,,,,,,VFR,,,,,,,,,,,,METAR,544.0
CYPE 052200Z 17013KT 120V180 15SM SCT060 BKN140 BKN250 19/02 A3007 RMK CU3AC2CI1 SLP197 DENSITY ALT 2600FT,CYPE,2020-05-05T22:00:00Z,56.22,-117.45,19.0,2.0,170,13,,15.0,30.070866,1019.7,,,,,,,,,,SCT,6000,BKN,14000,BKN,25000,,,VFR,,,,,,,,,,,,METAR,571.0
CYQV 052200Z AUTO 05006KT 280V070 9SM FEW120 17/M03 A3018 RMK SLP236 DENSITY ALT 2000FT,CYQV,2020-05-05T22:00:00Z,51.27,-102.47,17.0,-3.0,50,6,,9.0,30.180119,1023.6,,TRUE,,,,,,,,FEW,12000,,,,,,,VFR,,,,,,,,,,,,METAR,498.0
CYSM 052200Z 10006G15KT 060V160 15SM FEW260 12/M09 A3031 RMK CI1 CI TR SLP276,CYSM,2020-05-05T22:00:00Z,60.03,-111.97,12.0,-9.0,100,6,15,15.0,30.31004,1027.6,,,,,,,,,,FEW,26000,,,,,,,VFR,,,,,,,,,,,,METAR,203.0
CYSF 052200Z AUTO 12004KT 020V160 9SM CLR 03/M07 A3041 RMK SLP319,CYSF,2020-05-05T22:00:00Z,59.25,-105.82,3.0,-7.0,120,4,,9.0,30.410433,1031.9,,TRUE,,,,,,,,CLR,,,,,,,,VFR,,,,,,,,,,,,METAR,250.0
CYTH 052200Z 36008KT 320V050 15SM SKC 03/M06 A3031 RMK SLP279,CYTH,2020-05-05T22:00:00Z,55.78,-97.87,3.0,-6.0,360,8,,15.0,30.31004,1027.9,,,,,,,,,,SKC,,,,,,,,VFR,,,,,,,,,,,,METAR,218.0
CYUB 052200Z 16007KT 15SM OVC054 M01/M04 A3003 RMK SC8 SLP172,CYUB,2020-05-05T22:00:00Z,69.45,-133.02,-1.0,-4.0,160,7,,15.0,30.029528,1017.2,,,,,,,,,,OVC,5400,,,,,,,VFR,,,,,,,,,,,,METAR,5.0
CYUS 052200Z AUTO 05022KT ////SM //// OVC018 M12/M15 A3029,CYUS,2020-05-05T22:00:00Z,68.82,-93.42,-12.0,-15.0,50,22,,,30.28937,,,TRUE,,,,,,,,OVC,1800,,,,,,,,,,,,,,,,,,,METAR,42.0
CYVT 052200Z AUTO 02006KT 9SM CLR 13/M01 A3025 RMK SLP265,CYVT,2020-05-05T22:00:00Z,55.82,-108.42,13.0,-1.0,20,6,,9.0,30.250984,1026.5,,TRUE,,,,,,,,CLR,,,,,,,,VFR,,,,,,,,,,,,METAR,434.0
CYXH 052200Z 14006KT 070V240 30SM FEW040 FEW260 16/01 A3024 RMK SC1CI1 SLP253 DENSITY ALT 2600FT,CYXH,2020-05-05T22:00:00Z,50.02,-110.72,16.0,1.0,140,6,,30.0,30.239174,1025.3,,,,,,,,,,FEW,4000,FEW,26000,,,,,VFR,,,,,,,,,,,,METAR,716.0
CYZU 052200Z 13013KT 15SM FEW062 SCT210 16/00 A3015 RMK CU1CI3 SLP230 DENSITY ALT 3000FT,CYZU,2020-05-05T22:00:00Z,54.15,-115.78,16.0,0.0,130,13,,15.0,30.15059,1023.0,,,,,,,,,,FEW,6200,SCT,21000,,,,,VFR,,,,,,,,,,,,METAR,785.0
SARL 052200Z 23013KT CAVOK 18/13 Q1015,SARL,2020-05-05T22:00:00Z,-29.67,-57.13,18.0,13.0,230,13,,6.21,29.970472,,,,,,,,,,,CAVOK,,,,,,,,VFR,,,,,,,,,,,,METAR,70.0
ORBI 052200Z 14015KT 9999 BKN030 29/10 Q0999 NOSIG,ORBI,2020-05-05T22:00:00Z,33.27,44.23,29.0,10.0,140,15,,6.21,29.498032,,,,,,TRUE,,,,,BKN,3000,,,,,,,MVFR,,,,,,,,,,,,METAR,35.0
CYCO 052200Z 09011KT 15SM SCT130 BKN150 OVC220 M06/M09 A3042 RMK AS4AC2CI2 SLP306,CYCO,2020-05-05T22:00:00Z,67.82,-115.15,-6.0,-9.0,90,11,,15.0,30.41929,1030.6,,,,,,,,,,SCT,13000,BKN,15000,OVC,22000,,,VFR,,,,,,,,,,,,METAR,22.0
SULS 052200Z 22027G37KT 9999 OVC010 13/10 Q1009 RERA,SULS,2020-05-05T22:00:00Z,-34.87,-55.1,13.0,10.0,220,27,37,6.21,29.793306,,,,,,,,,,,OVC,1000,,,,,,,MVFR,,,,,,,,,,,,METAR,30.0
CYCS 052200Z 34027G32KT 6SM BLSN FEW140 M09/M12 A3012 RMK AC1 S00 AFT 12 UTC/61 MUCH LOOSE/LAST STFD OBS/NXT 061200 UTC SLP201,CYCS,2020-05-05T22:00:00Z,63.35,-90.72,-9.0,-12.0,340,27,32,6.0,30.121063,1020.1,,,,,,,,,BLSN,FEW,14000,,,,,,,VFR,,,,,,,,,,,,METAR,11.0
CYFS 052200Z 14005KT 040V200 15SM BKN068 BKN250 11/M00 A3017 RMK AC7CI1 CI TR SLP226,CYFS,2020-05-05T22:00:00Z,61.75,-121.22,11.0,0.0,140,5,,15.0,30.171259,1022.6,,,,,,,,,,BKN,6800,BKN,25000,,,,,VFR,,,,,,,,,,,,METAR,169.0
CYHI 052200Z 11019KT 15SM DRSN BKN220 M06/M11 A3042 RMK CS5 SLP307,CYHI,2020-05-05T22:00:00Z,70.77,-117.78,-6.0,-11.0,110,19,,15.0,30.41929,1030.7,,,,,,,,,DRSN,BKN,22000,,,,,,,VFR,,,,,,,,,,,,METAR,36.0
CYGH 052200Z 11005KT 100V170 25SM FEW076 08/M02 A3004 RMK AC2 SLP182,CYGH,2020-05-05T22:00:00Z,66.27,-128.62,8.0,-2.0,110,5,,25.0,30.041338,1018.2,,,,,,,,,,FEW,7600,,,,,,,VFR,,,,,,,,,,,,METAR,66.0
CYHY 052200Z 08013KT 15SM FEW130 SCT240 08/M00 A3024 RMK AC1CI3 SLP252,CYHY,2020-05-05T22:00:00Z,60.82,-115.77,8.0,0.0,80,13,,15.0,30.239174,1025.2,,,,,,,,,,FEW,13000,SCT,24000,,,,,VFR,,,,,,,,,,,,METAR,166.0
CYHK 052200Z 35023KT 1SM BLSN SKC M13/M14 A3035 RMK BLSN1 SLP285,CYHK,2020-05-05T22:00:00Z,68.62,-95.83,-13.0,-14.0,350,23,,1.0,30.351377,1028.5,,,,,,,,,BLSN,SKC,,,,,,,,IFR,,,,,,,,,,,,METAR,46.0
CYKD 052200Z 17003KT 160V220 1 1/2SM -SN OVC005 01/M01 A3002 RMK NS8 SLP166,CYKD,2020-05-05T22:00:00Z,68.22,-135.0,1.0,-1.0,170,3,,1.5,30.02067,1016.6,,,,,,,,,-SN,OVC,500,,,,,,,IFR,,,,,,,,,,,,METAR,7.0
CYRA 052200Z 16007KT 15SM FEW120 06/M08 A3029 RMK AC2 SLP275,CYRA,2020-05-05T22:00:00Z,64.12,-117.32,6.0,-8.0,160,7,,15.0,30.28937,1027.5,,,,,,,,,,FEW,12000,,,,,,,VFR,,,,,,,,,,,,METAR,213.0
CYLK 052200Z 06010KT 25SM SKC 02/M08 A3042 RMK SLP318,CYLK,2020-05-05T22:00:00Z,62.42,-110.67,2.0,-8.0,60,10,,25.0,30.41929,1031.8,,,,,,,,,,SKC,,,,,,,,VFR,,,,,,,,,,,,METAR,179.0
CYSY 052200Z 15016KT 15SM FEW015 FEW250 M07/M10 A3024 RMK SC1CC2 SC TR SLP252,CYSY,2020-05-05T22:00:00Z,72.0,-125.27,-7.0,-10.0,150,16,,15.0,30.239174,1025.2,,,,,,,,,,FEW,1500,FEW,25000,,,,,VFR,,,,,,,,,,,,METAR,86.0
CYTE 052200Z AUTO 13012KT 9SM -SN BKN010 BKN031 M03/M05 A2995 RMK SLP148,CYTE,2020-05-05T22:00:00Z,64.22,-76.52,-3.0,-5.0,130,12,,9.0,29.949802,1014.8,,TRUE,,,,,,,-SN,BKN,1000,BKN,3100,,,,,MVFR,,,,,,,,,,,,METAR,47.0
CYUT 052200Z 35020G30KT 1/2SM BLSN BKN230 M11/M14 A3008 RMK CI6 LAST STFD OB/NXT 061200Z SLP190,CYUT,2020-05-05T22:00:00Z,66.52,-86.25,-11.0,-14.0,350,20,30,0.5,30.079725,1019.0,,,,,,,,,BLSN,BKN,23000,,,,,,,LIFR,,,,,,,,,,,,METAR,24.0
CYWE 052200Z AUTO 13010KT 9SM CLR 00/M08 A3036 RMK SLP317,CYWE,2020-05-05T22:00:00Z,64.18,-114.08,0.0,-8.0,130,10,,9.0,30.360237,1031.7,,TRUE,,,,,,,,CLR,,,,,,,,VFR,,,,,,,,,,,,METAR,371.0
CYWJ 052200Z 13008KT 60SM BKN180 08/M03 A3010 RMK AS5 SLP208,CYWJ,2020-05-05T22:00:00Z,65.22,-123.43,8.0,-3.0,130,8,,60.0,30.100393,1020.8,,,,,,,,,,BKN,18000,,,,,,,VFR,,,,,,,,,,,,METAR,176.0
CYWY 052200Z 17007KT 15SM FEW025 BKN050 BKN090 05/02 A3015 RMK CF1SC4AC2 LAST STFD OBS/ NXT 061400Z SLP220,CYWY,2020-05-05T22:00:00Z,63.22,-123.42,5.0,2.0,170,7,,15.0,30.15059,1022.0,,,,,,,,,,FEW,2500,BKN,5000,BKN,9000,,,VFR,,,,,,,,,,,,METAR,150.0
CYXP 052200Z 25005KT 15SM SKC M10/M14 A3008 RMK STR AFT11UTC/43/LAST STFD OBS/NEXT 061100Z SLP189,CYXP,2020-05-05T22:00:00Z,66.15,-65.72,-10.0,-14.0,250,5,,15.0,30.079725,1018.9,,,,,,,,,,SKC,,,,,,,,VFR,,,,,,,,,,,,METAR,23.0
CYXN 052200Z 33027G33KT 1/2SM BLSN FEW006 M10/M12 A3021 RMK BLSN1SF1 LAST STFD OBS/NXT 061200Z SLP232,CYXN,2020-05-05T22:00:00Z,62.22,-92.58,-10.0,-12.0,330,27,33,0.5,30.209646,1023.2,,,,,,,,,BLSN,FEW,600,,,,,,,LIFR,,,,,,,,,,,,METAR,20.0
SAWG 052200Z 27005KT CAVOK 05/01 Q1021,SAWG,2020-05-05T22:00:00Z,-51.62,-69.32,5.0,1.0,270,5,,6.21,30.147638,,,,,,,,,,,CAVOK,,,,,,,,VFR,,,,,,,,,,,,METAR,19.0
CYZS 052200Z 08014KT 1SM -SN FEW006 SCT015 OVC030 M05/M06 A2983 RMK SC1SC4SC4 SC TR SLP108,CYZS,2020-05-05T22:00:00Z,64.2,-83.37,-5.0,-6.0,80,14,,1.0,29.828741,1010.8,,,,,,,,,-SN,FEW,600,SCT,1500,OVC,3000,,,IFR,,,,,,,,,,,,METAR,64.0
CBBC 052200Z AUTO 09004KT 030V180 9SM CLR 15/02 A3006 RMK SLP180,CBBC,2020-05-05T22:00:00Z,52.18,-128.15,15.0,2.0,90,4,,9.0,30.059055,1018.0,,TRUE,,,,,,,,CLR,,,,,,,,VFR,,,,,,,,,,,,METAR,43.0
CYCD 052200Z 18006KT 120V210 30SM FEW038 BKN260 18/08 A3008 RMK CU2CI3 SLP188 DENSITY ALT 300FT,CYCD,2020-05-05T22:00:00Z,49.05,-123.87,18.0,8.0,180,6,,30.0,30.079725,1018.8,,,,,,,,,,FEW,3800,BKN,26000,,,,,VFR,,,,,,,,,,,,METAR,30.0
CYBD 052200Z 31004KT 250V340 15SM FEW100 BKN240 17/01 A3006 RMK AC1CI6 AC TR SLP182 DENSITY ALT 300FT,CYBD,2020-05-05T22:00:00Z,52.37,-126.57,17.0,1.0,310,4,,15.0,30.059055,1018.2,,,,,,,,,,FEW,10000,BKN,24000,,,,,VFR,,,,,,,,,,,,METAR,35.0
CYCG 052200Z 35007KT 310V010 15SM SCT090 SCT110 BKN220 19/02 A3014 RMK AC3AC1CS3 SLP214 DENSITY ALT 2300FT,CYCG,2020-05-05T22:00:00Z,49.28,-117.62,19.0,2.0,350,7,,15.0,30.138779,1021.4,,,,,,,,,,SCT,9000,SCT,11000,BKN,22000,,,VFR,,,,,,,,,,,,METAR,495.0
CYDL 052200Z AUTO 22011KT 9SM -RA FEW024 OVC038 04/03 A3005 RMK SLP202,CYDL,2020-05-05T22:00:00Z,58.42,-130.02,4.0,3.0,220,11,,9.0,30.050198,1020.2,,TRUE,,,,,,,-RA,FEW,2400,OVC,3800,,,,,VFR,,,,,,,,,,,,METAR,816.0
CYDA 052200Z VRB02KT 20SM FEW050TCU BKN055CB 15/M04 A2997 RMK TCU3CB2 LST STFD OBS/NXT 061300Z SLP167 DENSITY ALT 1500FT,CYDA,2020-05-05T22:00:00Z,64.03,-139.12,15.0,-4.0,0,2,,20.0,29.970472,1016.7,,,,,,,,,,FEW,5000,BKN,5500,,,,,VFR,,,,,,,,,,,,METAR,369.0
CYGE 052200Z 27003KT 20SM FEW070 FEW097 SCT170 BKN230 18/M04 A3017 RMK CU2AC1AC1CI3 AC TR SLP231 DENSITY ALT 3300FT,CYGE,2020-05-05T22:00:00Z,51.3,-116.98,18.0,-4.0,270,3,,20.0,30.171259,1023.1,,,,,,,,,,FEW,7000,FEW,9700,SCT,17000,BKN,23000,VFR,,,,,,,,,,,,METAR,785.0
CYKA 052200Z 10009KT 40SM SCT090 BKN250 22/M01 A3008 RMK CU3CI2 SLP190 DENSITY ALT 2100FT,CYKA,2020-05-05T22:00:00Z,50.7,-120.45,22.0,-1.0,100,9,,40.0,30.079725,1019.0,,,,,,,,,,SCT,9000,BKN,25000,,,,,VFR,,,,,,,,,,,,METAR,346.0
CYLW 052200Z AUTO 35015KT 310V010 9SM CLR 20/03 A3010 RMK SLP197 DENSITY ALT 2100FT,CYLW,2020-05-05T22:00:00Z,49.95,-119.37,20.0,3.0,350,15,,9.0,30.100393,1019.7,,TRUE,,,,,,,,CLR,,,,,,,,VFR,,,,,,,,,,,,METAR,430.0
CYIN 052200Z AUTO 12009KT 090V200 9SM CLR 16/M07 A3010 RMK SLP201 DENSITY ALT 4400FT,CYIN,2020-05-05T22:00:00Z,51.27,-121.68,16.0,-7.0,120,9,,9.0,30.100393,1020.1,,TRUE,,,,,,,,CLR,,,,,,,,VFR,,,,,,,,,,,,METAR,1128.0
CYMA 052200Z 10007KT 070V150 20SM BKN055TCU 13/M03 A2997 RMK TCU6 SLP171 DENSITY ALT 1800FT,CYMA,2020-05-05T22:00:00Z,63.62,-135.87,13.0,-3.0,100,7,,20.0,29.970472,1017.1,,,,,,,,,,BKN,5500,,,,,,,VFR,,,,,,,,,,,,METAR,504.0
CYOC 052200Z 27008G16KT 35SM FEW030 FEW050 SCT140 BKN200 BKN220 08/M07 A2997 RMK CF1SC1AC2CS3CI1 CF TR HALO LAST STFD OBS/NEXT 061300Z SLP166,CYOC,2020-05-05T22:00:00Z,67.57,-139.82,8.0,-7.0,270,8,16,35.0,29.970472,1016.6,,,,,,,,,,FEW,3000,FEW,5000,SCT,14000,BKN,20000,VFR,,,,,,,,,,,,METAR,251.0
CYPW 052200Z 27008KT 250V310 30SM FEW030 BKN250 14/07 A3010 RMK CU1CI6 CU TR SLP198,CYPW,2020-05-05T22:00:00Z,49.82,-124.5,14.0,7.0,270,8,,30.0,30.100393,1019.8,,,,,,,,,,FEW,3000,BKN,25000,,,,,VFR,,,,,,,,,,,,METAR,130.0
CYQH 052200Z 12003KT 020V190 30SM SCT040 OVC120 11/M00 A3001 RMK CU4AC4 SLP188,CYQH,2020-05-05T22:00:00Z,60.12,-128.82,11.0,0.0,120,3,,30.0,30.008858,1018.8,,,,,,,,,,SCT,4000,OVC,12000,,,,,VFR,,,,,,,,,,,,METAR,690.0
CYYF 052200Z 16008KT 15SM FEW070 BKN250 21/00 A3008 RMK CU2CI5 SLP189 DENSITY ALT 2000FT,CYYF,2020-05-05T22:00:00Z,49.47,-119.58,21.0,0.0,160,8,,15.0,30.079725,1018.9,,,,,,,,,,FEW,7000,BKN,25000,,,,,VFR,,,,,,,,,,,,METAR,344.0
CYYE 052200Z VRB02KT 30SM FEW028 SCT140 BKN230 10/03 A3011 RMK CU1AC2CI2 DIST TCU TOPS S-SW SLP215,CYYE,2020-05-05T22:00:00Z,58.82,-122.57,10.0,3.0,0,2,,30.0,30.109253,1021.5,,,,,,,,,,FEW,2800,SCT,14000,BKN,23000,,,VFR,,,,,,,,,,,,METAR,382.0
CYYD 052200Z 34003KT 25SM SCT090 BKN210 13/M01 A3010 RMK AC4CI1 SLP204,CYYD,2020-05-05T22:00:00Z,54.82,-127.18,13.0,-1.0,340,3,,25.0,30.100393,1020.4,,,,,,,,,,SCT,9000,BKN,21000,,,,,VFR,,,,,,,,,,,,METAR,523.0
CYXY 052200Z 16009KT 120V180 40SM SCT080TCU BKN220 13/M05 A2994 RMK TCU4CI3 VIRGA SLP164 DENSITY ALT 2700FT,CYXY,2020-05-05T22:00:00Z,60.72,-135.07,13.0,-5.0,160,9,,40.0,29.940945,1016.4,,,,,,,,,,SCT,8000,BKN,22000,,,,,VFR,,,,,,,,,,,,METAR,703.0
CYXT 052200Z VRB04KT 20SM SCT050TCU SCT120 BKN230 14/01 A3012 RMK TCU3AC1CI1 SLP207,CYXT,2020-05-05T22:00:00Z,54.47,-128.57,14.0,1.0,0,4,,20.0,30.121063,1020.7,,,,,,,,,,SCT,5000,SCT,12000,BKN,23000,,,VFR,,,,,,,,,,,,METAR,217.0
CYWL 052200Z 14005KT 080V210 15SM FEW050 BKN220 14/M07 A3010 RMK CU1CI5 SLP207 DENSITY ALT 3500FT,CYWL,2020-05-05T22:00:00Z,52.18,-122.07,14.0,-7.0,140,5,,15.0,30.100393,1020.7,,,,,,,,,,FEW,5000,BKN,22000,,,,,VFR,,,,,,,,,,,,METAR,940.0
CYZY 052200Z AUTO 13010KT 9SM FEW095 09/M01 A3015 RMK LTNG DIST NE S SLP235,CYZY,2020-05-05T22:00:00Z,55.28,-123.12,9.0,-1.0,130,10,,9.0,30.15059,1023.5,,TRUE,,,,,,,,FEW,9500,,,,,,,VFR,,,,,,,,,,,,METAR,690.0
CYZW 052200Z 18003KT 130V210 30SM FEW050 BKN150 OVC210 12/M04 A2997 RMK CU2AC3CI3 SLP179 DENSITY ALT 2500FT,CYZW,2020-05-05T22:00:00Z,60.17,-132.75,12.0,-4.0,180,3,,30.0,29.970472,1017.9,,,,,,,,,,FEW,5000,BKN,15000,OVC,21000,,,VFR,,,,,,,,,,,,METAR,705.0
CZFA 052200Z 08008KT 030V170 30SM FEW050CB SCT075 SCT100 SCT200 11/M02 A2998 RMK CB2AC1AC1CI1 CI TR VIS N 15 LAST STFD OBS/NXT 061400Z SLP180 DENSITY ALT 2400FT,CZFA,2020-05-05T22:00:00Z,62.2,-133.37,11.0,-2.0,80,8,,30.0,29.97933,1018.0,,,,,,,,,,FEW,5000,SCT,7500,SCT,10000,SCT,20000,VFR,,,,,,,,,,,,METAR,717.0
CYAM 052200Z 29011KT 25SM SCT200 BKN230 BKN260 BKN300 07/M09 A3005 RMK CS3CI2CI1CI1 SLP187,CYAM,2020-05-05T22:00:00Z,46.47,-84.52,7.0,-9.0,290,11,,25.0,30.050198,1018.7,,,,,,,,,,SCT,20000,BKN,23000,BKN,26000,BKN,30000,VFR,,,,,,,,,,,,METAR,192.0
CYGP 052200Z 28004KT 15SM OVC070 02/M01 A2970 RMK AS8 SLP059,CYGP,2020-05-05T22:00:00Z,48.77,-64.47,2.0,-1.0,280,4,,15.0,29.698818,1005.9,,,,,,,,,,OVC,7000,,,,,,,VFR,,,,,,,,,,,,METAR,33.0
CYGR 052200Z 36026G35KT 2SM -RASN BR OVC005 01/00 A2944 RMK SF8 SLP971,CYGR,2020-05-05T22:00:00Z,47.42,-61.77,1.0,0.0,360,26,35,2.0,29.438976,997.1,,,,,,,,,-RA -SN BR,OVC,500,,,,,,,IFR,,,,,,,,,,,,METAR,10.0
CYHD 052200Z AUTO 35008KT 290V040 9SM FEW085 15/M06 A3003 RMK SLP186 DENSITY ALT 1500FT,CYHD,2020-05-05T22:00:00Z,49.82,-92.75,15.0,-6.0,350,8,,9.0,30.029528,1018.6,,TRUE,,,,,,,,FEW,8500,,,,,,,VFR,,,,,,,,,,,,METAR,413.0
CYHU 052200Z AUTO 27003KT 240V340 9SM OVC065 10/M02 A2991 RMK SLP131,CYHU,2020-05-05T22:00:00Z,45.52,-73.42,10.0,-2.0,270,3,,9.0,29.911417,1013.1,,TRUE,,,,,,,,OVC,6500,,,,,,,VFR,,,,,,,,,,,,METAR,27.0
CYNA 052200Z AUTO 01014G22KT 9SM -RA OVC019 02/00 A2964 RMK SLP039,CYNA,2020-05-05T22:00:00Z,50.17,-61.82,2.0,0.0,10,14,22,9.0,29.639763,1003.9,,TRUE,,,,,,,-RA,OVC,1900,,,,,,,MVFR,,,,,,,,,,,,METAR,11.0
CYND 052200Z 33007KT 280V340 15SM FEW063 SCT220 11/M05 A2994 RMK SC1CI2 SLP142,CYND,2020-05-05T22:00:00Z,45.52,-75.57,11.0,-5.0,330,7,,15.0,29.940945,1014.2,,,,,,,,,,FEW,6300,SCT,22000,,,,,VFR,,,,,,,,,,,,METAR,64.0
CYQT 052200Z 15008KT 20SM FEW160 BKN240 12/M07 A3004 RMK AC2CI4 SLP183,CYQT,2020-05-05T22:00:00Z,48.37,-89.32,12.0,-7.0,150,8,,20.0,30.041338,1018.3,,,,,,,,,,FEW,16000,BKN,24000,,,,,VFR,,,,,,,,,,,,METAR,199.0
CYPQ 052200Z AUTO 32003KT 270V010 9SM OVC220 11/M09 A2993 RMK SLP144,CYPQ,2020-05-05T22:00:00Z,44.22,-78.37,11.0,-9.0,320,3,,9.0,29.929134,1014.4,,TRUE,,,,,,,,OVC,22000,,,,,,,VFR,,,,,,,,,,,,METAR,191.0
CYMO 052200Z AUTO 09008KT 9SM CLR 01/M05 A3004 RMK SLP174,CYMO,2020-05-05T22:00:00Z,51.28,-80.62,1.0,-5.0,90,8,,9.0,30.041338,1017.4,,TRUE,,,,,,,,CLR,,,,,,,,VFR,,,,,,,,,,,,METAR,10.0
CYRJ 052200Z 30013G18KT 40SM FEW050 BKN098 09/M02 A2987 RMK SC3AC4 SLP125,CYRJ,2020-05-05T22:00:00Z,48.52,-72.27,9.0,-2.0,300,13,18,40.0,29.870079,1012.5,,,,,,,,,,FEW,5000,BKN,9800,,,,,VFR,,,,,,,,,,,,METAR,179.0
CYRL 052200Z 35010G17KT 310V050 15SM SCT060 SCT240 14/M04 A3007 RMK CU3CI1 CI TR SLP200 DENSITY ALT 1300FT,CYRL,2020-05-05T22:00:00Z,51.07,-93.78,14.0,-4.0,350,10,17,15.0,30.070866,1020.0,,,,,,,,,,SCT,6000,SCT,24000,,,,,VFR,,,,,,,,,,,,METAR,383.0
CYVV 052200Z 03008KT 15SM BKN250 06/M09 A3000 RMK CS7 SLP170,CYVV,2020-05-05T22:00:00Z,44.75,-81.08,6.0,-9.0,30,8,,15.0,30.0,1017.0,,,,,,,,,,BKN,25000,,,,,,,VFR,,,,,,,,,,,,METAR,222.0
CYVP 052200Z 34005KT 270V360 15SM FEW030 M06/M13 A3010 RMK SC1 SC TR SLP198,CYVP,2020-05-05T22:00:00Z,58.12,-68.42,-6.0,-13.0,340,5,,15.0,30.100393,1019.8,,,,,,,,,,FEW,3000,,,,,,,VFR,,,,,,,,,,,,METAR,60.0
CYTZ 052200Z AUTO 14005KT 090V150 9SM CLR 07/M05 A2996 RMK SLP150,CYTZ,2020-05-05T22:00:00Z,43.63,-79.4,7.0,-5.0,140,5,,9.0,29.958662,1015.0,,TRUE,,,,,,,,CLR,,,,,,,,VFR,,,,,,,,,,,,METAR,77.0
CYTS 052200Z 30006KT 270V010 15SM FEW240 09/M11 A3001 RMK CI1 SLP180,CYTS,2020-05-05T22:00:00Z,48.57,-81.37,9.0,-11.0,300,6,,15.0,30.008858,1018.0,,,,,,,,,,FEW,24000,,,,,,,VFR,,,,,,,,,,,,METAR,295.0
CYTL 052200Z AUTO 36008KT 320V020 9SM SCT034 01/M06 A3016 RMK SLP231,CYTL,2020-05-05T22:00:00Z,53.82,-89.88,1.0,-6.0,360,8,,9.0,30.159449,1023.1,,TRUE,,,,,,,,SCT,3400,,,,,,,VFR,,,,,,,,,,,,METAR,224.0
CYXR 052200Z AUTO 36009KT 9SM CLR 09/M14 A3001 RMK SLP177,CYXR,2020-05-05T22:00:00Z,47.7,-79.83,9.0,-14.0,360,9,,9.0,30.008858,1017.7,,TRUE,,,,,,,,CLR,,,,,,,,VFR,,,,,,,,,,,,METAR,243.0
CYWA 052200Z AUTO 34010KT 290V360 9SM FEW094 11/M10 A2996 RMK SLP152,CYWA,2020-05-05T22:00:00Z,45.95,-77.32,11.0,-10.0,340,10,,9.0,29.958662,1015.2,,TRUE,,,,,,,,FEW,9400,,,,,,,VFR,,,,,,,,,,,,METAR,130.0
CYYY 052200Z 26012KT 30SM BKN070 BKN220 04/01 A2981 RMK AC5CI8 SLP099,CYYY,2020-05-05T22:00:00Z,48.6,-68.22,4.0,1.0,260,12,,30.0,29.811024,1009.9,,,,,,,,,,BKN,7000,BKN,22000,,,,,VFR,,,,,,,,,,,,METAR,52.0
CYZE 052200Z AUTO 27004KT 9SM CLR 09/M07 A3001 RMK SLP171,CYZE,2020-05-05T22:00:00Z,45.87,-82.57,9.0,-7.0,270,4,,9.0,30.008858,1017.1,,TRUE,,,,,,,,CLR,,,,,,,,VFR,,,,,,,,,,,,METAR,193.0
CYAZ 052200Z 16008KT 15SM FEW220 13/09 A3006 RMK CC2 SLP179,CYAZ,2020-05-05T22:00:00Z,49.08,-125.77,13.0,9.0,160,8,,15.0,30.059055,1017.9,,,,,,,,,,FEW,22000,,,,,,,VFR,,,,,,,,,,,,METAR,24.0
CYZR 052200Z AUTO 02018G24KT 9SM OVC180 04/M01 A2997 RMK SLP158,CYZR,2020-05-05T22:00:00Z,43.0,-82.3,4.0,-1.0,20,18,24,9.0,29.970472,1015.8,,TRUE,,,,,,,,OVC,18000,,,,,,,VFR,,,,,,,,,,,,METAR,181.0
CYBL 052200Z 08007KT 30SM FEW050 FEW150 BKN260 15/05 A3010 RMK CU1AC1CI5 SLP196,CYBL,2020-05-05T22:00:00Z,49.95,-125.27,15.0,5.0,80,7,,30.0,30.100393,1019.6,,,,,,,,,,FEW,5000,FEW,15000,BKN,26000,,,VFR,,,,,,,,,,,,METAR,106.0
CYCP 052200Z 09005KT 030V190 15SM BKN080TCU 17/M01 A3015 RMK TCU5 SLP226 DENSITY ALT 2800FT,CYCP,2020-05-05T22:00:00Z,52.13,-119.28,17.0,-1.0,90,5,,15.0,30.15059,1022.6,,,,,,,,,,BKN,8000,,,,,,,VFR,,,,,,,,,,,,METAR,683.0
CYCQ 052200Z 17009G15KT 150V220 35SM FEW055 FEW065 SCT100 BKN150 OVC180 13/M02 A3010 RMK CU1SC2AS2AC3CI1 CU TR VIRGA N-SE+ NW SLP214 DENSITY ALT 2100FT,CYCQ,2020-05-05T22:00:00Z,55.7,-121.62,13.0,-2.0,170,9,15,35.0,30.100393,1021.4,,,,,,,,,,FEW,5500,FEW,6500,SCT,10000,BKN,15000,VFR,,,,,,,,,,,,METAR,609.0
SBRP 052200Z 25001KT CAVOK 26/14 Q1015,SBRP,2020-05-05T22:00:00Z,-21.12,-47.77,26.0,14.0,250,1,,6.21,29.970472,,,,,,,,,,,CAVOK,,,,,,,,VFR,,,,,,,,,,,,METAR,549.0
SAEZ 052200Z 22008KT CAVOK 13/07 Q1017 NOSIG,SAEZ,2020-05-05T22:00:00Z,-34.82,-58.52,13.0,7.0,220,8,,6.21,30.029528,,,,,,TRUE,,,,,CAVOK,,,,,,,,VFR,,,,,,,,,,,,METAR,20.0
CYDC 052200Z 06007KT 040V110 25SM SCT077 BKN088 OVC110 19/M02 A3007 RMK AC4AC1AS3 SLP184 DENSITY ALT 3200FT,CYDC,2020-05-05T22:00:00Z,49.47,-120.52,19.0,-2.0,60,7,,25.0,30.070866,1018.4,,,,,,,,,,SCT,7700,BKN,8800,OVC,11000,,,VFR,,,,,,,,,,,,METAR,700.0
MYNN 052200Z 15007KT 100V180 9999 FEW040 27/19 A2996,MYNN,2020-05-05T22:00:00Z,25.03,-77.47,27.0,19.0,150,7,,6.21,29.958662,,,,,,,,,,,FEW,4000,,,,,,,VFR,,,,,,,,,,,,METAR,3.0
CYDB 052200Z 11010KT 30SM FEW060 10/M09 A2995 RMK CU2 LAST STFD OBS/NXT 061400Z SLP179 DENSITY ALT 2700FT,CYDB,2020-05-05T22:00:00Z,61.37,-139.05,10.0,-9.0,110,10,,30.0,29.949802,1017.9,,,,,,,,,,FEW,6000,,,,,,,VFR,,,,,,,,,,,,METAR,801.0
RKSS 052200Z 30002KT CAVOK 12/11 Q1015 NOSIG,RKSS,2020-05-05T22:00:00Z,37.53,126.78,12.0,11.0,300,2,,6.21,29.970472,,,,,,TRUE,,,,,CAVOK,,,,,,,,VFR,,,,,,,,,,,,METAR,19.0
CYFO 052200Z 03005KT 15SM FEW100 09/M09 A3026 RMK AC1 AC TR SLP263,CYFO,2020-05-05T22:00:00Z,54.67,-101.67,9.0,-9.0,30,5,,15.0,30.259842,1026.3,,,,,,,,,,FEW,10000,,,,,,,VFR,,,,,,,,,,,,METAR,304.0
CYHE 052200Z AUTO 26008KT 9SM CLR 21/09 A3004 RMK SLP176 DENSITY ALT 700FT,CYHE,2020-05-05T22:00:00Z,49.37,-121.5,21.0,9.0,260,8,,9.0,30.041338,1017.6,,TRUE,,,,,,,,CLR,,,,,,,,VFR,,,,,,,,,,,,METAR,39.0
CYPR 052200Z AUTO 17009G15KT 120V200 9SM FEW049 BKN060 RMK T MISG TD MISG DENSITY ALT MISG,CYPR,2020-05-05T22:00:00Z,54.28,-130.42,,,170,9,15,9.0,,,,TRUE,,,,,,,,FEW,4900,BKN,6000,,,,,VFR,,,,,,,,,,,,METAR,34.0
CYKY 052200Z VRB02KT 15SM FEW076 FEW240 17/M02 A3023 RMK CU2CI1 CI TR SLP257 DENSITY ALT 2700FT,CYKY,2020-05-05T22:00:00Z,51.52,-109.17,17.0,-2.0,0,2,,15.0,30.230314,1025.7,,,,,,,,,,FEW,7600,FEW,24000,,,,,VFR,,,,,,,,,,,,METAR,694.0
CYVL 052200Z AUTO 19012KT 9SM CLR 04/M03 A3004 RMK SLP196,CYVL,2020-05-05T22:00:00Z,67.02,-126.13,4.0,-3.0,190,12,,9.0,30.041338,1019.6,,TRUE,,,,,,,,CLR,,,,,,,,VFR,,,,,,,,,,,,METAR,259.0
CYUA 052200Z AUTO 29019KT ////SM NCD M04/M06 A3002,CYUA,2020-05-05T22:00:00Z,68.95,-137.28,-4.0,-6.0,290,19,,,30.02067,,,TRUE,,,,,,,,CLR,,,,,,,,,,,,,,,,,,,,METAR,38.0
CYRV 052200Z AUTO 16006KT 140V200 9SM CLR 20/M01 A3015 RMK SLP218 DENSITY ALT 2100FT,CYRV,2020-05-05T22:00:00Z,50.97,-118.17,20.0,-1.0,160,6,,9.0,30.15059,1021.8,,TRUE,,,,,,,,CLR,,,,,,,,VFR,,,,,,,,,,,,METAR,443.0
CYQZ 052200Z AUTO 08005KT 040V190 9SM CLR 17/M05 A3009 RMK SLP202 DENSITY ALT 2200FT,CYQZ,2020-05-05T22:00:00Z,53.02,-122.52,17.0,-5.0,80,5,,9.0,30.088583,1020.2,,TRUE,,,,,,,,CLR,,,,,,,,VFR,,,,,,,,,,,,METAR,545.0
CYQD 052200Z AUTO 03006KT 350V090 9SM CLR 11/M06 A3025 RMK SLP257,CYQD,2020-05-05T22:00:00Z,53.97,-101.08,11.0,-6.0,30,6,,9.0,30.250984,1025.7,,TRUE,,,,,,,,CLR,,,,,,,,VFR,,,,,,,,,,,,METAR,271.0
CYXE 052200Z 00000KT 15SM SCT080 17/M00 A3021 RMK CU4 SLP248 DENSITY ALT 2000FT,CYXE,2020-05-05T22:00:00Z,52.17,-106.7,17.0,0.0,0,0,,15.0,30.209646,1024.8,,,,,,,,,,SCT,8000,,,,,,,VFR,,,,,,,,,,,,METAR,504.0
CYXC 052200Z 06009KT 010V080 25SM FEW070 BKN240 18/M03 A3017 RMK CU2CS3 SLP228 DENSITY ALT 3900FT,CYXC,2020-05-05T22:00:00Z,49.6,-115.77,18.0,-3.0,60,9,,25.0,30.171259,1022.8,,,,,,,,,,FEW,7000,BKN,24000,,,,,VFR,,,,,,,,,,,,METAR,939.0
CYXQ 052200Z CCA 17006KT 30SM BKN050TCU 11/M03 A2995 RMK TCU7 /DIST SHWRS ALL QUADS/LAST STFD OBS/NXT 061600Z/ SLP171 DENSITY ALT 2200FT,CYXQ,2020-05-05T22:00:00Z,62.42,-140.87,11.0,-3.0,170,6,,30.0,29.949802,1017.1,,,,,,,,,,BKN,5000,,,,,,,VFR,,,,,,,,,,,,METAR,649.0
CYXS 052200Z AUTO 03010G17KT 340V050 9SM CLR 13/04 A3012 RMK SLP218 DENSITY ALT 2300FT,CYXS,2020-05-05T22:00:00Z,53.9,-122.68,13.0,4.0,30,10,17,9.0,30.121063,1021.8,,TRUE,,,,,,,,CLR,,,,,,,,VFR,,,,,,,,,,,,METAR,691.0
CYZP 052200Z AUTO 11020G26KT 9SM BKN016 OVC025 09/07 A3002 RMK SLP168,CYZP,2020-05-05T22:00:00Z,53.25,-131.82,9.0,7.0,110,20,26,9.0,30.02067,1016.8,,TRUE,,,,,,,,BKN,1600,OVC,2500,,,,,MVFR,,,,,,,,,,,,METAR,6.0
CYZT 052200Z 10012KT 20SM FEW030 BKN200 14/07 A3003 RMK SC2CI5 SLP173,CYZT,2020-05-05T22:00:00Z,50.67,-127.37,14.0,7.0,100,12,,20.0,30.029528,1017.3,,,,,,,,,,FEW,3000,BKN,20000,,,,,VFR,,,,,,,,,,,,METAR,22.0
CWHN 052200Z AUTO 12010KT 9SM FEW052 FEW067 FEW087 17/M02 A3020 RMK SLP243,CWHN,2020-05-05T22:00:00Z,54.88,-109.97,17.0,-2.0,120,10,,9.0,30.200787,1024.3,,TRUE,,,,,,,,FEW,5200,FEW,6700,FEW,8700,,,VFR,,,,,,,,,,,,METAR,636.0
CYBK 052200Z 33024G30KT 10SM DRSN FEW006 FEW016 M09/M12 A3034 RMK ST1SC1 SC TR SLP279,CYBK,2020-05-05T22:00:00Z,64.28,-96.07,-9.0,-12.0,330,24,30,10.0,30.339567,1027.9,,,,,,,,,DRSN,FEW,600,FEW,1600,,,,,VFR,,,,,,,,,,,,METAR,18.0
CYLL 052200Z 18006KT 15SM SCT075 SCT090 17/M02 A3022 RMK CU3AC1 SLP252 DENSITY ALT 2600FT,CYLL,2020-05-05T22:00:00Z,53.32,-110.07,17.0,-2.0,180,6,,15.0,30.221457,1025.2,,,,,,,,,,SCT,7500,SCT,9000,,,,,VFR,,,,,,,,,,,,METAR,669.0
CYKJ 052200Z AUTO 07005KT 020V090 9SM CLR 07/M09 A3032 RMK SLP299,CYKJ,2020-05-05T22:00:00Z,57.25,-105.62,7.0,-9.0,70,5,,9.0,30.318897,1029.9,,TRUE,,,,,,,,CLR,,,,,,,,VFR,,,,,,,,,,,,METAR,509.0
CYGX 052200Z 34008KT 15SM OVC008 00/M06 A3031 RMK SC7 LAST OBS/ NEXT 061300 SLP276,CYGX,2020-05-05T22:00:00Z,56.35,-94.7,0.0,-6.0,340,8,,15.0,30.31004,1027.6,,,,,,,,,,OVC,800,,,,,,,IFR,,,,,,,,,,,,METAR,145.0
CYET 052200Z AUTO 08010KT 050V140 9SM CLR 16/M03 A3012 RMK SLP224 DENSITY ALT 3600FT,CYET,2020-05-05T22:00:00Z,53.57,-116.47,16.0,-3.0,80,10,,9.0,30.121063,1022.4,,TRUE,,,,,,,,CLR,,,,,,,,VFR,,,,,,,,,,,,METAR,925.0
CYEN 052200Z AUTO 28013G20KT 9SM SCT100 SCT120 13/04 A3021 RMK SLP249,CYEN,2020-05-05T22:00:00Z,49.22,-102.97,13.0,4.0,280,13,20,9.0,30.209646,1024.9,,TRUE,,,,,,,,SCT,10000,SCT,12000,,,,,VFR,,,,,,,,,,,,METAR,581.0
CYDN 052200Z AUTO 04013G20KT 9SM CLR 16/M04 A3018 RMK SLP232 DENSITY ALT 1000FT,CYDN,2020-05-05T22:00:00Z,51.1,-100.03,16.0,-4.0,40,13,20,9.0,30.180119,1023.2,,TRUE,,,,,,,,CLR,,,,,,,,VFR,,,,,,,,,,,,METAR,305.0
CYMM 052200Z AUTO 15006KT 080V190 9SM CLR 18/M02 A3021 RMK SLP244 DENSITY ALT 1400FT,CYMM,2020-05-05T22:00:00Z,56.65,-111.22,18.0,-2.0,150,6,,9.0,30.209646,1024.4,,TRUE,,,,,,,,CLR,,,,,,,,VFR,,,,,,,,,,,,METAR,369.0
CYNE 052200Z AUTO 03009KT 9SM CLR 09/M06 A3025 RMK SLP257,CYNE,2020-05-05T22:00:00Z,53.97,-97.82,9.0,-6.0,30,9,,9.0,30.250984,1025.7,,TRUE,,,,,,,,CLR,,,,,,,,VFR,,,,,,,,,,,,METAR,223.0
CYOJ 052200Z 12009KT 090V210 15SM FEW068 SCT080 SCT260 19/02 A3011 RMK CU1AC2CI1 SLP209 DENSITY ALT 1600FT,CYOJ,2020-05-05T22:00:00Z,58.62,-117.17,19.0,2.0,120,9,,15.0,30.109253,1020.9,,,,,,,,,,FEW,6800,SCT,8000,SCT,26000,,,VFR,,,,,,,,,,,,METAR,338.0
CYPA 052200Z 32009G20KT 250V320 15SM SCT072 BKN120 18/M00 A3020 RMK CU3AC4 VIRGA NE SLP244 DENSITY ALT 1800FT,CYPA,2020-05-05T22:00:00Z,53.22,-105.67,18.0,0.0,320,9,20,15.0,30.200787,1024.4,,,,,,,,,,SCT,7200,BKN,12000,,,,,VFR,,,,,,,,,,,,METAR,428.0
CYHM 052200Z 05006KT 030V090 15SM FEW180 BKN200 10/M07 A2993 RMK AC2CS5 SLP143,CYHM,2020-05-05T22:00:00Z,43.17,-79.93,10.0,-7.0,50,6,,15.0,29.929134,1014.3,,,,,,,,,,FEW,18000,BKN,20000,,,,,VFR,,,,,,,,,,,,METAR,238.0
CYKF 052200Z AUTO 01004KT 340V080 9SM BKN160 OVC180 11/M07 A2992 RMK SLP143,CYKF,2020-05-05T22:00:00Z,43.47,-80.38,11.0,-7.0,10,4,,9.0,29.920275,1014.3,,TRUE,,,,,,,,BKN,16000,OVC,18000,,,,,VFR,,,,,,,,,,,,METAR,317.0
CWNQ 052200Z AUTO 25007KT 10/02 RMK AO1 SLP122 T00960022 53001,CWNQ,2020-05-05T22:00:00Z,46.22,-72.65,9.6,2.2,250,7,,,,1012.2,,TRUE,TRUE,,,,,,,,,,,,,,,,0.1,,,,,,,,,,,METAR,10.0
CWNP 052200Z AUTO 26002KT 16/M01 RMK AO1 SLP222 T01581009 56022,CWNP,2020-05-05T22:00:00Z,50.27,-117.82,15.8,-0.9,260,2,,,,1022.2,,TRUE,TRUE,,,,,,,,,,,,,,,,-2.2,,,,,,,,,,,METAR,524.0
CWNM 052200Z AUTO 05007KT 19/01 RMK AO1 SLP220 T01870013 58017,CWNM,2020-05-05T22:00:00Z,49.5,-117.28,18.7,1.3,50,7,,,,1022.0,,TRUE,TRUE,,,,,,,,,,,,,,,,-1.7,,,,,,,,,,,METAR,535.0
CWNK 052200Z AUTO 15/01 RMK AO1 T01490011,CWNK,2020-05-05T22:00:00Z,49.5,-98.03,14.9,1.1,,,,,,,,TRUE,TRUE,,,,,,,,,,,,,,,,,,,,,,,,,,,METAR,268.0
CWNE 052200Z AUTO 34021KT 01/01 RMK AO1 PK WND 35027/2130 SLP031 T00100005 51012,CWNE,2020-05-05T22:00:00Z,47.07,-64.0,1.0,0.5,340,21,,,,1003.1,,TRUE,TRUE,,,,,,,,,,,,,,,,1.2,,,,,,,,,,,METAR,15.0
CYRB 052200Z 32014G20KT 10SM -SN SCT011 M13/M15 A3031 RMK SC4 SLP275,CYRB,2020-05-05T22:00:00Z,74.72,-94.97,-13.0,-15.0,320,14,20,10.0,30.31004,1027.5,,,,,,,,,-SN,SCT,1100,,,,,,,VFR,,,,,,,,,,,,METAR,67.0
CYQK 052200Z 30008KT 280V360 20SM FEW060 SCT250 15/M04 A3007 RMK SC2CI2 SLP196 DENSITY ALT 1500FT,CYQK,2020-05-05T22:00:00Z,49.77,-94.37,15.0,-4.0,300,8,,20.0,30.070866,1019.6,,,,,,,,,,FEW,6000,SCT,25000,,,,,VFR,,,,,,,,,,,,METAR,411.0
CYQA 052200Z AUTO 27007G15KT 240V310 9SM CLR 10/M06 A2994 RMK SLP152,CYQA,2020-05-05T22:00:00Z,44.97,-79.28,10.0,-6.0,270,7,15,9.0,29.940945,1015.2,,TRUE,,,,,,,,CLR,,,,,,,,VFR,,,,,,,,,,,,METAR,282.0
CYPL 052200Z AUTO 35010G22KT 300V030 9SM SCT080 10/M06 A3002 RMK SLP186,CYPL,2020-05-05T22:00:00Z,51.47,-90.2,10.0,-6.0,350,10,22,9.0,30.02067,1018.6,,TRUE,,,,,,,,SCT,8000,,,,,,,VFR,,,,,,,,,,,,METAR,373.0
CYOO 052200Z AUTO 19007KT 9SM FEW210 08/M02 A2996 RMK SLP151,CYOO,2020-05-05T22:00:00Z,43.92,-78.9,8.0,-2.0,190,7,,9.0,29.958662,1015.1,,TRUE,,,,,,,,FEW,21000,,,,,,,VFR,,,,,,,,,,,,METAR,139.0
CYLH 052200Z AUTO 35013G20KT 9SM SCT060 SCT075 09/M05 A3003 RMK SLP186,CYLH,2020-05-05T22:00:00Z,52.2,-87.93,9.0,-5.0,350,13,20,9.0,30.029528,1018.6,,TRUE,,,,,,,,SCT,6000,SCT,7500,,,,,VFR,,,,,,,,,,,,METAR,254.0
CYLD 052200Z 02004KT 340V090 15SM FEW270 10/M11 A3000 RMK CI2 SLP182,CYLD,2020-05-05T22:00:00Z,47.82,-83.33,10.0,-11.0,20,4,,15.0,30.0,1018.2,,,,,,,,,,FEW,27000,,,,,,,VFR,,,,,,,,,,,,METAR,447.0
CYKP 052200Z AUTO 02012G17KT 9SM FEW070 SCT088 09/M02 A2999 RMK SLP165,CYKP,2020-05-05T22:00:00Z,51.67,-85.9,9.0,-2.0,20,12,17,9.0,29.991142,1016.5,,TRUE,,,,,,,,FEW,7000,SCT,8800,,,,,VFR,,,,,,,,,,,,METAR,179.0
CYGQ 052200Z 30011KT 250V320 15SM FEW060 FEW065 SCT250 12/M08 A2999 RMK CF1SC1CI1 SLP175,CYGQ,2020-05-05T22:00:00Z,49.77,-86.92,12.0,-8.0,300,11,,15.0,29.991142,1017.5,,,,,,,,,,FEW,6000,FEW,6500,SCT,25000,,,VFR,,,,,,,,,,,,METAR,351.0
CYGK 052200Z 22008KT 15SM FEW060 BKN250 06/M01 A2997 RMK SC1CI7 SC TR SLP153,CYGK,2020-05-05T22:00:00Z,44.22,-76.58,6.0,-1.0,220,8,,15.0,29.970472,1015.3,,,,,,,,,,FEW,6000,BKN,25000,,,,,VFR,,,,,,,,,,,,METAR,93.0
CYFR 052200Z 13011KT 15SM FEW270 12/M07 A3030 RMK CI1 CI TR /0/ LAST STFD OBS/NEXT061400Z SLP270,CYFR,2020-05-05T22:00:00Z,61.17,-113.67,12.0,-7.0,130,11,,15.0,30.301182,1027.0,,,,,,,,,,FEW,27000,,,,,,,VFR,,,,,,,,,,,,METAR,164.0
CYBN 052200Z AUTO 33007KT 310V010 9SM CLR 07/M05 A2998 RMK SLP162,CYBN,2020-05-05T22:00:00Z,44.27,-79.92,7.0,-5.0,330,7,,9.0,29.97933,1016.2,,TRUE,,,,,,,,CLR,,,,,,,,VFR,,,,,,,,,,,,METAR,223.0
CYBC 052200Z AUTO 25010G16KT 9SM FEW080 SCT150 05/M00 A2979 RMK SLP090,CYBC,2020-05-05T22:00:00Z,49.12,-68.2,5.0,0.0,250,10,16,9.0,29.790354,1009.0,,TRUE,,,,,,,,FEW,8000,SCT,15000,,,,,VFR,,,,,,,,,,,,METAR,22.0
CZVL 052200Z AUTO 18012G17KT 130V190 9SM BKN065 BKN075 17/03 A3018 RMK SLP234 DENSITY ALT 2700FT,CZVL,2020-05-05T22:00:00Z,53.67,-113.85,17.0,3.0,180,12,17,9.0,30.180119,1023.4,,TRUE,,,,,,,,BKN,6500,BKN,7500,,,,,VFR,,,,,,,,,,,,METAR,686.0
CYZH 052200Z AUTO 16010G15KT 140V200 9SM SCT090 19/M02 A3012 RMK SLP217 DENSITY ALT 2600FT,CYZH,2020-05-05T22:00:00Z,55.28,-114.77,19.0,-2.0,160,10,15,9.0,30.121063,1021.7,,TRUE,,,,,,,,SCT,9000,,,,,,,VFR,,,,,,,,,,,,METAR,581.0
CYYN 052200Z AUTO 36005KT 320V040 9SM CLR 14/M00 A3025 RMK SLP262 DENSITY ALT 2800FT,CYYN,2020-05-05T22:00:00Z,50.27,-107.67,14.0,0.0,360,5,,9.0,30.250984,1026.2,,TRUE,,,,,,,,CLR,,,,,,,,VFR,,,,,,,,,,,,METAR,818.0
CYYL 052200Z AUTO 02009KT 330V050 9SM CLR 02/M06 A3034 RMK SLP300,CYYL,2020-05-05T22:00:00Z,56.87,-101.07,2.0,-6.0,20,9,,9.0,30.339567,1030.0,,TRUE,,,,,,,,CLR,,,,,,,,VFR,,,,,,,,,,,,METAR,357.0
CYVC 052200Z 05008KT 15SM SKC 13/M03 A3028 RMK SLP270,CYVC,2020-05-05T22:00:00Z,55.15,-105.27,13.0,-3.0,50,8,,15.0,30.280512,1027.0,,,,,,,,,,SKC,,,,,,,,VFR,,,,,,,,,,,,METAR,379.0
CYQW 052200Z AUTO 25005KT 210V280 9SM FEW110 18/M01 A3023 RMK SLP254 DENSITY ALT 2200FT,CYQW,2020-05-05T22:00:00Z,52.77,-108.25,18.0,-1.0,250,5,,9.0,30.230314,1025.4,,TRUE,,,,,,,,FEW,11000,,,,,,,VFR,,,,,,,,,,,,METAR,548.0
CYQR 052200Z 31007KT 300V360 15SM BKN060TCU 15/03 A3021 RMK TCU5 SLP251 DENSITY ALT 2100FT,CYQR,2020-05-05T22:00:00Z,50.43,-104.67,15.0,3.0,310,7,,15.0,30.209646,1025.1,,,,,,,,,,BKN,6000,,,,,,,VFR,,,,,,,,,,,,METAR,577.0
CYQL 052200Z VRB05KT 60SM FEW070 BKN300 16/M02 A3021 RMK CU1CI5 SLP249 DENSITY ALT 3500FT,CYQL,2020-05-05T22:00:00Z,49.63,-112.8,16.0,-2.0,0,5,,60.0,30.209646,1024.9,,,,,,,,,,FEW,7000,BKN,30000,,,,,VFR,,,,,,,,,,,,METAR,929.0
CYQF 052200Z 14005KT 110V240 15SM SCT060 BKN250 14/00 A3019 RMK CU2CI3 SLP251 DENSITY ALT 3300FT,CYQF,2020-05-05T22:00:00Z,52.17,-113.9,14.0,0.0,140,5,,15.0,30.188976,1025.1,,,,,,,,,,SCT,6000,BKN,25000,,,,,VFR,,,,,,,,,,,,METAR,905.0
CYPY 052200Z AUTO 06013KT 9SM CLR 09/M03 A3031 RMK SLP278,CYPY,2020-05-05T22:00:00Z,58.77,-111.12,9.0,-3.0,60,13,,9.0,30.31004,1027.8,,TRUE,,,,,,,,CLR,,,,,,,,VFR,,,,,,,,,,,,METAR,232.0
CYPG 052200Z 33007KT 15SM FEW050 BKN210 14/01 A3016 RMK CU1CI5 LAST OBS/NEXT 061100 UTC SLP221,CYPG,2020-05-05T22:00:00Z,49.88,-98.27,14.0,1.0,330,7,,15.0,30.159449,1022.1,,,,,,,,,,FEW,5000,BKN,21000,,,,,VFR,,,,,,,,,,,,METAR,269.0
CYRQ 052200Z AUTO 35006KT 9SM OVC070 11/M02 A2988 RMK SLP123,CYRQ,2020-05-05T22:00:00Z,46.35,-72.68,11.0,-2.0,350,6,,9.0,29.878937,1012.3,,TRUE,,,,,,,,OVC,7000,,,,,,,VFR,,,,,,,,,,,,METAR,61.0
CYSB 052200Z 06010KT 20SM SCT200 09/M16 A2999 RMK CI4 SLP172,CYSB,2020-05-05T22:00:00Z,46.63,-80.8,9.0,-16.0,60,10,,20.0,29.991142,1017.2,,,,,,,,,,SCT,20000,,,,,,,VFR,,,,,,,,,,,,METAR,348.0
CYSC 052200Z AUTO 32011KT 280V340 9SM BKN038 OVC060 07/M01 A2988 RMK SLP127,CYSC,2020-05-05T22:00:00Z,45.43,-71.68,7.0,-1.0,320,11,,9.0,29.878937,1012.7,,TRUE,,,,,,,,BKN,3800,OVC,6000,,,,,VFR,,,,,,,,,,,,METAR,241.0
CYSN 052200Z 04005KT 15SM OVC250 10/M06 A2995 RMK CI8 SLP147,CYSN,2020-05-05T22:00:00Z,43.2,-79.17,10.0,-6.0,40,5,,15.0,29.949802,1014.7,,,,,,,,,,OVC,25000,,,,,,,VFR,,,,,,,,,,,,METAR,98.0
CYVO 052200Z 28008KT 260V340 15SM SKC 05/M10 A3000 RMK SLP180,CYVO,2020-05-05T22:00:00Z,48.07,-77.77,5.0,-10.0,280,8,,15.0,30.0,1018.0,,,,,,,,,,SKC,,,,,,,,VFR,,,,,,,,,,,,METAR,337.0
CYVQ 052200Z 13011KT 30SM FEW040 FEW100 FEW230 08/M01 A3007 RMK SC1AC1CI2 SC TR AC TR SLP187,CYVQ,2020-05-05T22:00:00Z,65.27,-126.78,8.0,-1.0,130,11,,30.0,30.070866,1018.7,,,,,,,,,,FEW,4000,FEW,10000,FEW,23000,,,VFR,,,,,,,,,,,,METAR,74.0
CYXU 052200Z 04010KT 15SM BKN170 OVC230 11/M06 A2992 RMK AC5CI3 SLP140,CYXU,2020-05-05T22:00:00Z,43.02,-81.15,11.0,-6.0,40,10,,15.0,29.920275,1014.0,,,,,,,,,,BKN,17000,OVC,23000,,,,,VFR,,,,,,,,,,,,METAR,278.0
CYXL 052200Z 33006G18KT 300V360 15SM SCT085 BKN220 14/M05 A3003 RMK AC3CI3 SLP186 DENSITY ALT 1300FT,CYXL,2020-05-05T22:00:00Z,50.12,-91.9,14.0,-5.0,330,6,18,15.0,30.029528,1018.6,,,,,,,,,,SCT,8500,BKN,22000,,,,,VFR,,,,,,,,,,,,METAR,390.0
CYXZ 052200Z 25006KT 220V290 15SM FEW100 SCT250 05/M05 A3005 RMK AC1CI2 SLP194,CYXZ,2020-05-05T22:00:00Z,47.97,-84.77,5.0,-5.0,250,6,,15.0,30.050198,1019.4,,,,,,,,,,FEW,10000,SCT,25000,,,,,VFR,,,,,,,,,,,,METAR,287.0
CYYW 052200Z AUTO 34011G17KT 280V020 9SM OVC085 14/M06 A2999 RMK SLP171 DENSITY ALT 1100FT,CYYW,2020-05-05T22:00:00Z,50.3,-88.9,14.0,-6.0,340,11,17,9.0,29.991142,1017.1,,TRUE,,,,,,,,OVC,8500,,,,,,,VFR,,,,,,,,,,,,METAR,351.0
CYYB 052200Z 02003KT 340V070 30SM BKN280 08/M15 A2998 RMK CI6 SLP168,CYYB,2020-05-05T22:00:00Z,46.35,-79.42,8.0,-15.0,20,3,,30.0,29.97933,1016.8,,,,,,,,,,BKN,28000,,,,,,,VFR,,,,,,,,,,,,METAR,371.0
CYYU 052200Z 09004KT 070V190 15SM FEW065 FEW200 FEW250 10/M09 A3000 RMK CU1CC1CI1 CU TR CC TR SLP174,CYYU,2020-05-05T22:00:00Z,49.42,-82.47,10.0,-9.0,90,4,,15.0,30.0,1017.4,,,,,,,,,,FEW,6500,FEW,20000,FEW,25000,,,VFR,,,,,,,,,,,,METAR,227.0
CZMD 052200Z AUTO 35010G15KT 280V030 9SM CLR 05/M06 A3016 RMK SLP232,CZMD,2020-05-05T22:00:00Z,53.43,-91.77,5.0,-6.0,350,10,15,9.0,30.159449,1023.2,,TRUE,,,,,,,,CLR,,,,,,,,VFR,,,,,,,,,,,,METAR,278.0
CZSJ 052200Z AUTO 32012G18KT 9SM CLR 08/M07 A3016 RMK SLP229,CZSJ,2020-05-05T22:00:00Z,53.07,-93.35,8.0,-7.0,320,12,18,9.0,30.159449,1022.9,,TRUE,,,,,,,,CLR,,,,,,,,VFR,,,,,,,,,,,,METAR,290.0
CYCX 052200Z AUTO 01009KT 9SM OVC026 OVC051 OVC068 OVC092 05/M01 A2975 RMK SLP077,CYCX,2020-05-05T22:00:00Z,45.82,-66.42,5.0,-1.0,10,9,,9.0,29.749016,1007.7,,TRUE,,,,,,,,OVC,2600,OVC,5100,OVC,6800,OVC,9200,MVFR,,,,,,,,,,,,METAR,51.0
CYPX 052200Z AUTO 16017KT 7SM -SN SCT016 BKN031 BKN240 M04/M06 A2994 RMK SLP143,CYPX,2020-05-05T22:00:00Z,60.03,-77.27,-4.0,-6.0,160,17,,7.0,29.940945,1014.3,,TRUE,,,,,,,-SN,SCT,1600,BKN,3100,BKN,24000,,,VFR,,,,,,,,,,,,METAR,23.0
CYSK 052200Z 17018KT 1SM -SN OVC033 M03/M04 A2993 RMK SC8 SN CVR/NIL LAST OBS/NEXT 061200UTC SLP141,CYSK,2020-05-05T22:00:00Z,56.53,-79.25,-3.0,-4.0,170,18,,1.0,29.929134,,,,,,,,,,-SN,OVC,3300,,,,,,,IFR,,,,,,,,,,,,METAR,26.0
CYQI 052200Z 01019G27KT 15SM FEW025 FEW080 06/00 A2968 RMK CU1AC1 AC TR SLP054,CYQI,2020-05-05T22:00:00Z,43.83,-66.08,6.0,0.0,10,19,27,15.0,29.681103,1005.4,,,,,,,,,,FEW,2500,FEW,8000,,,,,VFR,,,,,,,,,,,,METAR,43.0
CYUY 052200Z 36005KT 15SM FEW210 06/M11 A3002 RMK CI1 CI TR SLP183,CYUY,2020-05-05T22:00:00Z,48.2,-78.82,6.0,-11.0,360,5,,15.0,30.02067,1018.3,,,,,,,,,,FEW,21000,,,,,,,VFR,,,,,,,,,,,,METAR,301.0
CYWK 052200Z 03012KT 15SM FEW260 01/M10 A2984 RMK CI2 SLP136,CYWK,2020-05-05T22:00:00Z,52.92,-66.87,1.0,-10.0,30,12,,15.0,29.840551,1013.6,,,,,,,,,,FEW,26000,,,,,,,VFR,,,,,,,,,,,,METAR,551.0
CWLI 052200Z AUTO 11010KT ////SM //// OVC037 M03/M05 A3002,CWLI,2020-05-05T22:00:00Z,69.58,-130.9,-3.0,-5.0,110,10,,,30.02067,,,TRUE,,,,,,,,OVC,3700,,,,,,,,,,,,,,,,,,,METAR,102.0
CWLY 052200Z AUTO 19009KT 9SM CLR 21/00 A3005 RMK SLP179 DENSITY ALT 1400FT,CWLY,2020-05-05T22:00:00Z,50.22,-121.58,21.0,0.0,190,9,,9.0,30.050198,1017.9,,TRUE,,,,,,,,CLR,,,,,,,,VFR,,,,,,,,,,,,METAR,229.0
CWPX 052200Z AUTO 00000KT ////SM //// OVC015 M08/M13 A3050,CWPX,2020-05-05T22:00:00Z,69.02,-107.82,-8.0,-13.0,0,0,,,30.499016,,,TRUE,,,,,,,,OVC,1500,,,,,,,,,,,,,,,,,,,METAR,165.0
CWOB 052200Z AUTO ///// ////SM OVC014 M11/M14 A2997,CWOB,2020-05-05T22:00:00Z,63.32,-64.15,-11.0,-14.0,,,,,29.970472,,,TRUE,,,,,,,,OVC,1400,,,,,,,,,,,,,,,,,,,METAR,367.0
CWRX 052200Z AUTO 06008KT ////SM //// NCD M10/M12 A3011,CWRX,2020-05-05T22:00:00Z,69.07,-79.02,-10.0,-12.0,60,8,,,30.109253,,,TRUE,,,,,,,,CLR,,,,,,,,,,,,,,,,,,,,METAR,41.0
CWSW 052200Z 17008KT 140V260 20SM FEW070 FEW140 BKN230 17/M04 A3025 RMK CF1AC1CI7 CF TR AC TR SLP264 DENSITY ALT 4600FT,CWSW,2020-05-05T22:00:00Z,49.83,-114.87,17.0,-4.0,170,8,,20.0,30.250984,1026.4,,,,,,,,,,FEW,7000,FEW,14000,BKN,23000,,,VFR,,,,,,,,,,,,METAR,1138.0
CYCA 052200Z AUTO 02017G22KT 9SM BKN030 OVC034 00/M03 A2987 RMK SLP119,CYCA,2020-05-05T22:00:00Z,53.68,-57.03,0.0,-3.0,20,17,22,9.0,29.870079,1011.9,,TRUE,,,,,,,,BKN,3000,OVC,3400,,,,,MVFR,,,,,,,,,,,,METAR,12.0
CWZZ 052200Z AUTO VRB03KT ////SM OVC005 M08/M10 A2993,CWZZ,2020-05-05T22:00:00Z,58.47,-62.65,-8.0,-10.0,0,3,,,29.929134,,,TRUE,,,,,,,,OVC,500,,,,,,,,,,,,,,,,,,,METAR,50.0
CZST 052200Z 29003KT 210V320 15SM BKN060 13/03 A3015 RMK CU5 SLP212,CZST,2020-05-05T22:00:00Z,55.93,-129.98,13.0,3.0,290,3,,15.0,30.15059,1021.2,,,,,,,,,,BKN,6000,,,,,,,VFR,,,,,,,,,,,,METAR,7.0
CWEU 052200Z 00000KT 15SM -SN FEW040 BKN070 M16/M20 A3012 RMK SC2AC5 SLP215,CWEU,2020-05-05T22:00:00Z,80.0,-85.92,-16.0,-20.0,0,0,,15.0,30.121063,1021.5,,,,,,,,,-SN,FEW,4000,BKN,7000,,,,,VFR,,,,,,,,,,,,METAR,10.0
CZEL 052200Z AUTO 02007KT 10/M09 RMK AO1 SLP156 T01021090 56013,CZEL,2020-05-05T22:00:00Z,43.65,-80.42,10.2,-9.0,20,7,,,,1015.6,,TRUE,TRUE,,,,,,,,,,,,,,,,-1.3,,,,,,,,,,,METAR,376.0
CXZC 052200Z AUTO 07005KT 03/M06 RMK AO1 SLP175 T00251058 56018,CXZC,2020-05-05T22:00:00Z,51.3,-80.62,2.5,-5.8,70,5,,,,1017.5,,TRUE,TRUE,,,,,,,,,,,,,,,,-1.8,,,,,,,,,,,METAR,9.0
CXBI 052200Z AUTO 35008KT 08/M09 RMK AO1 SLP157 T00791088 56010,CXBI,2020-05-05T22:00:00Z,44.48,-79.55,7.9,-8.8,350,8,,,,1015.7,,TRUE,TRUE,,,,,,,,,,,,,,,,-1.0,,,,,,,,,,,METAR,289.0
CTRA 052200Z AUTO 35006KT 15/M04 RMK AO1 SLP180 T01481043 58001,CTRA,2020-05-05T22:00:00Z,49.67,-93.73,14.8,-4.3,350,6,,,,1018.0,,TRUE,TRUE,,,,,,,,,,,,,,,,-0.1,,,,,,,,,,,METAR,435.0
CTNK 052200Z AUTO 31004KT 10/M14 RMK AO1 SLP149 T00961139 55007,CTNK,2020-05-05T22:00:00Z,45.53,-78.27,9.6,-13.9,310,4,,,,1014.9,,TRUE,TRUE,,,,,,,,,,,,,,,,-0.7,,,,,,,,,,,METAR,410.0
CWPZ 052200Z AUTO 17004KT 13/M07 RMK AO1 SLP203 T01271072 58010,CWPZ,2020-05-05T22:00:00Z,54.38,-125.97,12.7,-7.2,170,4,,,,1020.3,,TRUE,TRUE,,,,,,,,,,,,,,,,-1.0,,,,,,,,,,,METAR,713.0
CWPR 052200Z AUTO 06006KT 19/M02 RMK AO1 SLP184 T01851022 56021,CWPR,2020-05-05T22:00:00Z,49.47,-120.52,18.5,-2.2,60,6,,,,1018.4,,TRUE,TRUE,,,,,,,,,,,,,,,,-2.1,,,,,,,,,,,METAR,700.0
CWPE 052200Z AUTO 35008G16KT 06/M00 RMK AO1 PK WND 00017/2136 SLP067 T00631003 52023,CWPE,2020-05-05T22:00:00Z,45.07,-66.47,6.3,-0.3,350,8,16,,,1006.7,,TRUE,TRUE,,,,,,,,,,,,,,,,2.3,,,,,,,,,,,METAR,1.0
CWPD 052200Z AUTO 36004KT 01/M01 RMK AO1 SLP115 T00111007 53011,CWPD,2020-05-05T22:00:00Z,47.57,-71.22,1.1,-0.7,360,4,,,,1011.5,,TRUE,TRUE,,,,,,,,,,,,,,,,1.1,,,,,,,,,,,METAR,803.0
CWOE 052200Z AUTO 21005KT 14/M01 RMK AO1 SLP250 T01421011 58009,CWOE,2020-05-05T22:00:00Z,49.12,-110.47,14.2,-1.1,210,5,,,,1025.0,,TRUE,TRUE,,,,,,,,,,,,,,,,-0.9,,,,,,,,,,,METAR,935.0
CWOD 052200Z AUTO 34008KT 08/M01 RMK AO1 PK WND 34017/2119 SLP114 T00771007 53005,CWOD,2020-05-05T22:00:00Z,48.85,-72.55,7.7,-0.7,340,8,,,,1011.4,,TRUE,TRUE,,,,,,,,,,,,,,,,0.5,,,,,,,,,,,METAR,137.0
CWOC 052200Z AUTO 30008KT 02/M00 RMK AO1 0001 SLP063 T00191003 50024,CWOC,2020-05-05T22:00:00Z,48.02,-65.32,1.9,-0.3,300,8,,,,1006.3,,TRUE,TRUE,,,,,,,,,,,,,,,,2.4,,,,,,,,,,,METAR,47.0
WBKW 052200Z 29004KT 260V350 9999 VCSH FEW010 FEW015CB SCT025 25/25 Q1010,WBKW,2020-05-05T22:00:00Z,4.32,118.12,25.0,25.0,290,4,,6.21,29.822834,,,,,,,,,,VCSH,FEW,1000,FEW,1500,SCT,2500,,,VFR,,,,,,,,,,,,METAR,20.0
WBKT 052200Z VRB02KT 9999 FEW014 BKN270 24/24 Q1009,WBKT,2020-05-05T22:00:00Z,6.92,116.82,24.0,24.0,0,2,,6.21,29.793306,,,,,,,,,,,FEW,1400,BKN,27000,,,,,VFR,,,,,,,,,,,,METAR,5.0
WBKS 052200Z 00000KT 7000 FEW015 26/25 Q1009,WBKS,2020-05-05T22:00:00Z,5.9,118.07,26.0,25.0,0,0,,4.35,29.793306,,,,,,,,,,,FEW,1500,,,,,,,MVFR,,,,,,,,,,,,METAR,13.0
WBKL 052200Z 00000KT 9999 FEW014 BKN140 BKN290 26/26 Q1009,WBKL,2020-05-05T22:00:00Z,5.28,115.25,26.0,26.0,0,0,,6.21,29.793306,,,,,,,,,,,FEW,1400,BKN,14000,BKN,29000,,,VFR,,,,,,,,,,,,METAR,30.0
WBGY 052200Z AUTO 00000KT //// // 23/23 Q1009,WBGY,2020-05-05T22:00:00Z,1.22,111.43,23.0,23.0,0,0,,,29.793306,,,TRUE,,,,,,,,,,,,,,,,,,,,,,,,,,,,METAR,34.0
WMSA 052200Z VRB02KT 9999 FEW026 27/25 Q1009,WMSA,2020-05-05T22:00:00Z,3.13,101.55,27.0,25.0,0,2,,6.21,29.793306,,,,,,,,,,,FEW,2600,,,,,,,VFR,,,,,,,,,,,,METAR,27.0
WMKJ 052200Z VRB05KT 9999 FEW010 FEW017CB 26/24 Q1008,WMKJ,2020-05-05T22:00:00Z,1.62,103.67,26.0,24.0,0,5,,6.21,29.763779,,,,,,,,,,,FEW,1000,FEW,1700,,,,,VFR,,,,,,,,,,,,METAR,40.0
WMKP 052200Z 00000KT 8000 -RA SCT025 27/26 Q1008 NOSIG,WMKP,2020-05-05T22:00:00Z,5.28,100.27,27.0,26.0,0,0,,4.97,29.763779,,,,,,TRUE,,,,-RA,SCT,2500,,,,,,,MVFR,,,,,,,,,,,,METAR,4.0
WMKK 052200Z VRB02KT 9999 FEW017CB 26/24 Q1008 NOSIG,WMKK,2020-05-05T22:00:00Z,2.75,101.72,26.0,24.0,0,2,,6.21,29.763779,,,,,,TRUE,,,,,FEW,1700,,,,,,,VFR,,,,,,,,,,,,METAR,22.0
WBSB 052200Z 17001KT 9999 FEW005 BKN140 26/25 Q1009 NOSIG,WBSB,2020-05-05T22:00:00Z,4.92,114.92,26.0,25.0,170,1,,6.21,29.793306,,,,,,TRUE,,,,,FEW,500,BKN,14000,,,,,VFR,,,,,,,,,,,,METAR,15.0
WBKK 052200Z 08004KT 9999 FEW014 24/23 Q1009 NOSIG,WBKK,2020-05-05T22:00:00Z,5.92,116.03,24.0,23.0,80,4,,6.21,29.793306,,,,,,TRUE,,,,,FEW,1400,,,,,,,VFR,,,,,,,,,,,,METAR,3.0
FAOB 052200Z AUTO 27072KT //// // ////// 15/13 Q1027,FAOB,2020-05-05T22:00:00Z,-34.6,20.27,15.0,13.0,270,72,,,30.324802,,,TRUE,,,,,,,,,,,,,,,,,,,,,,,,,,,,METAR,75.0
FABL 052200Z AUTO VRB01KT //// R02///// // ///////// 07/03 Q1028,FABL,2020-05-05T22:00:00Z,-29.1,26.3,7.0,3.0,0,1,,,30.35433,,,TRUE,,,,,,,,,,,,,,,,,,,,,,,,,,,,METAR,1348.0
FDST 052200Z AUTO /////KT //// // ////// 16/16 Q1023,FDST,2020-05-05T22:00:00Z,-26.43,31.95,16.0,16.0,,,,,30.206694,,,TRUE,,,,,,,,,,,,,,,,,,,,,,,,,,,,METAR,667.0
FDPP 052200Z AUTO 19003KT //// // ////// 15/12 Q1028,FDPP,2020-05-05T22:00:00Z,-25.97,31.25,15.0,12.0,190,3,,,30.35433,,,TRUE,,,,,,,,,,,,,,,,,,,,,,,,,,,,METAR,1099.0
FDOT 052200Z AUTO 28001KT //// // ////// 17/15 Q1024,FDOT,2020-05-05T22:00:00Z,-26.7,31.43,17.0,15.0,280,1,,,30.236221,,,TRUE,,,,,,,,,,,,,,,,,,,,,,,,,,,,METAR,341.0
FDMY 052200Z AUTO 01002KT //// // ////// 16/14 Q1033,FDMY,2020-05-05T22:00:00Z,-25.87,31.52,16.0,14.0,10,2,,,30.501968,,,TRUE,,,,,,,,,,,,,,,,,,,,,,,,,,,,METAR,480.0
FDBB 052200Z AUTO 20005KT //// // ////// 20/17 Q1022,FDBB,2020-05-05T22:00:00Z,-26.85,31.92,20.0,17.0,200,5,,,30.177166,,,TRUE,,,,,,,,,,,,,,,,,,,,,,,,,,,,METAR,94.0
CZUM 052200Z AUTO 03010KT 9SM FEW044 01/M07 A2986 RMK SLP138,CZUM,2020-05-05T22:00:00Z,53.53,-64.08,1.0,-7.0,30,10,,9.0,29.861221,1013.8,,TRUE,,,,,,,,FEW,4400,,,,,,,VFR,,,,,,,,,,,,METAR,440.0
CZPC 052200Z AUTO 10005G15KT 060V150 9SM CLR 15/M05 A3018 RMK SLP244 DENSITY ALT 4500FT,CZPC,2020-05-05T22:00:00Z,49.52,-114.0,15.0,-5.0,100,5,15,9.0,30.180119,1024.4,,TRUE,,,,,,,,CLR,,,,,,,,VFR,,,,,,,,,,,,METAR,1190.0
CZFN 052200Z 10004KT 060V130 15SM FEW220 12/M01 A3005 RMK CI1 CI TR SLP185,CZFN,2020-05-05T22:00:00Z,64.92,-125.57,12.0,-1.0,100,4,,15.0,30.050198,1018.5,,,,,,,,,,FEW,22000,,,,,,,VFR,,,,,,,,,,,,METAR,98.0
CZFM 052200Z 15003KT 2 1/2SM -SN BKN005 OVC017 01/00 A3001 RMK ST6SC2 SLP168,CZFM,2020-05-05T22:00:00Z,67.4,-134.87,1.0,0.0,150,3,,2.5,30.008858,1016.8,,,,,,,,,-SN,BKN,500,OVC,1700,,,,,IFR,,,,,,,,,,,,METAR,43.0
SCQP 052200Z AUTO 17005KT CAVOK 14/08 Q1022,SCQP,2020-05-05T22:00:00Z,-38.92,-72.65,14.0,8.0,170,5,,6.21,30.177166,,,TRUE,,,,,,,,CAVOK,,,,,,,,VFR,,,,,,,,,,,,METAR,97.0
SCSE 052200Z 28010KT 9999 SCT010 SCT250 14/12 Q1012,SCSE,2020-05-05T22:00:00Z,-29.92,-71.2,14.0,12.0,280,10,,6.21,29.88189,,,,,,,,,,,SCT,1000,SCT,25000,,,,,VFR,,,,,,,,,,,,METAR,146.0
SCDA 052200Z 23009KT 9999 FEW030 19/14 Q1011,SCDA,2020-05-05T22:00:00Z,-20.52,-70.17,19.0,14.0,230,9,,6.21,29.852362,,,,,,,,,,,FEW,3000,,,,,,,VFR,,,,,,,,,,,,METAR,52.0
SCAT 052200Z 28005KT 240V310 9999 FEW020 17/12 Q1013,SCAT,2020-05-05T22:00:00Z,-27.27,-70.77,17.0,12.0,280,5,,6.21,29.911417,,,,,,,,,,,FEW,2000,,,,,,,VFR,,,,,,,,,,,,METAR,204.0
SCIE 052200Z 22007KT CAVOK 16/12 Q1018,SCIE,2020-05-05T22:00:00Z,-36.77,-73.07,16.0,12.0,220,7,,6.21,30.059055,,,,,,,,,,,CAVOK,,,,,,,,VFR,,,,,,,,,,,,METAR,16.0
SCCF 052200Z 28015KT CAVOK 20/M10 Q1024,SCCF,2020-05-05T22:00:00Z,-22.5,-68.9,20.0,-10.0,280,15,,6.21,30.236221,,,,,,,,,,,CAVOK,,,,,,,,VFR,,,,,,,,,,,,METAR,2312.0
SCAR 052200Z 21007KT CAVOK 19/15 Q1011,SCAR,2020-05-05T22:00:00Z,-18.35,-70.32,19.0,15.0,210,7,,6.21,29.852362,,,,,,,,,,,CAVOK,,,,,,,,VFR,,,,,,,,,,,,METAR,59.0
SCFA 052200Z 19011KT 9999 SCT013 SCT017 16/12 Q1011 NOSIG,SCFA,2020-05-05T22:00:00Z,-23.42,-70.42,16.0,12.0,190,11,,6.21,29.852362,,,,,,TRUE,,,,,SCT,1300,SCT,1700,,,,,VFR,,,,,,,,,,,,METAR,120.0
SCCY 052200Z 18002KT CAVOK 07/04 Q1024,SCCY,2020-05-05T22:00:00Z,-45.57,-72.1,7.0,4.0,180,2,,6.21,30.236221,,,,,,,,,,,CAVOK,,,,,,,,VFR,,,,,,,,,,,,METAR,311.0
SCIC 052200Z 20009KT CAVOK 17/09 Q1015,SCIC,2020-05-05T22:00:00Z,-34.97,-71.22,17.0,9.0,200,9,,6.21,29.970472,,,,,,,,,,,CAVOK,,,,,,,,VFR,,,,,,,,,,,,METAR,242.0
SCGE 052200Z 18014KT CAVOK 15/08 Q1020,SCGE,2020-05-05T22:00:00Z,-37.38,-72.42,15.0,8.0,180,14,,6.21,30.11811,,,,,,,,,,,CAVOK,,,,,,,,VFR,,,,,,,,,,,,METAR,114.0
SCRM 052200Z 23012KT 9999 OVC015 M02/M04 Q1003 NOSIG,SCRM,2020-05-05T22:00:00Z,-62.18,-58.98,-2.0,-4.0,230,12,,6.21,29.616142,,,,,,TRUE,,,,,OVC,1500,,,,,,,MVFR,,,,,,,,,,,,METAR,45.0
SCCH 052200Z 22012KT CAVOK 17/10 Q1016,SCCH,2020-05-05T22:00:00Z,-36.57,-72.02,17.0,10.0,220,12,,6.21,30.0,,,,,,,,,,,CAVOK,,,,,,,,VFR,,,,,,,,,,,,METAR,148.0
SCTN 052200Z AUTO VRB02KT CAVOK 10/09 Q1025,SCTN,2020-05-05T22:00:00Z,-42.92,-72.7,10.0,9.0,0,2,,6.21,30.265747,,,TRUE,,,,,,,,CAVOK,,,,,,,,VFR,,,,,,,,,,,,METAR,4.0
SCPQ 052200Z AUTO 17001KT CAVOK 09/08 Q1025,SCPQ,2020-05-05T22:00:00Z,-42.33,-73.72,9.0,8.0,170,1,,6.21,30.265747,,,TRUE,,,,,,,,CAVOK,,,,,,,,VFR,,,,,,,,,,,,METAR,5.0
SCIP 052200Z AUTO 31011KT 9999 FEW011/// OVC043/// 24/21 Q1012 NOSIG,SCIP,2020-05-05T22:00:00Z,-27.17,-109.43,24.0,21.0,310,11,,6.21,29.88189,,,TRUE,,,TRUE,,,,,FEW,1100,OVC,4300,,,,,VFR,,,,,,,,,,,,METAR,69.0
SPSO 052200Z 20009KT CAVOK 21/16 Q1008 RMK BKN180 BIRD HAZARD RWY 22/04 TX22.1 PP000,SPSO,2020-05-05T22:00:00Z,-13.73,-76.22,21.0,16.0,200,9,,6.21,29.763779,,,,,,,,,,,CAVOK,,,,,,,,VFR,,,,,,,,,,,,METAR,10.0
SPQT 052200Z 36006KT 9999 SCT020 28/25 Q1007 NOSIG RMK TX31.8 BIRD HAZARD RWY 06/24 PP000,SPQT,2020-05-05T22:00:00Z,-3.78,-73.32,28.0,25.0,360,6,,6.21,29.734253,,,,,,TRUE,,,,,SCT,2000,,,,,,,VFR,,,,,,,,,,,,METAR,126.0
SCVD 052200Z VRB02KT CAVOK 11/09 Q1024,SCVD,2020-05-05T22:00:00Z,-39.65,-73.07,11.0,9.0,0,2,,6.21,30.236221,,,,,,,,,,,CAVOK,,,,,,,,VFR,,,,,,,,,,,,METAR,14.0
WBGB 052200Z VRB03KT 9999 FEW016 BKN150 25/24 Q1009,WBGB,2020-05-05T22:00:00Z,3.12,113.02,25.0,24.0,0,3,,6.21,29.793306,,,,,,,,,,,FEW,1600,BKN,15000,,,,,VFR,,,,,,,,,,,,METAR,5.0
CWJV 052200Z AUTO 28003KT 20/00 RMK AO1 SLP198 T01970000 58023,CWJV,2020-05-05T22:00:00Z,50.22,-119.18,19.7,0.0,280,3,,,,1019.8,,TRUE,TRUE,,,,,,,,,,,,,,,,-2.3,,,,,,,,,,,METAR,556.0
CWJU 052200Z AUTO 10011G17KT 12/04 RMK AO1 PK WND 11022/2118 SLP168 T01220044 56001,CWJU,2020-05-05T22:00:00Z,54.25,-133.07,12.2,4.4,100,11,17,,,1016.8,,TRUE,TRUE,,,,,,,,,,,,,,,,-0.1,,,,,,,,,,,METAR,41.0
CWJT 052200Z AUTO 00032KT 10/M03 RMK AO1 SLP137 T00991034 55000,CWJT,2020-05-05T22:00:00Z,46.07,-74.57,9.9,-3.4,0,32,,,,1013.7,,TRUE,TRUE,,,,,,,,,,,,,,,,0.0,,,,,,,,,,,METAR,239.0
CWJR 052200Z AUTO 20002KT 20/03 RMK AO1 SLP222 T02030026 56022,CWJR,2020-05-05T22:00:00Z,49.07,-116.5,20.3,2.6,200,2,,,,1022.2,,TRUE,TRUE,,,,,,,,,,,,,,,,-2.2,,,,,,,,,,,METAR,646.0
CWJI 052200Z AUTO 33010KT 14/M02 RMK AO1 SLP261 T01421020 51006,CWJI,2020-05-05T22:00:00Z,49.72,-105.92,14.2,-2.0,330,10,,,,1026.1,,TRUE,TRUE,,,,,,,,,,,,,,,,0.6,,,,,,,,,,,METAR,724.0
CWLC 052200Z AUTO 13016KT 10/04 RMK AO1 PK WND 13020/2107 T01030039,CWLC,2020-05-05T22:00:00Z,54.3,-130.62,10.3,3.9,130,16,,,,,,TRUE,TRUE,,,,,,,,,,,,,,,,,,,,,,,,,,,METAR,27.0
CWLE 052200Z AUTO 35005KT 15/M02 RMK AO1 SLP261 T01531018 51002,CWLE,2020-05-05T22:00:00Z,50.95,-107.15,15.3,-1.8,350,5,,,,1026.1,,TRUE,TRUE,,,,,,,,,,,,,,,,0.2,,,,,,,,,,,METAR,665.0
CWLM 052200Z AUTO 01007KT 18/08 RMK AO1 SLP180 T01770082 57026,CWLM,2020-05-05T22:00:00Z,48.42,-123.32,17.7,8.2,10,7,,,,1018.0,,TRUE,TRUE,,,,,,,,,,,,,,,,-2.6,,,,,,,,,,,METAR,70.0
CWMJ 052200Z AUTO 33007KT 10/M08 RMK AO1 SLP149 T00971076 55003,CWMJ,2020-05-05T22:00:00Z,46.27,-76.0,9.7,-7.6,330,7,,,,1014.9,,TRUE,TRUE,,,,,,,,,,,,,,,,-0.3,,,,,,,,,,,METAR,200.0
CWMM 052200Z AUTO 02007KT 21/06 RMK AO1 SLP182 T02130057 56029,CWMM,2020-05-05T22:00:00Z,49.22,-122.68,21.3,5.7,20,7,,,,1018.2,,TRUE,TRUE,,,,,,,,,,,,,,,,-2.9,,,,,,,,,,,METAR,5.0
CWMQ 052200Z AUTO 24001KT 14/01 RMK AO1 SLP264 T01440007 58007,CWMQ,2020-05-05T22:00:00Z,49.9,-109.47,14.4,0.7,240,1,,,,1026.4,,TRUE,TRUE,,,,,,,,,,,,,,,,-0.7,,,,,,,,,,,METAR,767.0
CWSP 052200Z AUTO 10006KT 13/ RMK AO1 SLP184 T0125 58022,CWSP,2020-05-05T22:00:00Z,48.38,-123.92,12.5,,100,6,,,,1018.4,,TRUE,TRUE,,,,,,,,,,,,,,,,-2.2,,,,,,,,,,,METAR,21.0
CWEL 052200Z AUTO 01004KT 13/09 RMK AO1 6028 SLP189 T01330090 50002,CWEL,2020-05-05T22:00:00Z,49.22,-123.78,13.3,9.0,10,4,,,,1018.9,,TRUE,TRUE,,,,,,,,,,,,,,,,0.2,,,,,,,,,,,METAR,5.0
CWEW 052200Z AUTO 31005KT 11/M02 RMK AO1 SLP136 T01071017 53002,CWEW,2020-05-05T22:00:00Z,45.82,-73.43,10.7,-1.7,310,5,,,,1013.6,,TRUE,TRUE,,,,,,,,,,,,,,,,0.2,,,,,,,,,,,METAR,21.0
CWFJ 052200Z AUTO 11003KT 17/M04 RMK AO1 T01721043,CWFJ,2020-05-05T22:00:00Z,49.2,-113.27,17.2,-4.3,110,3,,,,,,TRUE,TRUE,,,,,,,,,,,,,,,,,,,,,,,,,,,METAR,1136.0
CWFF 052200Z AUTO 03010KT 12/05 RMK AO1 SLP248 T01220052 53006,CWFF,2020-05-05T22:00:00Z,52.82,-104.58,12.2,5.2,30,10,,,,1024.8,,TRUE,TRUE,,,,,,,,,,,,,,,,0.6,,,,,,,,,,,METAR,490.0
CWFQ 052200Z AUTO 33002KT 07/M02 RMK AO1 SLP131 T00651023 53002,CWFQ,2020-05-05T22:00:00Z,45.03,-72.85,6.5,-2.3,330,2,,,,1013.1,,TRUE,TRUE,,,,,,,,,,,,,,,,0.2,,,,,,,,,,,METAR,190.0
CWGD 052200Z AUTO 36011KT 07/M02 RMK AO1 PK WND 34017/2104 SLP170 T00661021 56015,CWGD,2020-05-05T22:00:00Z,43.77,-81.72,6.6,-2.1,360,11,,,,1017.0,,TRUE,TRUE,,,,,,,,,,,,,,,,-1.5,,,,,,,,,,,METAR,214.0
CWGH 052200Z AUTO 21003KT 09/M01 RMK AO1 SLP147 T00891013 56005,CWGH,2020-05-05T22:00:00Z,44.42,-75.85,8.9,-1.3,210,3,,,,1014.7,,TRUE,TRUE,,,,,,,,,,,,,,,,-0.5,,,,,,,,,,,METAR,82.0
CWGL 052200Z AUTO 29010KT 08/M02 RMK AO1 PK WND 27019/2110 SLP133 T00801021 56012,CWGL,2020-05-05T22:00:00Z,44.52,-79.22,8.0,-2.1,290,10,,,,1013.3,,TRUE,TRUE,,,,,,,,,,,,,,,,-1.2,,,,,,,,,,,METAR,221.0
CWGM 052200Z AUTO 22009G16KT 16/M05 RMK AO1 T01621054,CWGM,2020-05-05T22:00:00Z,49.13,-113.78,16.2,-5.4,220,9,16,,,,,TRUE,TRUE,,,,,,,,,,,,,,,,,,,,,,,,,,,METAR,1296.0
CERM 052200Z AUTO 34004KT 05/M01 RMK AO1 PK WND 01019/2104 SLP103 T00461007 51020,CERM,2020-05-05T22:00:00Z,47.42,-68.32,4.6,-0.7,340,4,,,,1010.3,,TRUE,TRUE,,,,,,,,,,,,,,,,2.0,,,,,,,,,,,METAR,154.0
CWBK 052200Z AUTO 32021KT 02/01 RMK AO1 PK WND 32026/2134 SLP988 T00230005 53017,CWBK,2020-05-05T22:00:00Z,45.77,-62.67,2.3,0.5,320,21,,,,998.8,,TRUE,TRUE,,,,,,,,,,,,,,,,1.7,,,,,,,,,,,METAR,2.0
CYPH 052200Z AUTO 18012G22KT 9SM FEW045 SCT060 M05/M08 A2994 RMK SLP141,CYPH,2020-05-05T22:00:00Z,58.45,-78.08,-5.0,-8.0,180,12,22,9.0,29.940945,1014.1,,TRUE,,,,,,,,FEW,4500,SCT,6000,,,,,VFR,,,,,,,,,,,,METAR,3.0
CYOY 052200Z AUTO 13004KT 110V170 9SM FEW052 OVC062 09/04 A2986 RMK SLP119,CYOY,2020-05-05T22:00:00Z,46.88,-71.5,9.0,4.0,130,4,,9.0,29.861221,1011.9,,TRUE,,,,,,,,FEW,5200,OVC,6200,,,,,VFR,,,,,,,,,,,,METAR,168.0
CYNM 052200Z AUTO 33007KT 300V030 9SM CLR 04/M12 A3002 RMK SLP183,CYNM,2020-05-05T22:00:00Z,49.77,-77.82,4.0,-12.0,330,7,,9.0,30.02067,1018.3,,TRUE,,,,,,,,CLR,,,,,,,,VFR,,,,,,,,,,,,METAR,281.0
CYMT 052200Z AUTO 36008KT 320V020 9SM CLR 05/M08 A2993 RMK SLP158,CYMT,2020-05-05T22:00:00Z,49.77,-74.52,5.0,-8.0,360,8,,9.0,29.929134,1015.8,,TRUE,,,,,,,,CLR,,,,,,,,VFR,,,,,,,,,,,,METAR,387.0
CYGV 052200Z AUTO 02014G22KT 9SM BKN120 BKN140 05/M05 A2970 RMK SLP062,CYGV,2020-05-05T22:00:00Z,50.27,-63.62,5.0,-5.0,20,14,22,9.0,29.698818,1006.2,,TRUE,,,,,,,,BKN,12000,BKN,14000,,,,,VFR,,,,,,,,,,,,METAR,33.0
CYBX 052200Z 04028G36KT 3SM -SN FEW010 BKN025 OVC035 01/M00 A2960 RMK SC2SC3SC3 SLP027,CYBX,2020-05-05T22:00:00Z,51.45,-57.17,1.0,0.0,40,28,36,3.0,29.601377,1002.7,,,,,,,,,-SN,FEW,1000,BKN,2500,OVC,3500,,,MVFR,,,,,,,,,,,,METAR,35.0
CYAH 052200Z AUTO 33004KT 260V350 9SM CLR 03/M13 A2996 RMK SLP167,CYAH,2020-05-05T22:00:00Z,53.75,-73.67,3.0,-13.0,330,4,,9.0,29.958662,1016.7,,TRUE,,,,,,,,CLR,,,,,,,,VFR,,,,,,,,,,,,METAR,306.0
CYSJ 052200Z 01013G22KT 15SM -RA BKN017 BKN034 03/00 A2970 RMK SC6SC1 SLP064,CYSJ,2020-05-05T22:00:00Z,45.32,-65.87,3.0,0.0,10,13,22,15.0,29.698818,1006.4,,,,,,,,,-RA,BKN,1700,BKN,3400,,,,,MVFR,,,,,,,,,,,,METAR,109.0
CYGW 052200Z AUTO 27003KT 240V340 9SM SCT055 M02/M09 A3001 RMK SLP166,CYGW,2020-05-05T22:00:00Z,55.27,-77.77,-2.0,-9.0,270,3,,9.0,30.008858,1016.6,,TRUE,,,,,,,,SCT,5500,,,,,,,VFR,,,,,,,,,,,,METAR,12.0
CYDP 052200Z 08010KT 15SM FEW022 M03/M06 A3004 RMK SC1 SLP173,CYDP,2020-05-05T22:00:00Z,56.53,-61.67,-3.0,-6.0,80,10,,15.0,30.041338,1017.3,,,,,,,,,,FEW,2200,,,,,,,VFR,,,,,,,,,,,,METAR,7.0
CWEB 052200Z AUTO 15007KT 12/06 RMK AO1 SLP181 T01240057 56025,CWEB,2020-05-05T22:00:00Z,49.38,-126.55,12.4,5.7,150,7,,,,1018.1,,TRUE,TRUE,,,,,,,,,,,,,,,,-2.5,,,,,,,,,,,METAR,7.0
CWSL 052200Z AUTO 34004KT 19/06 RMK AO1 SLP208 T01880062 58024,CWSL,2020-05-05T22:00:00Z,50.7,-119.27,18.8,6.2,340,4,,,,1020.8,,TRUE,TRUE,,,,,,,,,,,,,,,,-2.4,,,,,,,,,,,METAR,351.0
CWST 052200Z AUTO 02009KT 07/M02 RMK AO1 PK WND 05017/2123 SLP119 T00661015 53011,CWST,2020-05-05T22:00:00Z,47.35,-70.02,6.6,-1.5,20,9,,,,1011.9,,TRUE,TRUE,,,,,,,,,,,,,,,,1.1,,,,,,,,,,,METAR,31.0
CWKX 052200Z AUTO 22010KT 04/03 RMK AO1 2PAST HR 1018 SLP217 P0001 T00420030 50002,CWKX,2020-05-05T22:00:00Z,58.43,-130.02,4.2,3.0,220,10,,,,1021.7,,TRUE,TRUE,,,,,,,,,,,,,,,,0.2,,,,,0.01,,,,,,METAR,793.0
CWKH 052200Z AUTO 16/ RMK AO1 SLP177 T0160 57022,CWKH,2020-05-05T22:00:00Z,48.57,-123.55,16.0,,,,,,,1017.7,,TRUE,TRUE,,,,,,,,,,,,,,,,-2.2,,,,,,,,,,,METAR,366.0
CWKG 052200Z AUTO 05006G15KT 04/01 RMK AO1 PK WND 02021/2147 SLP042 T00390005 51030,CWKG,2020-05-05T22:00:00Z,44.43,-65.2,3.9,0.5,50,6,15,,,1004.2,,TRUE,TRUE,,,,,,,,,,,,,,,,3.0,,,,,,,,,,,METAR,165.0
CWJX 052200Z AUTO 11003KT 17/M04 RMK AO1 SLP257 T01681041 58003,CWJX,2020-05-05T22:00:00Z,50.88,-109.5,16.8,-4.1,110,3,,,,1025.7,,TRUE,TRUE,,,,,,,,,,,,,,,,-0.3,,,,,,,,,,,METAR,672.0
CWJW 052200Z AUTO 17007KT 14/M08 RMK AO1 SOG 01 5000 PK WND 20017/2118 SLP237 T01411077,CWJW,2020-05-05T22:00:00Z,52.93,-118.03,14.1,-7.7,170,7,,,,1023.7,,TRUE,TRUE,,,,,,,,,,,,,,,,,,,,,,,,,,,METAR,1020.0
SESM 052200Z 35005KT 9999 SCT030 BKN100 24/19 Q1013 RMK A2993,SESM,2020-05-05T22:00:00Z,-1.5,-78.07,24.0,19.0,350,5,,6.21,29.911417,,,,,,,,,,,SCT,3000,BKN,10000,,,,,VFR,,,,,,,,,,,,METAR,1056.0
CWXI 052200Z AUTO M00/M00 RMK AO1 SLP999 T10011002 58023,CWXI,2020-05-05T22:00:00Z,51.02,-57.1,-0.1,-0.2,,,,,,999.9,,TRUE,TRUE,,,,,,,,,,,,,,,,-2.3,,,,,,,,,,,METAR,6.0
CXNP 052200Z AUTO 35016KT 01/01 RMK AO1 7PAST HR 1028 PK WND 33022/2114 SLP038 P0003 T00140009 50016,CXNP,2020-05-05T22:00:00Z,45.75,-64.23,1.4,0.9,350,16,,,,1003.8,,TRUE,TRUE,,,,,,,,,,,,,,,,1.6,,,,,0.03,,,,,,METAR,20.0
SECO 052200Z 16003KT 9999 FEW026 SCT100 28/24 Q1009 RMK A2981,SECO,2020-05-05T22:00:00Z,-0.45,-76.98,28.0,24.0,160,3,,6.21,29.793306,,,,,,,,,,,FEW,2600,SCT,10000,,,,,VFR,,,,,,,,,,,,METAR,220.0
SENL 052200Z 10003KT CAVOK 29/24 Q1010 RMK A2984,SENL,2020-05-05T22:00:00Z,0.1,-76.87,29.0,24.0,100,3,,6.21,29.822834,,,,,,,,,,,CAVOK,,,,,,,,VFR,,,,,,,,,,,,METAR,293.0
SEJD 052200Z 08003KT 9999 FEW013 BKN090 24/24 Q1010 RMK A2983,SEJD,2020-05-05T22:00:00Z,-1.07,-77.58,24.0,24.0,80,3,,6.21,29.822834,,,,,,,,,,,FEW,1300,BKN,9000,,,,,VFR,,,,,,,,,,,,METAR,375.0
SECU 052200Z 06009KT 9999 BKN040 20/11 Q1023,SECU,2020-05-05T22:00:00Z,-2.87,-78.97,20.0,11.0,60,9,,6.21,30.206694,,,,,,,,,,,BKN,4000,,,,,,,VFR,,,,,,,,,,,,METAR,2531.0
SERO 052200Z 31007KT 9999 FEW030 BKN080 30/23 Q1007,SERO,2020-05-05T22:00:00Z,-3.43,-79.98,30.0,23.0,310,7,,6.21,29.734253,,,,,,,,,,,FEW,3000,BKN,8000,,,,,VFR,,,,,,,,,,,,METAR,51.0
SESA 052200Z 24005KT CAVOK 27/22 Q1007 RMK A2975,SESA,2020-05-05T22:00:00Z,-2.2,-80.97,27.0,22.0,240,5,,6.21,29.734253,,,,,,,,,,,CAVOK,,,,,,,,VFR,,,,,,,,,,,,METAR,8.0
SELT 052200Z 18013KT 9999 VCSH SCT026 SCT100 BKN300 12/10 Q1027,SELT,2020-05-05T22:00:00Z,-0.92,-78.62,12.0,10.0,180,13,,6.21,30.324802,,,,,,,,,,VCSH,SCT,2600,SCT,10000,BKN,30000,,,VFR,,,,,,,,,,,,METAR,2785.0
SEMT 052200Z 28008KT 9999 BKN023 30/22 Q1007 RMK A2975,SEMT,2020-05-05T22:00:00Z,-0.95,-80.67,30.0,22.0,280,8,,6.21,29.734253,,,,,,,,,,,BKN,2300,,,,,,,MVFR,,,,,,,,,,,,SPECI,14.0
SEQM 052200Z 09006KT 050V140 9999 BKN036 SCT080 21/07 Q1022 NOSIG RMK A3020,SEQM,2020-05-05T22:00:00Z,-0.12,-78.35,21.0,7.0,90,6,,6.21,30.177166,,,,,,TRUE,,,,,BKN,3600,SCT,8000,,,,,VFR,,,,,,,,,,,,SPECI,2400.0
SECA 052200Z 01007KT 320V040 9999 BKN040 28/16 Q1013,SECA,2020-05-05T22:00:00Z,-4.0,-79.37,28.0,16.0,10,7,,6.21,29.911417,,,,,,,,,,,BKN,4000,,,,,,,VFR,,,,,,,,,,,,METAR,1121.0
SLTR 052200Z 34003KT 9999 FEW020 29/25 Q1007,SLTR,2020-05-05T22:00:00Z,-14.83,-64.92,29.0,25.0,340,3,,6.21,29.734253,,,,,,,,,,,FEW,2000,,,,,,,VFR,,,,,,,,,,,,METAR,157.0
SPCL 052200Z 01004KT 9999 FEW025 31/23 Q1007 RMK TX32.6 BIRD HAZARD RWY 02/20 PP000,SPCL,2020-05-05T22:00:00Z,-8.38,-74.58,31.0,23.0,10,4,,6.21,29.734253,,,,,,,,,,,FEW,2500,,,,,,,VFR,,,,,,,,,,,,SPECI,149.0
MYSM 052200Z AUTO 11010KT 9999 SCT025/// 27/21 A2996,MYSM,2020-05-05T22:00:00Z,24.05,-74.52,27.0,21.0,110,10,,6.21,29.958662,,,TRUE,,,,,,,,SCT,2500,,,,,,,VFR,,,,,,,,,,,,METAR,5.0
SCMK 052200Z 36003KT 9999 FEW023 SCT210 10/08 Q1025,SCMK,2020-05-05T22:00:00Z,-43.9,-73.73,10.0,8.0,360,3,,6.21,30.265747,,,,,,,,,,,FEW,2300,SCT,21000,,,,,VFR,,,,,,,,,,,,METAR,11.0
SCAP 052200Z AUTO VRB01KT 9999 ////// 06/04 Q1029,SCAP,2020-05-05T22:00:00Z,-43.62,-71.78,6.0,4.0,0,1,,6.21,30.383858,,,TRUE,,,,,,,,,,,,,,,,,,,,,,,,,,,,METAR,277.0
SCFT 052200Z AUTO 12003KT 060V160 CAVOK 06/04 Q1027,SCFT,2020-05-05T22:00:00Z,-43.17,-71.85,6.0,4.0,120,3,,6.21,30.324802,,,TRUE,,,,,,,,CAVOK,,,,,,,,VFR,,,,,,,,,,,,METAR,318.0
SCON 052200Z AUTO VRB01KT CAVOK 09/08 Q1026,SCON,2020-05-05T22:00:00Z,-43.12,-73.62,9.0,8.0,0,1,,6.21,30.295275,,,TRUE,,,,,,,,CAVOK,,,,,,,,VFR,,,,,,,,,,,,METAR,3.0
SCJO 052200Z AUTO 00000KT 9999 ///////// 12/09 Q1024,SCJO,2020-05-05T22:00:00Z,-40.6,-73.03,12.0,9.0,0,0,,6.21,30.236221,,,TRUE,,,,,,,,,,,,,,,,,,,,,,,,,,,,METAR,65.0
SCRG 052200Z 20005KT CAVOK 19/06 Q1015,SCRG,2020-05-05T22:00:00Z,-34.17,-70.77,19.0,6.0,200,5,,6.21,29.970472,,,,,,,,,,,CAVOK,,,,,,,,VFR,,,,,,,,,,,,METAR,441.0
SCTB 052200Z 00000KT CAVOK 22/04 Q1015,SCTB,2020-05-05T22:00:00Z,-33.45,-70.53,22.0,4.0,0,0,,6.21,29.970472,,,,,,,,,,,CAVOK,,,,,,,,VFR,,,,,,,,,,,,METAR,649.0
SCRD 052200Z 17017KT CAVOK 21/09 Q1013,SCRD,2020-05-05T22:00:00Z,-33.07,-71.55,21.0,9.0,170,17,,6.21,29.911417,,,,,,,,,,,CAVOK,,,,,,,,VFR,,,,,,,,,,,,METAR,336.0
SCSN 052200Z 24003KT 200V340 CAVOK 18/12 Q1014,SCSN,2020-05-05T22:00:00Z,-33.63,-71.62,18.0,12.0,240,3,,6.21,29.940945,,,,,,,,,,,CAVOK,,,,,,,,VFR,,,,,,,,,,,,METAR,75.0
SCFM 052200Z 17008KT CAVOK 03/00 Q1020,SCFM,2020-05-05T22:00:00Z,-53.25,-70.32,3.0,0.0,170,8,,6.21,30.11811,,,,,,,,,,,CAVOK,,,,,,,,VFR,,,,,,,,,,,,METAR,30.0
SCCI 052200Z 03005KT CAVOK 05/03 Q1019 NOSIG,SCCI,2020-05-05T22:00:00Z,-53.0,-70.83,5.0,3.0,30,5,,6.21,30.088583,,,,,,TRUE,,,,,CAVOK,,,,,,,,VFR,,,,,,,,,,,,METAR,37.0
SEGS 052200Z 12014KT 9999 VCSH BKN020 26/24 Q1008 A2979,SEGS,2020-05-05T22:00:00Z,-0.45,-90.27,26.0,24.0,120,14,,6.21,29.763779,,,,,,,,,,VCSH,BKN,2000,,,,,,,MVFR,,,,,,,,,,,,METAR,16.0
SEMC 052200Z 03008KT 9999 SCT030 BKN100 22/20 Q1014 RMK A2994,SEMC,2020-05-05T22:00:00Z,-2.3,-78.12,22.0,20.0,30,8,,6.21,29.940945,,,,,,,,,,,SCT,3000,BKN,10000,,,,,VFR,,,,,,,,,,,,METAR,1052.0
FAOR 052200Z 22006KT CAVOK 13/00 Q1029 NOSIG,FAOR,2020-05-05T22:00:00Z,-26.12,28.22,13.0,0.0,220,6,,6.21,30.383858,,,,,,TRUE,,,,,CAVOK,,,,,,,,VFR,,,,,,,,,,,,METAR,1700.0
CZDB 052200Z AUTO 34012G23KT 02/M00 RMK AO1 2027 PK WND 34023/2157 SLP013 T00181003 50002,CZDB,2020-05-05T22:00:00Z,45.42,-63.47,1.8,-0.3,340,12,23,,,1001.3,,TRUE,TRUE,,,,,,,,,,,,,,,,0.2,,,,,,,,,,,METAR,38.0
CZCR 052200Z AUTO 23004KT 03/M00 RMK AO1 8002 SLP080 T00341004 50002,CZCR,2020-05-05T22:00:00Z,47.97,-66.32,3.4,-0.4,230,4,,,,1008.0,,TRUE,TRUE,,,,,,,,,,,,,,,,0.2,,,,,,,,,,,METAR,38.0
UTNN 052200Z 32002KT CAVOK 16/08 Q1016 R33/CLRD60 NOSIG,UTNN,2020-05-05T22:00:00Z,42.48,59.63,16.0,8.0,320,2,,6.21,30.0,,,,,,TRUE,,,,,CAVOK,,,,,,,,VFR,,,,,,,,,,,,METAR,67.0
UTNU 052200Z 33004KT CAVOK 15/11 Q1015 R31/CLRD70 NOSIG,UTNU,2020-05-05T22:00:00Z,41.58,60.63,15.0,11.0,330,4,,6.21,29.970472,,,,,,TRUE,,,,,CAVOK,,,,,,,,VFR,,,,,,,,,,,,METAR,98.0
CZSP 052200Z AUTO 35016G27KT 01/M00 RMK AO1 2PAST HR 1013 PK WND 35027/2155 SLP011 P0001 T00131003 50009,CZSP,2020-05-05T22:00:00Z,46.45,-62.58,1.3,-0.3,350,16,27,,,1001.1,,TRUE,TRUE,,,,,,,,,,,,,,,,0.9,,,,,0.01,,,,,,METAR,30.0
CWDV 052200Z AUTO 31006KT 15/M09 RMK AO1 SLP171 T01471091 56012,CWDV,2020-05-05T22:00:00Z,49.02,-90.47,14.7,-9.1,310,6,,,,1017.1,,TRUE,TRUE,,,,,,,,,,,,,,,,-1.2,,,,,,,,,,,METAR,489.0
CWWB 052200Z AUTO 07006KT 06/01 RMK AO1 SLP146 T00640009 56013,CWWB,2020-05-05T22:00:00Z,43.3,-79.78,6.4,0.9,70,6,,,,1014.6,,TRUE,TRUE,,,,,,,,,,,,,,,,-1.3,,,,,,,,,,,METAR,76.0
CWLS 052200Z AUTO 02007KT 09/M08 RMK AO1 SLP162 T00891080 56008,CWLS,2020-05-05T22:00:00Z,43.97,-80.75,8.9,-8.0,20,7,,,,1016.2,,TRUE,TRUE,,,,,,,,,,,,,,,,-0.8,,,,,,,,,,,METAR,415.0
CWBE 052200Z AUTO 20008KT 05/M01 RMK AO1 SLP178 T00461006 56015,CWBE,2020-05-05T22:00:00Z,45.98,-81.48,4.6,-0.6,200,8,,,,1017.8,,TRUE,TRUE,,,,,,,,,,,,,,,,-1.5,,,,,,,,,,,METAR,196.0
CWAJ 052200Z AUTO 05009KT 07/01 RMK AO1 SLP132 T00740007 56022,CWAJ,2020-05-05T22:00:00Z,42.25,-81.9,7.4,0.7,50,9,,,,1013.2,,TRUE,TRUE,,,,,,,,,,,,,,,,-2.2,,,,,,,,,,,METAR,178.0
CTCK 052200Z AUTO 31004KT 12/M04 RMK AO1 SLP131 T01161035 55003,CTCK,2020-05-05T22:00:00Z,45.25,-74.97,11.6,-3.5,310,4,,,,1013.1,,TRUE,TRUE,,,,,,,,,,,,,,,,-0.3,,,,,,,,,,,METAR,85.0
CWGT 052200Z AUTO 32008KT 12/08 RMK AO1 SLP189 T01230081 58030,CWGT,2020-05-05T22:00:00Z,49.48,-124.43,12.3,8.1,320,8,,,,1018.9,,TRUE,TRUE,,,,,,,,,,,,,,,,-3.0,,,,,,,,,,,METAR,5.0
CWNC 052200Z AUTO 24007KT 05/M00 RMK AO1 SLP155 T00521004 55010,CWNC,2020-05-05T22:00:00Z,43.95,-78.17,5.2,-0.4,240,7,,,,1015.5,,TRUE,TRUE,,,,,,,,,,,,,,,,-1.0,,,,,,,,,,,METAR,78.0
CWWZ 052200Z AUTO 07009KT 08/M02 RMK AO1 SLP148 T00811018 56015,CWWZ,2020-05-05T22:00:00Z,43.25,-79.22,8.1,-1.8,70,9,,,,1014.8,,TRUE,TRUE,,,,,,,,,,,,,,,,-1.5,,,,,,,,,,,METAR,79.0
CWPO 052200Z AUTO 32007KT 13/01 RMK AO1 SLP241 T01310012 50001,CWPO,2020-05-05T22:00:00Z,49.2,-98.9,13.1,1.2,320,7,,,,1024.1,,TRUE,TRUE,,,,,,,,,,,,,,,,0.1,,,,,,,,,,,METAR,470.0
CWPC 052200Z AUTO 05010KT 09/M13 RMK AO1 SLP143 T00861127 58012,CWPC,2020-05-05T22:00:00Z,42.87,-79.25,8.6,-12.7,50,10,,,,1014.3,,TRUE,TRUE,,,,,,,,,,,,,,,,-1.2,,,,,,,,,,,METAR,184.0
CWGR 052200Z AUTO 36024G31KT 01/01 RMK AO1 2PAST HR 3001 PK WND 01033/2139 SLP968 P0001 T00130008 50005,CWGR,2020-05-05T22:00:00Z,47.42,-61.8,1.3,0.8,360,24,31,,,996.8,,TRUE,TRUE,,,,,,,,,,,,,,,,0.5,,,,,0.01,,,,,,METAR,60.0
CWNZ 052200Z AUTO 27006KT 12/M08 RMK AO1 SLP168 T01201081 56018,CWNZ,2020-05-05T22:00:00Z,49.75,-84.17,12.0,-8.1,270,6,,,,1016.8,,TRUE,TRUE,,,,,,,,,,,,,,,,-1.8,,,,,,,,,,,METAR,256.0
CWGW 052200Z AUTO 19006KT 17/M04 RMK AO1 SLP233 T01711035 56016,CWGW,2020-05-05T22:00:00Z,49.75,-114.9,17.1,-3.5,190,6,,,,1023.3,,TRUE,TRUE,,,,,,,,,,,,,,,,-1.6,,,,,,,,,,,METAR,1137.0
CWGX 052200Z AUTO 36009KT M00/M06 RMK AO1 SLP276 T10041055 51002,CWGX,2020-05-05T22:00:00Z,56.35,-94.7,-0.4,-5.5,360,9,,,,1027.6,,TRUE,TRUE,,,,,,,,,,,,,,,,0.2,,,,,,,,,,,METAR,145.0
CWGY 052200Z AUTO 20006KT 17/M02 RMK AO1 SLP263 T01681023 58004,CWGY,2020-05-05T22:00:00Z,51.67,-110.2,16.8,-2.3,200,6,,,,1026.3,,TRUE,TRUE,,,,,,,,,,,,,,,,-0.4,,,,,,,,,,,METAR,707.0
CWLB 052200Z AUTO 22006KT 18/M03 RMK AO1 SLP234 T01781030 57005,CWLB,2020-05-05T22:00:00Z,54.77,-112.02,17.8,-3.0,220,6,,,,1023.4,,TRUE,TRUE,,,,,,,,,,,,,,,,-0.5,,,,,,,,,,,METAR,567.0
CWJC 052200Z AUTO 34015KT M09/M13 RMK AO1 PK WND 35018/2123 SLP341 T10911129 51009,CWJC,2020-05-05T22:00:00Z,61.13,-100.9,-9.1,-12.9,340,15,,,,1034.1,,TRUE,TRUE,,,,,,,,,,,,,,,,0.9,,,,,,,,,,,METAR,357.0
CWJB 052200Z AUTO 07007KT 06/ RMK AO1 T0062,CWJB,2020-05-05T22:00:00Z,46.78,-71.27,6.2,,70,7,,,,,,TRUE,TRUE,,,,,,,,,,,,,,,,,,,,,,,,,,,METAR,91.0
CWIZ 052200Z AUTO 33004KT 11/M02 RMK AO1 T01051016,CWIZ,2020-05-05T22:00:00Z,45.28,-73.33,10.5,-1.6,330,4,,,,,,TRUE,TRUE,,,,,,,,,,,,,,,,,,,,,,,,,,,METAR,45.0
CWIW 052200Z AUTO 35004KT 16/01 RMK AO1 SLP249 T01640005 51001,CWIW,2020-05-05T22:00:00Z,51.67,-105.4,16.4,0.5,350,4,,,,1024.9,,TRUE,TRUE,,,,,,,,,,,,,,,,0.1,,,,,,,,,,,METAR,526.0
CWIT 052200Z AUTO 29004KT 11/M02 RMK AO1 SLP128 T01071022 53001,CWIT,2020-05-05T22:00:00Z,45.17,-73.67,10.7,-2.2,290,4,,,,1012.8,,TRUE,TRUE,,,,,,,,,,,,,,,,0.1,,,,,,,,,,,METAR,52.0
CWIJ 052200Z AUTO 13009KT M08/M11 RMK AO1 SOG 52 8001 SLP339 T10841112,CWIJ,2020-05-05T22:00:00Z,65.77,-111.23,-8.4,-11.2,130,9,,,,1033.9,,TRUE,TRUE,,,,,,,,,,,,,,,,,,,,,,,,,,,METAR,500.0
CWII 052200Z AUTO 34008KT 09/M02 RMK AO1 SLP223 T00881022 51001,CWII,2020-05-05T22:00:00Z,50.7,-96.57,8.8,-2.2,340,8,,,,1022.3,,TRUE,TRUE,,,,,,,,,,,,,,,,0.1,,,,,,,,,,,METAR,220.0
CWIG 052200Z AUTO 02012KT RMK AO1 PK WND 04017/2128,CWIG,2020-05-05T22:00:00Z,47.07,-70.53,,,20,12,,,,,,TRUE,TRUE,,,,,,,,,,,,,,,,,,,,,,,,,,,METAR,18.0
CWID 052200Z AUTO 11008KT 13/M00 RMK AO1 SLP245 T01331004 58007,CWID,2020-05-05T22:00:00Z,61.32,-117.6,13.3,-0.4,110,8,,,,1024.5,,TRUE,TRUE,,,,,,,,,,,,,,,,-0.7,,,,,,,,,,,METAR,161.0
CWHV 052200Z AUTO 33004KT 07/02 RMK AO1 SLP110 T00740018 51011,CWHV,2020-05-05T22:00:00Z,46.2,-70.77,7.4,1.8,330,4,,,,1011.0,,TRUE,TRUE,,,,,,,,,,,,,,,,1.1,,,,,,,,,,,METAR,229.0
CWHT 052200Z AUTO 22005KT 14/M08 RMK AO1 SLP181 T01391078 56009,CWHT,2020-05-05T22:00:00Z,60.77,-137.58,13.9,-7.8,220,5,,,,1018.1,,TRUE,TRUE,,,,,,,,,,,,,,,,-0.9,,,,,,,,,,,METAR,599.0
CWHI 052200Z AUTO 14009KT 16/M00 RMK AO1 PK WND 14017/2143 T01581003,CWHI,2020-05-05T22:00:00Z,51.7,-113.22,15.8,-0.3,140,9,,,,,,TRUE,TRUE,,,,,,,,,,,,,,,,,,,,,,,,,,,METAR,907.0
CWJH 052200Z AUTO 05006KT 03/M04 RMK AO1 SOG 05 1002 SLP302 T00251040,CWJH,2020-05-05T22:00:00Z,56.32,-103.27,2.5,-4.0,50,6,,,,1030.2,,TRUE,TRUE,,,,,,,,,,,,,,,,,,,,,,,,,,,METAR,344.0
CWCT 052200Z AUTO 17007KT 16/00 RMK AO1 SLP260 T01600000 58006,CWCT,2020-05-05T22:00:00Z,52.07,-111.47,16.0,0.0,170,7,,,,1026.0,,TRUE,TRUE,,,,,,,,,,,,,,,,-0.6,,,,,,,,,,,METAR,791.0
CWDC 052200Z AUTO 13004KT 07/M05 RMK AO1 SOG 04 8002 SLP308 T00661048,CWDC,2020-05-05T22:00:00Z,59.57,-108.47,6.6,-4.8,130,4,,,,1030.8,,TRUE,TRUE,,,,,,,,,,,,,,,,,,,,,,,,,,,METAR,318.0
CWKO 052200Z AUTO 33011G16KT 13/M03 RMK AO1 SLP266 T01311032 51008,CWKO,2020-05-05T22:00:00Z,49.17,-105.97,13.1,-3.2,330,11,16,,,1026.6,,TRUE,TRUE,,,,,,,,,,,,,,,,0.8,,,,,,,,,,,METAR,917.0
CWEH 052200Z AUTO 10006KT 13/M02 RMK AO1 SLP262 T01281019 50000,CWEH,2020-05-05T22:00:00Z,49.42,-108.97,12.8,-1.9,100,6,,,,1026.2,,TRUE,TRUE,,,,,,,,,,,,,,,,0.0,,,,,,,,,,,METAR,1078.0
CWEK 052200Z AUTO 18010KT 10/06 RMK AO1 8006 SLP196 T00950061 50002,CWEK,2020-05-05T22:00:00Z,54.58,-130.7,9.5,6.1,180,10,,,,1019.6,,TRUE,TRUE,,,,,,,,,,,,,,,,0.2,,,,,,,,,,,METAR,8.0
CWOY 052200Z AUTO 30005KT 15/M00 RMK AO1 SLP248 T01541004 50001,CWOY,2020-05-05T22:00:00Z,51.77,-104.2,15.4,-0.4,300,5,,,,1024.8,,TRUE,TRUE,,,,,,,,,,,,,,,,0.1,,,,,,,,,,,METAR,560.0
CWEQ 052200Z AUTO 05010KT 16/M02 RMK AO1 SLP235 T01601017 51004,CWEQ,2020-05-05T22:00:00Z,52.12,-101.22,16.0,-1.7,50,10,,,,1023.5,,TRUE,TRUE,,,,,,,,,,,,,,,,0.4,,,,,,,,,,,METAR,335.0
CWLP 052200Z AUTO 13022KT 13/04 RMK AO1 8027 PK WND 12028/2129 SLP168 T01250036 50002,CWLP,2020-05-05T22:00:00Z,50.93,-127.63,12.5,3.6,130,22,,,,1016.8,,TRUE,TRUE,,,,,,,,,,,,,,,,0.2,,,,,,,,,,,METAR,17.0
CWJD 052200Z AUTO 06004KT 05/M02 RMK AO1 SLP262 T00521021 52004,CWJD,2020-05-05T22:00:00Z,53.17,-99.27,5.2,-2.1,60,4,,,,1026.2,,TRUE,TRUE,,,,,,,,,,,,,,,,0.4,,,,,,,,,,,METAR,223.0
CWRM 052200Z AUTO 12009G15KT 15/01 RMK AO1 SOG 01 8012 SLP236 T01470014,CWRM,2020-05-05T22:00:00Z,52.42,-114.92,14.7,1.4,120,9,15,,,1023.6,,TRUE,TRUE,,,,,,,,,,,,,,,,,,,,,,,,,,,METAR,988.0
CWZG 052200Z AUTO 23006G15KT 13/M07 RMK AO1 SLP243 T01251070 58005,CWZG,2020-05-05T22:00:00Z,51.2,-115.53,12.5,-7.0,230,6,15,,,1024.3,,TRUE,TRUE,,,,,,,,,,,,,,,,-0.5,,,,,,,,,,,METAR,1397.0
CWRO 052200Z AUTO 13020KT 11/08 RMK AO1 2PAST HR 8001 PK WND 14026/2121 SLP186 P0001 T01100075 50003,CWRO,2020-05-05T22:00:00Z,54.17,-131.67,11.0,7.5,130,20,,,,1018.6,,TRUE,TRUE,,,,,,,,,,,,,,,,0.3,,,,,0.01,,,,,,METAR,7.0
CWVT 052200Z AUTO 02006KT 13/M01 RMK AO1 SLP277 T01281013 58003,CWVT,2020-05-05T22:00:00Z,55.82,-108.42,12.8,-1.3,20,6,,,,1027.7,,TRUE,TRUE,,,,,,,,,,,,,,,,-0.3,,,,,,,,,,,METAR,434.0
CXAF 052200Z AUTO 19011KT 17/01 RMK AO1 T01730008,CXAF,2020-05-05T22:00:00Z,54.28,-112.97,17.3,0.8,190,11,,,,,,TRUE,TRUE,,,,,,,,,,,,,,,,,,,,,,,,,,,METAR,664.0
CWZW 052200Z AUTO 19004KT 12/M05 RMK AO1 SLP178 T01231046 58005,CWZW,2020-05-05T22:00:00Z,60.17,-132.73,12.3,-4.6,190,4,,,,1017.8,,TRUE,TRUE,,,,,,,,,,,,,,,,-0.5,,,,,,,,,,,METAR,705.0
CXKI 052200Z AUTO 08/M11 RMK AO1 SLP178 T00811109 57012,CXKI,2020-05-05T22:00:00Z,48.13,-80.0,8.1,-10.9,,,,,,1017.8,,TRUE,TRUE,,,,,,,,,,,,,,,,-1.2,,,,,,,,,,,METAR,328.0
CXKM 052200Z AUTO 22009KT 18/M00 RMK AO1 T01761004,CXKM,2020-05-05T22:00:00Z,52.82,-111.85,17.6,-0.4,220,9,,,,,,TRUE,TRUE,,,,,,,,,,,,,,,,,,,,,,,,,,,METAR,675.0
CXLB 052200Z AUTO 31023G32KT 04/M00 RMK AO1 PK WND 30033/2100 SLP006 T00441003 51025,CXLB,2020-05-05T22:00:00Z,44.37,-64.3,4.4,-0.3,310,23,32,,,1000.6,,TRUE,TRUE,,,,,,,,,,,,,,,,2.5,,,,,,,,,,,METAR,4.0
CXFR 052200Z AUTO 16012KT 18/M05 RMK AO1 PK WND 18017/2130 T01751049,CXFR,2020-05-05T22:00:00Z,56.08,-118.43,17.5,-4.9,160,12,,,,,,TRUE,TRUE,,,,,,,,,,,,,,,,,,,,,,,,,,,METAR,655.0
CXCS 052200Z AUTO 26006KT 17/M02 RMK AO1 T01651024,CXCS,2020-05-05T22:00:00Z,51.93,-110.72,16.5,-2.4,260,6,,,,,,TRUE,TRUE,,,,,,,,,,,,,,,,,,,,,,,,,,,METAR,772.0
CXCP 052200Z AUTO 12008KT 16/M02 RMK AO1 T01571024,CXCP,2020-05-05T22:00:00Z,50.28,-113.35,15.7,-2.4,120,8,,,,,,TRUE,TRUE,,,,,,,,,,,,,,,,,,,,,,,,,,,METAR,1006.0
CXCD 052200Z AUTO 12006KT 14/01 RMK AO1 PK WND 14019/2101 T01430005,CXCD,2020-05-05T22:00:00Z,56.32,-119.75,14.3,0.5,120,6,,,,,,TRUE,TRUE,,,,,,,,,,,,,,,,,,,,,,,,,,,METAR,630.0
CXBW 052200Z AUTO 22002KT 16/M01 RMK AO1 T01601006,CXBW,2020-05-05T22:00:00Z,49.8,-112.3,16.0,-0.6,220,2,,,,,,TRUE,TRUE,,,,,,,,,,,,,,,,,,,,,,,,,,,METAR,824.0
CXBR 052200Z AUTO 08007KT 17/M06 RMK AO1 T01681063,CXBR,2020-05-05T22:00:00Z,49.62,-113.82,16.8,-6.3,80,7,,,,,,TRUE,TRUE,,,,,,,,,,,,,,,,,,,,,,,,,,,METAR,1073.0
CXBA 052200Z AUTO 16007KT 18/M01 RMK AO1 T01831006,CXBA,2020-05-05T22:00:00Z,52.12,-110.1,18.3,-0.6,160,7,,,,,,TRUE,TRUE,,,,,,,,,,,,,,,,,,,,,,,,,,,METAR,687.0
CXAJ 052200Z AUTO 14003KT 20/M02 RMK AO1 T01991015,CXAJ,2020-05-05T22:00:00Z,54.77,-112.82,19.9,-1.5,140,3,,,,,,TRUE,TRUE,,,,,,,,,,,,,,,,,,,,,,,,,,,METAR,574.0
CXHR 052200Z AUTO 13009KT 13/M01 RMK AO1 T01321011,CXHR,2020-05-05T22:00:00Z,51.18,-112.5,13.2,-1.1,130,9,,,,,,TRUE,TRUE,,,,,,,,,,,,,,,,,,,,,,,,,,,METAR,971.0
CXOY 052200Z AUTO 20004KT 15/M03 RMK AO1 T01501029,CXOY,2020-05-05T22:00:00Z,51.38,-110.35,15.0,-2.9,200,4,,,,,,TRUE,TRUE,,,,,,,,,,,,,,,,,,,,,,,,,,,METAR,767.0
CXTO 052200Z AUTO 08/M07 RMK AO1 2PAST HR 6013 SLP152 P0001 T00801071 50008,CXTO,2020-05-05T22:00:00Z,43.67,-79.4,8.0,-7.1,,,,,,1015.2,,TRUE,TRUE,,,,,,,,,,,,,,,,0.8,,,,,0.01,,,,,,METAR,113.0
CXTD 052200Z AUTO 31014G20KT 01/01 RMK AO1 PK WND 31022/2138 SLP972 T00050008 53017,CXTD,2020-05-05T22:00:00Z,45.62,-61.68,0.5,0.8,310,14,20,,,997.2,,TRUE,TRUE,,,,,,,,,,,,,,,,1.7,,,,,,,,,,,METAR,68.0
CXRL 052200Z AUTO 18006KT 19/M02 RMK AO1 T01911022,CXRL,2020-05-05T22:00:00Z,54.5,-111.7,19.1,-2.2,180,6,,,,,,TRUE,TRUE,,,,,,,,,,,,,,,,,,,,,,,,,,,METAR,585.0
CXRB 052200Z AUTO M14/M17 RMK AO1 22 SOG 03 3018 SLP279 T11381168,CXRB,2020-05-05T22:00:00Z,74.72,-94.98,-13.8,-16.8,,,,,,1027.9,,TRUE,TRUE,,,,,,,,,,,,,,,,,,,,,,,,,,,METAR,68.0
CXPC 052200Z AUTO 08/M04 RMK AO1 SLP151 T00841036 56017,CXPC,2020-05-05T22:00:00Z,45.35,-80.05,8.4,-3.6,,,,,,1015.1,,TRUE,TRUE,,,,,,,,,,,,,,,,-1.7,,,,,,,,,,,METAR,176.0
CXPA 052200Z AUTO 18010KT 17/M06 RMK AO1 PK WND 20017/2125 T01741055,CXPA,2020-05-05T22:00:00Z,55.62,-118.3,17.4,-5.5,180,10,,,,,,TRUE,TRUE,,,,,,,,,,,,,,,,,,,,,,,,,,,METAR,621.0
SLCB 052200Z 04004KT 9999 FEW030 SCT070 BKN200 23/05 Q1020,SLCB,2020-05-05T22:00:00Z,-17.42,-66.18,23.0,5.0,40,4,,6.21,30.11811,,,,,,,,,,,FEW,3000,SCT,7000,BKN,20000,,,VFR,,,,,,,,,,,,METAR,2548.0
TLPL 052200Z 07016KT 9999 SCT027 29/23 Q1012 NOSIG,TLPL,2020-05-05T22:00:00Z,13.75,-60.95,29.0,23.0,70,16,,6.21,29.88189,,,,,,TRUE,,,,,SCT,2700,,,,,,,VFR,,,,,,,,,,,,METAR,3.0
CXVN 052200Z AUTO 06004KT 08/M02 RMK AO1 SLP148 T00831019 56016,CXVN,2020-05-05T22:00:00Z,43.18,-79.4,8.3,-1.9,60,4,,,,1014.8,,TRUE,TRUE,,,,,,,,,,,,,,,,-1.6,,,,,,,,,,,METAR,79.0
CXWM 052200Z AUTO 18003KT 16/M02 RMK AO1 T01591016,CXWM,2020-05-05T22:00:00Z,49.5,-112.12,15.9,-1.6,180,3,,,,,,TRUE,TRUE,,,,,,,,,,,,,,,,,,,,,,,,,,,METAR,944.0
CXZV 052200Z AUTO 01007G16KT 09/M08 RMK AO1 SOG 07 3002 PK WND 04018/2101 SLP077 T00921077,CXZV,2020-05-05T22:00:00Z,50.22,-66.25,9.2,-7.7,10,7,16,,,1007.7,,TRUE,TRUE,,,,,,,,,,,,,,,,,,,,,,,,,,,METAR,52.0
CZMJ 052200Z AUTO 35013G23KT 17/M01 RMK AO1 PK WND 35023/2154 SLP257 T01671007 51004,CZMJ,2020-05-05T22:00:00Z,50.33,-105.57,16.7,-0.7,350,13,23,,,1025.7,,TRUE,TRUE,,,,,,,,,,,,,,,,0.4,,,,,,,,,,,METAR,577.0
CZTB 052200Z AUTO 17008KT 12/M07 RMK AO1 SLP184 T01151074 58013,CZTB,2020-05-05T22:00:00Z,48.37,-89.32,11.5,-7.4,170,8,,,,1018.4,,TRUE,TRUE,,,,,,,,,,,,,,,,-1.3,,,,,,,,,,,METAR,199.0
CXBK 052200Z AUTO 01008KT 15/M01 RMK AO1 SLP238 T01471011 51006,CXBK,2020-05-05T22:00:00Z,50.2,-104.7,14.7,-1.1,10,8,,,,1023.8,,TRUE,TRUE,,,,,,,,,,,,,,,,0.6,,,,,,,,,,,METAR,580.0
CZZJ 052200Z AUTO 08007KT 15/M05 RMK AO1 SOG 01 8012 SLP232 T01541049,CZZJ,2020-05-05T22:00:00Z,53.58,-116.47,15.4,-4.9,80,7,,,,1023.2,,TRUE,TRUE,,,,,,,,,,,,,,,,,,,,,,,,,,,METAR,927.0
CXCA 052200Z AUTO 16009KT 11/M05 RMK AO1 SLP175 T01101050 56012,CXCA,2020-05-05T22:00:00Z,49.15,-88.35,11.0,-5.0,160,9,,,,1017.5,,TRUE,TRUE,,,,,,,,,,,,,,,,-1.2,,,,,,,,,,,METAR,228.0
CXDE 052200Z AUTO 12008KT 07/M04 RMK AO1 SOG 09 8003 SLP209 T00731036,CXDE,2020-05-05T22:00:00Z,65.22,-123.43,7.3,-3.6,120,8,,,,1020.9,,TRUE,TRUE,,,,,,,,,,,,,,,,,,,,,,,,,,,METAR,213.0
CXDW 052200Z AUTO 36008KT 13/01 RMK AO1 SLP223 T01250007 58001,CXDW,2020-05-05T22:00:00Z,49.4,-98.32,12.5,0.7,360,8,,,,1022.3,,TRUE,TRUE,,,,,,,,,,,,,,,,-0.1,,,,,,,,,,,METAR,341.0
CXDI 052200Z AUTO 06003KT 11/M08 RMK AO1 SLP148 T01081082 56015,CXDI,2020-05-05T22:00:00Z,42.87,-80.55,10.8,-8.2,60,3,,,,1014.8,,TRUE,TRUE,,,,,,,,,,,,,,,,-1.5,,,,,,,,,,,METAR,232.0
CXEA 052200Z AUTO 31008KT 15/M05 RMK AO1 PK WND 33017/2131 SLP176 T01491047 56003,CXEA,2020-05-05T22:00:00Z,50.63,-93.22,14.9,-4.7,310,8,,,,1017.6,,TRUE,TRUE,,,,,,,,,,,,,,,,-0.3,,,,,,,,,,,METAR,355.0
CXEC 052200Z AUTO 14010KT 16/01 RMK AO1 PK WND 15022/2108 SLP242 T01620007 58007,CXEC,2020-05-05T22:00:00Z,53.57,-113.52,16.2,0.7,140,10,,,,1024.2,,TRUE,TRUE,,,,,,,,,,,,,,,,-0.7,,,,,,,,,,,METAR,671.0
CXHP 052200Z AUTO 18012KT 19/01 RMK AO1 PK WND 18022/2132 T01920005,CXHP,2020-05-05T22:00:00Z,55.4,-116.48,19.2,0.5,180,12,,,,,,TRUE,TRUE,,,,,,,,,,,,,,,,,,,,,,,,,,,METAR,602.0
CXAT 052200Z AUTO 29006KT M12/M17 RMK AO1 SLP233 T11191174 53016,CXAT,2020-05-05T22:00:00Z,73.0,-85.03,-11.9,-17.4,290,6,,,,1023.3,,TRUE,TRUE,,,,,,,,,,,,,,,,1.6,,,,,,,,,,,METAR,19.0
CXKT 052200Z AUTO 33011G21KT 03/M00 RMK AO1 2PAST HR 1030 PK WND 34022/2109 SLP037 P0001 T00251003 50002,CXKT,2020-05-05T22:00:00Z,45.07,-64.48,2.5,-0.3,330,11,21,,,1003.7,,TRUE,TRUE,,,,,,,,,,,,,,,,0.2,,,,,0.01,,,,,,METAR,49.0
CXET 052200Z AUTO 31008KT 06/M06 RMK AO1 SLP166 T00551058 56009,CXET,2020-05-05T22:00:00Z,44.23,-79.78,5.5,-5.8,310,8,,,,1016.6,,TRUE,TRUE,,,,,,,,,,,,,,,,-0.9,,,,,,,,,,,METAR,251.0
CXEG 052200Z AUTO 16/01 RMK AO1 T01610012,CXEG,2020-05-05T22:00:00Z,53.3,-113.6,16.1,1.2,,,,,,,,TRUE,TRUE,,,,,,,,,,,,,,,,,,,,,,,,,,,METAR,715.0
CXGH 052200Z AUTO 14001KT 08/M01 RMK AO1 SLP213 T00761006 51004,CXGH,2020-05-05T22:00:00Z,50.63,-97.0,7.6,-0.6,140,1,,,,1021.3,,TRUE,TRUE,,,,,,,,,,,,,,,,0.4,,,,,,,,,,,METAR,217.0
CXHA 052200Z AUTO 03011KT 10/M01 RMK AO1 SLP137 T00981014 56017,CXHA,2020-05-05T22:00:00Z,42.03,-82.9,9.8,-1.4,30,11,,,,1013.7,,TRUE,TRUE,,,,,,,,,,,,,,,,-1.7,,,,,,,,,,,METAR,191.0
CXIB 052200Z AUTO 01003KT 03/01 RMK AO1 SLP935 T00290009 58003,CXIB,2020-05-05T22:00:00Z,46.67,-60.38,2.9,0.9,10,3,,,,993.5,,TRUE,TRUE,,,,,,,,,,,,,,,,-0.3,,,,,,,,,,,METAR,8.0
CXHF 052200Z AUTO 10/M03 RMK AO1 T01021030,CXHF,2020-05-05T22:00:00Z,45.83,-75.65,10.2,-3.0,,,,,,,,TRUE,TRUE,,,,,,,,,,,,,,,,,,,,,,,,,,,METAR,190.0
CXMD 052200Z AUTO 32004KT 14/M00 RMK AO1 SLP220 T01361001 50002,CXMD,2020-05-05T22:00:00Z,49.22,-98.08,13.6,-0.1,320,4,,,,1022.0,,TRUE,TRUE,,,,,,,,,,,,,,,,0.2,,,,,,,,,,,METAR,301.0
CXMI 052200Z AUTO 33013G21KT 04/ RMK AO1 PK WND 33021/2157 T0040,CXMI,2020-05-05T22:00:00Z,44.6,-63.53,4.0,,330,13,21,,,,,TRUE,TRUE,,,,,,,,,,,,,,,,,,,,,,,,,,,METAR,15.0
CXMM 052200Z AUTO 14007KT 17/M04 RMK AO1 SLP241 T01741044 58006,CXMM,2020-05-05T22:00:00Z,56.65,-111.22,17.4,-4.4,140,7,,,,1024.1,,TRUE,TRUE,,,,,,,,,,,,,,,,-0.6,,,,,,,,,,,METAR,369.0
CXNM 052200Z AUTO 32006KT RMK AO1,CXNM,2020-05-05T22:00:00Z,46.82,-60.67,,,320,6,,,,,,TRUE,TRUE,,,,,,,,,,,,,,,,,,,,,,,,,,,METAR,439.0
CXMY 052200Z AUTO 04/01 RMK AO1 T00380007,CXMY,2020-05-05T22:00:00Z,44.98,-62.48,3.8,0.7,,,,,,,,TRUE,TRUE,,,,,,,,,,,,,,,,,,,,,,,,,,,METAR,40.0
CXOX 052200Z AUTO 06007KT 12/M04 RMK AO1 SLP265 T01181039 58002,CXOX,2020-05-05T22:00:00Z,55.15,-105.27,11.8,-3.9,60,7,,,,1026.5,,TRUE,TRUE,,,,,,,,,,,,,,,,-0.2,,,,,,,,,,,METAR,379.0
CXRH 052200Z AUTO 28005KT 02/M01 RMK AO1 24 T00161006,CXRH,2020-05-05T22:00:00Z,49.57,-57.88,1.6,-0.6,280,5,,,,,,TRUE,TRUE,,,,,,,,,,,,,,,,,,,,,,,,,,,METAR,68.0
CXSH 052200Z AUTO 36005KT 10/M03 RMK AO1 SLP121 T01031028 53002,CXSH,2020-05-05T22:00:00Z,46.58,-72.73,10.3,-2.8,360,5,,,,1012.1,,TRUE,TRUE,,,,,,,,,,,,,,,,0.2,,,,,,,,,,,METAR,110.0
CXWN 052200Z AUTO 01005KT 16/M02 RMK AO1 SLP209 T01601019 50000,CXWN,2020-05-05T22:00:00Z,49.88,-97.13,16.0,-1.9,10,5,,,,1020.9,,TRUE,TRUE,,,,,,,,,,,,,,,,0.0,,,,,,,,,,,METAR,230.0
CXTP 052200Z AUTO 13003KT 03/03 RMK AO1 SLP913 T00340031 56032,CXTP,2020-05-05T22:00:00Z,48.55,-53.97,3.4,3.1,130,3,,,,991.3,,TRUE,TRUE,,,,,,,,,,,,,,,,-3.2,,,,,,,,,,,METAR,107.0
CXTH 052200Z AUTO 18004KT 18/M03 RMK AO1 T01811026,CXTH,2020-05-05T22:00:00Z,53.63,-111.68,18.1,-2.6,180,4,,,,,,TRUE,TRUE,,,,,,,,,,,,,,,,,,,,,,,,,,,METAR,678.0
CXSL 052200Z AUTO 20009KT 18/M02 RMK AO1 T01801019,CXSL,2020-05-05T22:00:00Z,54.28,-112.5,18.0,-1.9,200,9,,,,,,TRUE,TRUE,,,,,,,,,,,,,,,,,,,,,,,,,,,METAR,680.0
CXVM 052200Z AUTO 20006KT 18/M02 RMK AO1 T01751017,CXVM,2020-05-05T22:00:00Z,53.35,-110.88,17.5,-1.7,200,6,,,,,,TRUE,TRUE,,,,,,,,,,,,,,,,,,,,,,,,,,,METAR,623.0
CXVW 052200Z AUTO 16013KT 19/M02 RMK AO1 PK WND 16019/2116 T01851015,CXVW,2020-05-05T22:00:00Z,55.1,-117.2,18.5,-1.5,160,13,,,,,,TRUE,TRUE,,,,,,,,,,,,,,,,,,,,,,,,,,,METAR,698.0
CXHD 052200Z AUTO 18008KT 17/02 RMK AO1 T01680017,CXHD,2020-05-05T22:00:00Z,53.18,-112.25,16.8,1.7,180,8,,,,,,TRUE,TRUE,,,,,,,,,,,,,,,,,,,,,,,,,,,METAR,688.0
WBGS 052200Z VRB02KT 9999 FEW006 SCT016 BKN150 24/23 Q1009,WBGS,2020-05-05T22:00:00Z,2.27,111.98,24.0,23.0,0,2,,6.21,29.793306,,,,,,,,,,,FEW,600,SCT,1600,BKN,15000,,,VFR,,,,,,,,,,,,METAR,8.0
CXMG 052200Z AUTO 12010KT 17/07 RMK AO1 T01670067,CXMG,2020-05-05T22:00:00Z,56.97,-117.45,16.7,6.7,120,10,,,,,,TRUE,TRUE,,,,,,,,,,,,,,,,,,,,,,,,,,,METAR,457.0
CXMO 052200Z AUTO 19007KT 15/01 RMK AO1 PK WND 17018/2128 T01460014,CXMO,2020-05-05T22:00:00Z,51.67,-112.68,14.6,1.4,190,7,,,,,,TRUE,TRUE,,,,,,,,,,,,,,,,,,,,,,,,,,,METAR,836.0
CXOL 052200Z AUTO 14006KT 15/M01 RMK AO1 T01491009,CXOL,2020-05-05T22:00:00Z,51.77,-114.08,14.9,-0.9,140,6,,,,,,TRUE,TRUE,,,,,,,,,,,,,,,,,,,,,,,,,,,METAR,1046.0
CXSC 052200Z AUTO 12003KT 14/03 RMK AO1 T01410027,CXSC,2020-05-05T22:00:00Z,50.3,-110.08,14.1,2.7,120,3,,,,,,TRUE,TRUE,,,,,,,,,,,,,,,,,,,,,,,,,,,METAR,800.0
CXPL 052200Z AUTO 12004KT 16/M02 RMK AO1 T01591019,CXPL,2020-05-05T22:00:00Z,51.13,-111.7,15.9,-1.9,120,4,,,,,,TRUE,TRUE,,,,,,,,,,,,,,,,,,,,,,,,,,,METAR,750.0
CWBU 052200Z AUTO 10/06 RMK AO1 4PAST HR 0006 SLP246 P0013 T01010063 50046,CWBU,2020-05-05T22:00:00Z,53.33,-104.02,10.1,6.3,,,,,,1024.6,,TRUE,TRUE,,,,,,,,,,,,,,,,4.6,,,,,0.13,,,,,,METAR,373.0
CWIK 052200Z AUTO 02007KT 14/M00 RMK AO1 SLP240 T01441002 52005,CWIK,2020-05-05T22:00:00Z,50.37,-102.58,14.4,-0.2,20,7,,,,1024.0,,TRUE,TRUE,,,,,,,,,,,,,,,,0.5,,,,,,,,,,,METAR,602.0
CPST 052200Z AUTO 17007KT 14/01 RMK AO1 T01440006,CPST,2020-05-05T22:00:00Z,51.03,-113.28,14.4,0.6,170,7,,,,,,TRUE,TRUE,,,,,,,,,,,,,,,,,,,,,,,,,,,METAR,967.0
CPSV 052200Z AUTO 12003KT 15/01 RMK AO1 T01510010,CPSV,2020-05-05T22:00:00Z,49.92,-110.92,15.1,1.0,120,3,,,,,,TRUE,TRUE,,,,,,,,,,,,,,,,,,,,,,,,,,,METAR,766.0
CPXL 052200Z AUTO 17003KT 16/M01 RMK AO1 T01571008,CPXL,2020-05-05T22:00:00Z,49.87,-111.38,15.7,-0.8,170,3,,,,,,TRUE,TRUE,,,,,,,,,,,,,,,,,,,,,,,,,,,METAR,799.0
CXAK 052200Z AUTO 15008KT 15/M01 RMK AO1 T01521007,CXAK,2020-05-05T22:00:00Z,52.35,-112.6,15.2,-0.7,150,8,,,,,,TRUE,TRUE,,,,,,,,,,,,,,,,,,,,,,,,,,,METAR,795.0
CXDB 052200Z AUTO 13003KT 15/M06 RMK AO1 T01511063,CXDB,2020-05-05T22:00:00Z,49.05,-112.82,15.1,-6.3,130,3,,,,,,TRUE,TRUE,,,,,,,,,,,,,,,,,,,,,,,,,,,METAR,1310.0
CWYJ 052200Z AUTO 35006KT 16/08 RMK AO1 SLP183 T01630075 57026,CWYJ,2020-05-05T22:00:00Z,48.45,-123.3,16.3,7.5,350,6,,,,1018.3,,TRUE,TRUE,,,,,,,,,,,,,,,,-2.6,,,,,,,,,,,METAR,39.0
CXFM 052200Z AUTO 35005KT 16/M02 RMK AO1 T01561017,CXFM,2020-05-05T22:00:00Z,49.48,-111.48,15.6,-1.7,350,5,,,,,,TRUE,TRUE,,,,,,,,,,,,,,,,,,,,,,,,,,,METAR,881.0
CWYL 052200Z AUTO 26009G15KT 12/M06 RMK AO1 SOG 43 7008 PK WND 26017/2102 SLP238 T01241064,CWYL,2020-05-05T22:00:00Z,51.45,-116.32,12.4,-6.4,260,9,15,,,1023.8,,TRUE,TRUE,,,,,,,,,,,,,,,,,,,,,,,,,,,METAR,1615.0
CWYY 052200Z AUTO 19003KT 22/01 RMK AO1 T02150005,CWYY,2020-05-05T22:00:00Z,49.03,-119.43,21.5,0.5,190,3,,,,,,TRUE,TRUE,,,,,,,,,,,,,,,,,,,,,,,,,,,METAR,283.0
CWZA 052200Z AUTO 13004KT 20/09 RMK AO1 SLP176 T01990092 58026,CWZA,2020-05-05T22:00:00Z,49.25,-121.77,19.9,9.2,130,4,,,,1017.6,,TRUE,TRUE,,,,,,,,,,,,,,,,-2.6,,,,,,,,,,,METAR,15.0
CXKA 052200Z AUTO 14003KT 10/M10 RMK AO1 SOG 04 6019 SLP167 T00981098,CXKA,2020-05-05T22:00:00Z,49.4,-82.45,9.8,-9.8,140,3,,,,1016.7,,TRUE,TRUE,,,,,,,,,,,,,,,,,,,,,,,,,,,METAR,218.0
CXHM 052200Z AUTO 06006KT RMK AO1 56015,CXHM,2020-05-05T22:00:00Z,43.28,-79.9,,,60,6,,,,,,TRUE,TRUE,,,,,,,,,,,,,,,,-1.5,,,,,,,,,,,METAR,107.0
CXKE 052200Z AUTO 35006KT 11/M04 RMK AO1 SLP141 T01071044 55002,CXKE,2020-05-05T22:00:00Z,45.0,-75.63,10.7,-4.4,350,6,,,,1014.1,,TRUE,TRUE,,,,,,,,,,,,,,,,-0.2,,,,,,,,,,,METAR,99.0
CWQH 052200Z AUTO 31008KT 08/M01 RMK AO1 PK WND 32018/2123 SLP123 T00831009 55001,CWQH,2020-05-05T22:00:00Z,45.37,-71.82,8.3,-0.9,310,8,,,,1012.3,,TRUE,TRUE,,,,,,,,,,,,,,,,-0.1,,,,,,,,,,,METAR,181.0
CWQK 052200Z AUTO 13006KT 15/08 RMK AO1 SLP181 T01490077 57025,CWQK,2020-05-05T22:00:00Z,48.3,-123.53,14.9,7.7,130,6,,,,1018.1,,TRUE,TRUE,,,,,,,,,,,,,,,,-2.5,,,,,,,,,,,METAR,5.0
CWQP 052200Z AUTO 21006KT 05/M01 RMK AO1 SLP168 T00531008 56012,CWQP,2020-05-05T22:00:00Z,43.83,-77.15,5.3,-0.8,210,6,,,,1016.8,,TRUE,TRUE,,,,,,,,,,,,,,,,-1.2,,,,,,,,,,,METAR,79.0
CWQR 052200Z AUTO 05016KT 05/ RMK AO1 PK WND 04018/2125 T0047,CWQR,2020-05-05T22:00:00Z,50.22,-64.22,4.7,,50,16,,,,,,TRUE,TRUE,,,,,,,,,,,,,,,,,,,,,,,,,,,METAR,9.0
UTSB 052200Z VRB02KT CAVOK 18/15 Q1013 R01/CLRD70 NOSIG,UTSB,2020-05-05T22:00:00Z,39.77,64.48,18.0,15.0,0,2,,6.21,29.911417,,,,,,TRUE,,,,,CAVOK,,,,,,,,VFR,,,,,,,,,,,,METAR,226.0
UTSA 052200Z 16008KT 9999 NSC 16/13 Q1013 R07/CLRD70 NOSIG,UTSA,2020-05-05T22:00:00Z,40.12,65.17,16.0,13.0,160,8,,6.21,29.911417,,,,,,TRUE,,,,,CLR,,,,,,,,VFR,,,,,,,,,,,,METAR,346.0
MPMG 052200Z 31010KT 9999 FEW018 SCT090 29/26 Q1007 NOSIG,MPMG,2020-05-05T22:00:00Z,8.98,-79.57,29.0,26.0,310,10,,6.21,29.734253,,,,,,TRUE,,,,,FEW,1800,SCT,9000,,,,,VFR,,,,,,,,,,,,METAR,13.0
SLCO 052200Z 36003KT 9999 SCT020 FEW023CB BKN080 27/24 Q1008,SLCO,2020-05-05T22:00:00Z,-11.03,-68.78,27.0,24.0,360,3,,6.21,29.763779,,,,,,,,,,,SCT,2000,FEW,2300,BKN,8000,,,VFR,,,,,,,,,,,,METAR,272.0
SLET 052200Z 32003KT 9999 FEW015 BKN020 24/23 Q1009,SLET,2020-05-05T22:00:00Z,-17.8,-63.17,24.0,23.0,320,3,,6.21,29.793306,,,,,,,,,,,FEW,1500,BKN,2000,,,,,MVFR,,,,,,,,,,,,METAR,414.0
CWRJ 052200Z AUTO 31005KT 18/M03 RMK AO1 SLP253 T01781026 58003,CWRJ,2020-05-05T22:00:00Z,51.57,-107.92,17.8,-2.6,310,5,,,,1025.3,,TRUE,TRUE,,,,,,,,,,,,,,,,-0.3,,,,,,,,,,,METAR,586.0
CWRK 052200Z AUTO 06007KT 11/M14 RMK AO1 SLP145 T01061138 56010,CWRK,2020-05-05T22:00:00Z,45.07,-77.87,10.6,-13.8,60,7,,,,1014.5,,TRUE,TRUE,,,,,,,,,,,,,,,,-1.0,,,,,,,,,,,METAR,331.0
CWRT 052200Z AUTO 19005KT 17/M05 RMK AO1 T01661051,CWRT,2020-05-05T22:00:00Z,49.62,-114.47,16.6,-5.1,190,5,,,,,,TRUE,TRUE,,,,,,,,,,,,,,,,,,,,,,,,,,,METAR,1303.0
CWRY 052200Z AUTO 02002KT 16/M03 RMK AO1 SLP256 T01641031 57010,CWRY,2020-05-05T22:00:00Z,49.12,-112.03,16.4,-3.1,20,2,,,,1025.6,,TRUE,TRUE,,,,,,,,,,,,,,,,-1.0,,,,,,,,,,,METAR,1050.0
CWRZ 052200Z AUTO 35009KT RMK AO1 PK WND 35018/2101 51002,CWRZ,2020-05-05T22:00:00Z,48.42,-64.32,,,350,9,,,,,,TRUE,TRUE,,,,,,,,,,,,,,,,0.2,,,,,,,,,,,METAR,16.0
CWSD 052200Z AUTO 35020G27KT 01/00 RMK AO1 4PAST HR 3018 PK WND 35027/2157 SLP031 P0002 T00100000 50025,CWSD,2020-05-05T22:00:00Z,46.42,-63.85,1.0,0.0,350,20,27,,,1003.1,,TRUE,TRUE,,,,,,,,,,,,,,,,2.5,,,,,0.02,,,,,,METAR,24.0
CWSG 052200Z AUTO 26014KT 03/02 RMK AO1 PK WND 25018/2200 SLP081 T00320015 56006,CWSG,2020-05-05T22:00:00Z,49.12,-66.65,3.2,1.5,260,14,,,,1008.1,,TRUE,TRUE,,,,,,,,,,,,,,,,-0.6,,,,,,,,,,,METAR,5.0
CWSK 052200Z AUTO 26004KT 21/03 RMK AO1 SLP183 T02060028 58030,CWSK,2020-05-05T22:00:00Z,49.78,-123.17,20.6,2.8,260,4,,,,1018.3,,TRUE,TRUE,,,,,,,,,,,,,,,,-3.0,,,,,,,,,,,METAR,60.0
CMFM 052200Z AUTO 35006KT 04/M02 RMK AO1 SOG 67 3014 SLP117 T00351015,CMFM,2020-05-05T22:00:00Z,47.32,-71.15,3.5,-1.5,350,6,,,,1011.7,,TRUE,TRUE,,,,,,,,,,,,,,,,,,,,,,,,,,,METAR,672.0
CWTA 052200Z AUTO 11/M02 RMK AO1 SLP130 T01081021 53001,CWTA,2020-05-05T22:00:00Z,45.5,-73.58,10.8,-2.1,,,,,,1013.0,,TRUE,TRUE,,,,,,,,,,,,,,,,0.1,,,,,,,,,,,METAR,63.0
CWTN 052200Z AUTO 09010KT 06/ RMK AO1 PK WND 09018/2109 SLP122 T0056 53012,CWTN,2020-05-05T22:00:00Z,47.07,-70.78,5.6,,90,10,,,,1012.2,,TRUE,TRUE,,,,,,,,,,,,,,,,1.2,,,,,,,,,,,METAR,6.0
CWTG 052200Z AUTO 27015KT 04/02 RMK AO1 PK WND 26017/2156 SLP085 T00440017 56005,CWTG,2020-05-05T22:00:00Z,49.32,-67.37,4.4,1.7,270,15,,,,1008.5,,TRUE,TRUE,,,,,,,,,,,,,,,,-0.5,,,,,,,,,,,METAR,5.0
CWTT 052200Z AUTO 30008KT 07/M01 RMK AO1 T00711006,CWTT,2020-05-05T22:00:00Z,45.27,-72.17,7.1,-0.6,300,8,,,,,,TRUE,TRUE,,,,,,,,,,,,,,,,,,,,,,,,,,,METAR,209.0
CWUS 052200Z AUTO 04005KT 18/01 RMK AO1 SLP206 T01830014 58027,CWUS,2020-05-05T22:00:00Z,49.57,-119.65,18.3,1.4,40,5,,,,1020.6,,TRUE,TRUE,,,,,,,,,,,,,,,,-2.7,,,,,,,,,,,METAR,454.0
CWTY 052200Z AUTO 33007KT 10/M02 RMK AO1 SLP118 T01031019 53001,CWTY,2020-05-05T22:00:00Z,46.35,-72.52,10.3,-1.9,330,7,,,,1011.8,,TRUE,TRUE,,,,,,,,,,,,,,,,0.1,,,,,,,,,,,METAR,6.0
CWVF 052200Z AUTO 29011KT 12/09 RMK AO1 T01160087,CWVF,2020-05-05T22:00:00Z,49.1,-123.3,11.6,8.7,290,11,,,,,,TRUE,TRUE,,,,,,,,,,,,,,,,,,,,,,,,,,,METAR,1.0
CWVI 052200Z AUTO 12007KT 18/M03 RMK AO1 SLP237 T01831026 58006,CWVI,2020-05-05T22:00:00Z,53.52,-112.1,18.3,-2.6,120,7,,,,1023.7,,TRUE,TRUE,,,,,,,,,,,,,,,,-0.6,,,,,,,,,,,METAR,639.0
CWVN 052200Z AUTO 33004KT 14/M01 RMK AO1 SLP264 T01381006 51010,CWVN,2020-05-05T22:00:00Z,49.07,-107.57,13.8,-0.6,330,4,,,,1026.4,,TRUE,TRUE,,,,,,,,,,,,,,,,1.0,,,,,,,,,,,METAR,785.0
CWVQ 052200Z AUTO 28007KT 11/M02 RMK AO1 SLP129 T01101023 55002,CWVQ,2020-05-05T22:00:00Z,45.42,-73.92,11.0,-2.3,280,7,,,,1012.9,,TRUE,TRUE,,,,,,,,,,,,,,,,-0.2,,,,,,,,,,,METAR,39.0
CWVP 052200Z AUTO 12005G17KT 13/M03 RMK AO1 PK WND 22017/2158 SLP255 T01331026 58003,CWVP,2020-05-05T22:00:00Z,49.63,-109.52,13.3,-2.6,120,5,17,,,1025.5,,TRUE,TRUE,,,,,,,,,,,,,,,,-0.3,,,,,,,,,,,METAR,1271.0
CWWA 052200Z AUTO 20001KT 19/06 RMK AO1 SLP184 T01900058 56026,CWWA,2020-05-05T22:00:00Z,49.35,-123.17,19.0,5.8,200,1,,,,1018.4,,TRUE,TRUE,,,,,,,,,,,,,,,,-2.6,,,,,,,,,,,METAR,178.0
CWWK 052200Z AUTO 26005KT 18/11 RMK AO1 SLP185 T01780108 56025,CWWK,2020-05-05T22:00:00Z,49.02,-122.78,17.8,10.8,260,5,,,,1018.5,,TRUE,TRUE,,,,,,,,,,,,,,,,-2.5,,,,,,,,,,,METAR,15.0
CWXA 052200Z AUTO 29006G15KT 16/M09 RMK AO1 SLP217 T01631090 56012,CWXA,2020-05-05T22:00:00Z,51.07,-115.07,16.3,-9.0,290,6,15,,,1021.7,,TRUE,TRUE,,,,,,,,,,,,,,,,-1.2,,,,,,,,,,,METAR,1298.0
CZSM 052200Z AUTO 09005KT 12/M10 RMK AO1 SLP277 T01151097 58007,CZSM,2020-05-05T22:00:00Z,60.03,-111.93,11.5,-9.7,90,5,,,,1027.7,,TRUE,TRUE,,,,,,,,,,,,,,,,-0.7,,,,,,,,,,,METAR,203.0
CZHY 052200Z AUTO 06008KT 07/M00 RMK AO1 SLP248 T00731003 57009,CZHY,2020-05-05T22:00:00Z,60.83,-115.78,7.3,-0.3,60,8,,,,1024.8,,TRUE,TRUE,,,,,,,,,,,,,,,,-0.9,,,,,,,,,,,METAR,164.0
CZFS 052200Z AUTO 12005KT 11/M00 RMK AO1 SOG 01 6012 SLP226 T01051004,CZFS,2020-05-05T22:00:00Z,61.77,-121.23,10.5,-0.4,120,5,,,,1022.6,,TRUE,TRUE,,,,,,,,,,,,,,,,,,,,,,,,,,,METAR,168.0
CZEV 052200Z AUTO 15003KT M00/M02 RMK AO1 2PAST HR SOG 46 7001 SLP173 P0001 T10021017 50002,CZEV,2020-05-05T22:00:00Z,68.32,-133.52,-0.2,-1.7,150,3,,,,1017.3,,TRUE,TRUE,,,,,,,,,,,,,,,,0.2,,,,,0.01,,,,,,METAR,103.0
CWMT 052200Z AUTO 12010G16KT 06/M06 RMK AO1 PK WND 14017/2143 SLP265 T00641062 58011,CWMT,2020-05-05T22:00:00Z,63.13,-117.25,6.4,-6.2,120,10,16,,,1026.5,,TRUE,TRUE,,,,,,,,,,,,,,,,-1.1,,,,,,,,,,,METAR,271.0
CWWF 052200Z AUTO 36008KT 15/00 RMK AO1 2004 PK WND 35025/2102 SLP244 T01480000 50004,CWWF,2020-05-05T22:00:00Z,49.7,-103.8,14.8,0.0,360,8,,,,1024.4,,TRUE,TRUE,,,,,,,,,,,,,,,,0.4,,,,,,,,,,,METAR,589.0
CWAF 052200Z AUTO 04/01 RMK AO1 T00410011 50002,CWAF,2020-05-05T22:00:00Z,48.07,-69.53,4.1,1.1,,,,,,,,TRUE,TRUE,,,,,,,,,,,,,,,,0.2,,,,,,,,,,,METAR,5.0
CPRY 052200Z AUTO 07004KT 16/M03 RMK AO1 T01601030,CPRY,2020-05-05T22:00:00Z,49.48,-112.68,16.0,-3.0,70,4,,,,,,TRUE,TRUE,,,,,,,,,,,,,,,,,,,,,,,,,,,METAR,937.0
CPRO 052200Z AUTO 18003KT 16/M00 RMK AO1 T01571003,CPRO,2020-05-05T22:00:00Z,50.83,-112.05,15.7,-0.3,180,3,,,,,,TRUE,TRUE,,,,,,,,,,,,,,,,,,,,,,,,,,,METAR,714.0
CPIR 052200Z AUTO 20005KT 16/01 RMK AO1 T01600005,CPIR,2020-05-05T22:00:00Z,49.9,-112.73,16.0,0.5,200,5,,,,,,TRUE,TRUE,,,,,,,,,,,,,,,,,,,,,,,,,,,METAR,858.0
CPFI 052200Z AUTO 13005KT 16/M00 RMK AO1 T01571002,CPFI,2020-05-05T22:00:00Z,49.8,-112.03,15.7,-0.2,130,5,,,,,,TRUE,TRUE,,,,,,,,,,,,,,,,,,,,,,,,,,,METAR,833.0
CPEH 052200Z AUTO 10004KT 15/01 RMK AO1 T01540013,CPEH,2020-05-05T22:00:00Z,50.18,-112.43,15.4,1.3,100,4,,,,,,TRUE,TRUE,,,,,,,,,,,,,,,,,,,,,,,,,,,METAR,801.0
CPBT 052200Z AUTO 07006KT 16/M04 RMK AO1 T01611042,CPBT,2020-05-05T22:00:00Z,49.57,-113.05,16.1,-4.2,70,6,,,,,,TRUE,TRUE,,,,,,,,,,,,,,,,,,,,,,,,,,,METAR,980.0
CWAQ 052200Z AUTO 32009KT 14/M02 RMK AO1 SLP245 T01431016 51007,CWAQ,2020-05-05T22:00:00Z,49.05,-105.48,14.3,-1.6,320,9,,,,1024.5,,TRUE,TRUE,,,,,,,,,,,,,,,,0.7,,,,,,,,,,,METAR,756.0
CWWE 052200Z AUTO 33012G19KT 05/M00 RMK AO1 PK WND 33024/2140 SLP026 T00451001 53029,CWWE,2020-05-05T22:00:00Z,43.97,-64.67,4.5,-0.1,330,12,19,,,1002.6,,TRUE,TRUE,,,,,,,,,,,,,,,,2.9,,,,,,,,,,,METAR,9.0
CWPK 052200Z AUTO 35004KT 05/M06 RMK AO1 SLP153 T00541055 50002,CWPK,2020-05-05T22:00:00Z,47.92,-74.62,5.4,-5.5,350,4,,,,1015.3,,TRUE,TRUE,,,,,,,,,,,,,,,,0.2,,,,,,,,,,,METAR,442.0
CAHR 052200Z AUTO 35017G27KT 01/M00 RMK AO1 4PAST HR 3016 PK WND 34028/2133 SLP007 P0002 T00061002 50011,CAHR,2020-05-05T22:00:00Z,46.35,-63.17,0.6,-0.2,350,17,27,,,1000.7,,TRUE,TRUE,,,,,,,,,,,,,,,,1.1,,,,,0.02,,,,,,METAR,53.0
CWDK 052200Z AUTO 13009KT 17/M02 RMK AO1 SOG 01 7014 SLP243 T01671020,CWDK,2020-05-05T22:00:00Z,50.02,-113.62,16.7,-2.0,130,9,,,,1024.3,,TRUE,TRUE,,,,,,,,,,,,,,,,,,,,,,,,,,,METAR,1012.0
CWDJ 052200Z AUTO 35007KT 15/01 RMK AO1 SLP246 T01490012 51004,CWDJ,2020-05-05T22:00:00Z,50.4,-104.58,14.9,1.2,350,7,,,,1024.6,,TRUE,TRUE,,,,,,,,,,,,,,,,0.4,,,,,,,,,,,METAR,573.0
CWCO 052200Z AUTO 32010KT 04/M01 RMK AO1 SLP168 T00431008 56013,CWCO,2020-05-05T22:00:00Z,44.5,-80.22,4.3,-0.8,320,10,,,,1016.8,,TRUE,TRUE,,,,,,,,,,,,,,,,-1.3,,,,,,,,,,,METAR,182.0
CWCJ 052200Z AUTO 23003KT 05/M01 RMK AO1 SOG 01 6012 SLP203 T00491013,CWCJ,2020-05-05T22:00:00Z,48.6,-86.28,4.9,-1.3,230,3,,,,1020.3,,TRUE,TRUE,,,,,,,,,,,,,,,,,,,,,,,,,,,METAR,206.0
CWCF 052200Z AUTO 32011G17KT 07/M01 RMK AO1 PK WND 33017/2157 SLP232 T00721010 50002,CWCF,2020-05-05T22:00:00Z,52.35,-97.03,7.2,-1.0,320,11,17,,,1023.2,,TRUE,TRUE,,,,,,,,,,,,,,,,0.2,,,,,,,,,,,METAR,222.0
CWBZ 052200Z AUTO 30007KT 12/M03 RMK AO1 SLP129 T01231032 56004,CWBZ,2020-05-05T22:00:00Z,45.12,-74.27,12.3,-3.2,300,7,,,,1012.9,,TRUE,TRUE,,,,,,,,,,,,,,,,-0.4,,,,,,,,,,,METAR,49.0
CWBT 052200Z AUTO 05004KT 06/M05 RMK AO1 SLP066 T00631054 52005,CWBT,2020-05-05T22:00:00Z,50.27,-64.23,6.3,-5.4,50,4,,,,1006.6,,TRUE,TRUE,,,,,,,,,,,,,,,,0.5,,,,,,,,,,,METAR,11.0
CWBO 052200Z AUTO 14004KT 15/02 RMK AO1 SLP253 T01510016 58010,CWBO,2020-05-05T22:00:00Z,50.53,-111.83,15.1,1.6,140,4,,,,1025.3,,TRUE,TRUE,,,,,,,,,,,,,,,,-1.0,,,,,,,,,,,METAR,747.0
CWAV 052200Z AUTO 10009G16KT 16/M02 RMK AO1 PK WND 12017/2135 SLP234 T01601024 58015,CWAV,2020-05-05T22:00:00Z,51.77,-114.67,16.0,-2.4,100,9,16,,,1023.4,,TRUE,TRUE,,,,,,,,,,,,,,,,-1.5,,,,,,,,,,,METAR,1114.0
CWER 052200Z AUTO 06017KT RMK AO1 PK WND 05023/2118,CWER,2020-05-05T22:00:00Z,47.0,-70.82,,,60,17,,,,,,TRUE,TRUE,,,,,,,,,,,,,,,,,,,,,,,,,,,METAR,5.0
UTFN 052200Z 35006KT 9999 OVC050CB 16/11 Q1017 R28/CLRD70 NOSIG,UTFN,2020-05-05T22:00:00Z,40.98,71.57,16.0,11.0,350,6,,6.21,30.029528,,,,,,TRUE,,,,,OVC,5000,,,,,,,VFR,,,,,,,,,,,,METAR,490.0
CWNH 052200Z AUTO 31004KT 03/M01 RMK AO1 SLP119 T00341009 52004,CWNH,2020-05-05T22:00:00Z,47.78,-69.53,3.4,-0.9,310,4,,,,1011.9,,TRUE,TRUE,,,,,,,,,,,,,,,,0.4,,,,,,,,,,,METAR,148.0
CWRN 052200Z AUTO 29020G26KT 04/03 RMK AO1 PK WND 29026/2157 SLP932 T00380033 53011,CWRN,2020-05-05T22:00:00Z,45.35,-60.98,3.8,3.3,290,20,26,,,993.2,,TRUE,TRUE,,,,,,,,,,,,,,,,1.1,,,,,,,,,,,METAR,8.0
CWHO 052200Z AUTO 36014G19KT M02/M04 RMK AO1 PK WND 01021/2135 SLP169 T10201038 55001,CWHO,2020-05-05T22:00:00Z,55.45,-60.22,-2.0,-3.8,360,14,19,,,1016.9,,TRUE,TRUE,,,,,,,,,,,,,,,,-0.1,,,,,,,,,,,METAR,8.0
CWBV 052200Z AUTO 32019G25KT 04/02 RMK AO1 PK WND 32025/2155 SLP959 T00430020 51020,CWBV,2020-05-05T22:00:00Z,44.82,-62.32,4.3,2.0,320,19,25,,,995.9,,TRUE,TRUE,,,,,,,,,,,,,,,,2.0,,,,,,,,,,,METAR,10.0
CWBY 052200Z AUTO 32002KT 03/02 RMK AO1 SLP061 T00250021 55001,CWBY,2020-05-05T22:00:00Z,49.82,-64.28,2.5,2.1,320,2,,,,1006.1,,TRUE,TRUE,,,,,,,,,,,,,,,,-0.1,,,,,,,,,,,METAR,53.0
CWSF 052200Z AUTO 28015KT 02/M00 RMK AO1 PK WND 27019/2156 SLP066 T00211004 56008,CWSF,2020-05-05T22:00:00Z,49.25,-65.32,2.1,-0.4,280,15,,,,1006.6,,TRUE,TRUE,,,,,,,,,,,,,,,,-0.8,,,,,,,,,,,METAR,29.0
SBCG 052200Z 35006KT CAVOK 26/13 Q1012,SBCG,2020-05-05T22:00:00Z,-20.47,-54.67,26.0,13.0,350,6,,6.21,29.88189,,,,,,,,,,,CAVOK,,,,,,,,VFR,,,,,,,,,,,,METAR,567.0
WBGR 052200Z 10004KT 9999 FEW016 BKN150 25/24 Q1009,WBGR,2020-05-05T22:00:00Z,4.32,113.97,25.0,24.0,100,4,,6.21,29.793306,,,,,,,,,,,FEW,1600,BKN,15000,,,,,VFR,,,,,,,,,,,,METAR,18.0
NSFA 052200Z VRB03KT 9999 FEW024 31/25 Q1011 RMK NIL,NSFA,2020-05-05T22:00:00Z,-13.83,-172.0,31.0,25.0,0,3,,6.21,29.852362,,,,,,,,,,,FEW,2400,,,,,,,VFR,,,,,,,,,,,,SPECI,5.0
FBMN 052200Z 09009KT CAVOK 19/06 Q1024,FBMN,2020-05-05T22:00:00Z,-19.97,23.42,19.0,6.0,90,9,,6.21,30.236221,,,,,,,,,,,CAVOK,,,,,,,,VFR,,,,,,,,,,,,METAR,900.0
SAZN 052200Z 32002KT CAVOK 11/05 Q1025,SAZN,2020-05-05T22:00:00Z,-38.95,-68.15,11.0,5.0,320,2,,6.21,30.265747,,,,,,,,,,,CAVOK,,,,,,,,VFR,,,,,,,,,,,,METAR,271.0
FQNP 052200Z 21006KT 9999 BKN020 21/18 Q1019,FQNP,2020-05-05T22:00:00Z,-15.08,39.27,21.0,18.0,210,6,,6.21,30.088583,,,,,,,,,,,BKN,2000,,,,,,,MVFR,,,,,,,,,,,,METAR,441.0
RJCC 052200Z 17003KT 140V210 9999 FEW010 BKN015 08/05 Q1015 RMK 1ST010 7ST015 A2999,RJCC,2020-05-05T22:00:00Z,42.77,141.67,8.0,5.0,170,3,,6.21,29.970472,,,,,,,,,,,FEW,1000,BKN,1500,,,,,MVFR,,,,,,,,,,,,METAR,30.0
RJAA 052200Z 02007KT 8000 FEW003 SCT006 BKN008 15/14 Q1013 NOSIG RMK 1ST003 4ST006 6ST008 A2993,RJAA,2020-05-05T22:00:00Z,35.77,140.37,15.0,14.0,20,7,,4.97,29.911417,,,,,,TRUE,,,,,FEW,300,SCT,600,BKN,800,,,IFR,,,,,,,,,,,,METAR,44.0
FBSK 052200Z 19004KT CAVOK 15/10 Q1026 NOSIG,FBSK,2020-05-05T22:00:00Z,-24.55,25.92,15.0,10.0,190,4,,6.21,30.295275,,,,,,TRUE,,,,,CAVOK,,,,,,,,VFR,,,,,,,,,,,,METAR,1005.0
SCTE 052200Z 23004KT CAVOK 09/08 Q1025 NOSIG,SCTE,2020-05-05T22:00:00Z,-41.42,-73.07,9.0,8.0,230,4,,6.21,30.265747,,,,,,TRUE,,,,,CAVOK,,,,,,,,VFR,,,,,,,,,,,,METAR,86.0
SLVR 052200Z 36003KT 9999 SCT020 SCT070 26/22 Q1010,SLVR,2020-05-05T22:00:00Z,-17.63,-63.12,26.0,22.0,360,3,,6.21,29.822834,,,,,,,,,,,SCT,2000,SCT,7000,,,,,VFR,,,,,,,,,,,,METAR,373.0
SLLP 052200Z 26008KT 230V300 9999 FEW027 FEW030CB SCT200 12/M03Q1035,SLLP,2020-05-05T22:00:00Z,-16.52,-68.17,,,260,8,,6.21,30.561024,,,,,,,,,,,FEW,2700,FEW,3000,SCT,20000,,,VFR,,,,,,,,,,,,METAR,4014.0
MDCY 052200Z 24004KT 8000 VCSH FEW015CB BKN016 OVC070 25/24 Q1013 RERA CB/NE/SE,MDCY,2020-05-05T22:00:00Z,19.27,-69.73,25.0,24.0,240,4,,4.97,29.911417,,,,,,,,,,VCSH,FEW,1500,BKN,1600,OVC,7000,,,MVFR,,,,,,,,,,,,METAR,10.0
MDLR 052200Z 03005KT 8000 VCSH SCT018 28/24 Q1012,MDLR,2020-05-05T22:00:00Z,18.45,-68.92,28.0,24.0,30,5,,4.97,29.88189,,,,,,,,,,VCSH,SCT,1800,,,,,,,MVFR,,,,,,,,,,,,METAR,8.0
MDSD 052200Z 04005KT 9999 FEW018CB FEW020 SCT300 27/23 Q1013 CB/N,MDSD,2020-05-05T22:00:00Z,18.42,-69.67,27.0,23.0,40,5,,6.21,29.911417,,,,,,,,,,,FEW,1800,FEW,2000,SCT,30000,,,VFR,,,,,,,,,,,,METAR,18.0
MDPC 052200Z 09009KT 9999 FEW022 BKN300 29/23 Q1013,MDPC,2020-05-05T22:00:00Z,18.57,-68.37,29.0,23.0,90,9,,6.21,29.911417,,,,,,,,,,,FEW,2200,BKN,30000,,,,,VFR,,,,,,,,,,,,METAR,12.0
MDST 052200Z 13010KT 9999 FEW020CB BKN020 28/23 Q1014 RERA CB/SW/W/NW/N,MDST,2020-05-05T22:00:00Z,19.4,-70.6,28.0,23.0,130,10,,6.21,29.940945,,,,,,,,,,,FEW,2000,BKN,2000,,,,,MVFR,,,,,,,,,,,,METAR,184.0
MDPP 052200Z 09010KT 9999 FEW020CB SCT020 28/22 Q1013 CB/W,MDPP,2020-05-05T22:00:00Z,19.75,-70.57,28.0,22.0,90,10,,6.21,29.911417,,,,,,,,,,,FEW,2000,SCT,2000,,,,,VFR,,,,,,,,,,,,METAR,5.0
MZBZ 052200Z 08010G20KT 9999 BKN023 31/25 A2982 Q1010 NOSIG,MZBZ,2020-05-05T22:00:00Z,17.52,-88.3,31.0,25.0,80,10,20,6.21,29.822834,,,,,,TRUE,,,,,BKN,2300,,,,,,,MVFR,,,,,,,,,,,,METAR,5.0
OPST 052200Z 00000KT 5000 FU FEW040 22/14 Q1007 NOSIG RH62,OPST,2020-05-05T22:00:00Z,32.53,74.37,22.0,14.0,0,0,,3.11,29.734253,,,,,,TRUE,,,,FU,FEW,4000,,,,,,,MVFR,,,,,,,,,,,,METAR,247.0
UWKD 052200Z 13006MPS CAVOK 12/01 Q1019 R11/CLRD70 NOSIG RMK QFE754/1005,UWKD,2020-05-05T22:00:00Z,55.62,49.28,12.0,1.0,130,12,,6.21,30.088583,,,,,,TRUE,,,,,CAVOK,,,,,,,,VFR,,,,,,,,,,,,SPECI,126.0
USPP 052200Z 23003MPS CAVOK 14/03 Q1020 R21/090060 NOSIG RMK QFE754,USPP,2020-05-05T22:00:00Z,57.92,56.02,14.0,3.0,230,6,,6.21,30.11811,,,,,,TRUE,,,,,CAVOK,,,,,,,,VFR,,,,,,,,,,,,SPECI,123.0
UWKE 052200Z 17005MPS CAVOK 14/M03 Q1021 R21/090070 NOSIG RMK QFE749/0998,UWKE,2020-05-05T22:00:00Z,55.57,52.08,14.0,-3.0,170,10,,6.21,30.147638,,,,,,TRUE,,,,,CAVOK,,,,,,,,VFR,,,,,,,,,,,,SPECI,196.0
UWKS 052200Z 17002MPS CAVOK 14/M01 Q1016 R24/////// NOSIG RMK QFE748,UWKS,2020-05-05T22:00:00Z,56.08,47.35,14.0,-1.0,170,4,,6.21,30.0,,,,,,TRUE,,,,,CAVOK,,,,,,,,VFR,,,,,,,,,,,,METAR,170.0
UWLW 052200Z 15002MPS 8000 NSC 14/01 Q1018 R20/CLRD60 NOSIG RMK QFE758,UWLW,2020-05-05T22:00:00Z,54.4,48.8,14.0,1.0,150,4,,4.97,30.059055,,,,,,TRUE,,,,,CLR,,,,,,,,MVFR,,,,,,,,,,,,SPECI,66.0
UWOR 052200Z VRB01MPS CAVOK 08/02 Q1026 R25/CLRD65 NOSIG RMK QFE746/0994,UWOR,2020-05-05T22:00:00Z,51.07,58.6,8.0,2.0,0,2,,6.21,30.295275,,,,,,TRUE,,,,,CAVOK,,,,,,,,VFR,,,,,,,,,,,,METAR,277.0
UWOO 052200Z 09004MPS CAVOK 06/M01 Q1025 R08/65D NOSIG RMK QFE758/1011,UWOO,2020-05-05T22:00:00Z,51.8,55.47,6.0,-1.0,90,8,,6.21,30.265747,,,,,,TRUE,,,,,CAVOK,,,,,,,,VFR,,,,,,,,,,,,METAR,109.0
SBVT 052200Z 03010KT CAVOK 24/21 Q1014,SBVT,2020-05-05T22:00:00Z,-20.27,-40.27,24.0,21.0,30,10,,6.21,29.940945,,,,,,,,,,,CAVOK,,,,,,,,VFR,,,,,,,,,,,,METAR,4.0
UWSG 052200Z 15003MPS 9000 -SHRA SCT050CB 15/13 Q1013 R08/CLRD70 NOSIG RMK QFE758/1010,UWSG,2020-05-05T22:00:00Z,51.72,46.17,15.0,13.0,150,6,,5.59,29.911417,,,,,,TRUE,,,,-SHRA,SCT,5000,,,,,,,VFR,,,,,,,,,,,,METAR,31.0
UUEE 052200Z 11002MPS CAVOK 14/13 Q1006 R06R/290045 NOSIG,UUEE,2020-05-05T22:00:00Z,55.97,37.42,14.0,13.0,110,4,,6.21,29.704725,,,,,,TRUE,,,,,CAVOK,,,,,,,,VFR,,,,,,,,,,,,SPECI,190.0
UUDL 052200Z AUTO 00000MPS 9999 NCD 14/11 Q1009 R23/////// RMK QFE748,UUDL,2020-05-05T22:00:00Z,57.57,40.17,14.0,11.0,0,0,,6.21,29.793306,,,TRUE,,,,,,,,CLR,,,,,,,,VFR,,,,,,,,,,,,METAR,88.0
UUDD 052200Z 12004MPS 8000 NSC 14/12 Q1006 R14R/290045 NOSIG,UUDD,2020-05-05T22:00:00Z,55.4,37.9,14.0,12.0,120,8,,4.97,29.704725,,,,,,TRUE,,,,,CLR,,,,,,,,MVFR,,,,,,,,,,,,SPECI,168.0
ULLI 052200Z 00000MPS CAVOK 10/01 Q1011 R10R/090060 NOSIG,ULLI,2020-05-05T22:00:00Z,59.8,30.27,10.0,1.0,0,0,,6.21,29.852362,,,,,,TRUE,,,,,CAVOK,,,,,,,,VFR,,,,,,,,,,,,METAR,4.0
UEEE 052200Z 13001MPS CAVOK M00/M05 Q1009 R23L/09//60 NOSIG RMK QFE748,UEEE,2020-05-05T22:00:00Z,62.08,129.77,0.0,-5.0,130,2,,6.21,29.793306,,,,,,TRUE,,,,,CAVOK,,,,,,,,VFR,,,,,,,,,,,,METAR,103.0
UUOL 052200Z 12003MPS CAVOK 13/12 Q1007 R15/190055 NOSIG,UUOL,2020-05-05T22:00:00Z,52.7,39.53,13.0,12.0,120,6,,6.21,29.734253,,,,,,TRUE,,,,,CAVOK,,,,,,,,VFR,,,,,,,,,,,,METAR,176.0
UUBW 052200Z 12005MPS CAVOK 15/12 Q1006 R30/210050 NOSIG,UUBW,2020-05-05T22:00:00Z,55.55,38.15,15.0,12.0,120,10,,6.21,29.704725,,,,,,TRUE,,,,,CAVOK,,,,,,,,VFR,,,,,,,,,,,,METAR,115.0
UWWW 052200Z 12003MPS CAVOK 13/00 Q1020 R15/CLRD60 NOSIG RMK QFE753/1004,UWWW,2020-05-05T22:00:00Z,53.5,50.17,13.0,0.0,120,6,,6.21,30.11811,,,,,,TRUE,,,,,CAVOK,,,,,,,,VFR,,,,,,,,,,,,SPECI,146.0
FQQL 052200Z 17004KT 9999 SCT020 25/19 Q1020,FQQL,2020-05-05T22:00:00Z,-17.87,36.87,25.0,19.0,170,4,,6.21,30.11811,,,,,,,,,,,SCT,2000,,,,,,,VFR,,,,,,,,,,,,METAR,16.0
UUWW 052200Z 00000MPS 9000 NSC 13/12 Q1005 R06/290150 BECMG 3000 BR,UUWW,2020-05-05T22:00:00Z,55.6,37.27,13.0,12.0,0,0,,5.59,29.675198,,,,,,,,,,,CLR,,,,,,,,VFR,,,,,,,,,,,,METAR,203.0
UUMO 052200Z 14003MPS CAVOK 15/14 Q1005 R26/290250 NOSIG RMK QFE739/0985,UUMO,2020-05-05T22:00:00Z,55.52,37.5,15.0,14.0,140,6,,6.21,29.675198,,,,,,TRUE,,,,,CAVOK,,,,,,,,VFR,,,,,,,,,,,,METAR,174.0
URKA 052200Z AUTO 21004MPS 9999 // 14/12 Q1009 RMK QFE753/1004,URKA,2020-05-05T22:00:00Z,45.0,37.35,14.0,12.0,210,8,,6.21,29.793306,,,TRUE,,,,,,,,,,,,,,,,,,,,,,,,,,,,METAR,53.0
URKK 052200Z 29003MPS 8000 SCT053CB 14/13 Q1008 R05R/290060 TEMPO 0500 FG BKN002 BKN020CB RMK QFE753,URKK,2020-05-05T22:00:00Z,45.03,39.15,14.0,13.0,290,6,,4.97,29.763779,,,,,,,,,,,SCT,5300,,,,,,,MVFR,,,,,,,,,,,,METAR,34.0
SBKP 052200Z 24004KT CAVOK 23/09 Q1015,SBKP,2020-05-05T22:00:00Z,-23.0,-47.12,23.0,9.0,240,4,,6.21,29.970472,,,,,,,,,,,CAVOK,,,,,,,,VFR,,,,,,,,,,,,METAR,661.0
URML 052200Z 26005MPS 9999 NSC 16/13 Q1004 R14/01//70 TEMPO 3100 BR SCT003 RMK QFE753/1004,URML,2020-05-05T22:00:00Z,42.82,47.65,16.0,13.0,260,10,,6.21,29.64567,,,,,,,,,,,CLR,,,,,,,,VFR,,,,,,,,,,,,METAR,4.0
URMG 052200Z 18002MPS CAVOK 15/12 Q1006 R26/090070 NOSIG RMK QFE740/0986,URMG,2020-05-05T22:00:00Z,43.37,45.7,15.0,12.0,180,4,,6.21,29.704725,,,,,,TRUE,,,,,CAVOK,,,,,,,,VFR,,,,,,,,,,,,METAR,263.0
URMN 052200Z 22002MPS 9999 BKN/// 16/12 Q1007 R24/////// NOSIG RMK QFE719,URMN,2020-05-05T22:00:00Z,43.52,43.63,16.0,12.0,220,4,,6.21,29.734253,,,,,,TRUE,,,,,,,,,,,,,,,,,,,,,,,,,METAR,445.0
URMM 052200Z VRB01MPS 9999 SCT045 15/12 Q1008 R30/090070 NOSIG RMK QFE728/0970,URMM,2020-05-05T22:00:00Z,44.22,43.1,15.0,12.0,0,2,,6.21,29.763779,,,,,,TRUE,,,,,SCT,4500,,,,,,,VFR,,,,,,,,,,,,METAR,314.0
UIAA 052200Z 08002MPS 040V150 9999 SCT050CB 11/M07 Q1008 R29/CLRD70 NOSIG RMK QFE697/0930,UIAA,2020-05-05T22:00:00Z,52.02,113.32,11.0,-7.0,80,4,,6.21,29.763779,,,,,,TRUE,,,,,SCT,5000,,,,,,,VFR,,,,,,,,,,,,SPECI,685.0
UIBB 052200Z 23006MPS 110V260 9999 BKN019CB 03/M01 Q1009 R30/60D NOSIG RMK QFE714/0952,UIBB,2020-05-05T22:00:00Z,56.37,101.7,3.0,-1.0,230,12,,6.21,29.793306,,,,,,TRUE,,,,,BKN,1900,,,,,,,MVFR,,,,,,,,,,,,METAR,490.0
UIII 052200Z VRB01MPS 9999 -SHRA OVC013CB 05/05 Q1014 R30/290150 NOSIG RMK QFE716/0954,UIII,2020-05-05T22:00:00Z,52.27,104.4,5.0,5.0,0,2,,6.21,29.940945,,,,,,TRUE,,,,-SHRA,OVC,1300,,,,,,,MVFR,,,,,,,,,,,,SPECI,513.0
UIUU 052200Z 32005MPS 280V350 9999 BKN033CB 08/03 Q1008 R26/CLRD60 NOSIG RMK QFE712/0950,UIUU,2020-05-05T22:00:00Z,51.8,107.45,8.0,3.0,320,10,,6.21,29.763779,,,,,,TRUE,,,,,BKN,3300,,,,,,,VFR,,,,,,,,,,,,SPECI,515.0
UUOB 052200Z 15003MPS CAVOK 14/13 Q1006 R11/290055 NOSIG,UUOB,2020-05-05T22:00:00Z,50.65,36.58,14.0,13.0,150,6,,6.21,29.704725,,,,,,TRUE,,,,,CAVOK,,,,,,,,VFR,,,,,,,,,,,,METAR,224.0
UUBC 052200Z AUTO 14002MPS 0150 // 11/10 Q1005 RMK QBB040 QFE736/0981,UUBC,2020-05-05T22:00:00Z,54.55,36.37,11.0,10.0,140,4,,0.09,29.675198,,,TRUE,,,,,,,,,,,,,,,,,,,,,,,,,,,,METAR,199.0
UWGG 052200Z 14002MPS CAVOK 18/06 Q1012 R18L/090060 NOSIG,UWGG,2020-05-05T22:00:00Z,56.23,43.78,18.0,6.0,140,4,,6.21,29.88189,,,,,,TRUE,,,,,CAVOK,,,,,,,,VFR,,,,,,,,,,,,METAR,73.0
ULAA 052200Z 13001MPS CAVOK M01/M03 Q1016 R08/CLRD68 NOSIG RMK QFE761/1015,ULAA,2020-05-05T22:00:00Z,64.6,40.72,-1.0,-3.0,130,2,,6.21,30.0,,,,,,TRUE,,,,,CAVOK,,,,,,,,VFR,,,,,,,,,,,,SPECI,19.0
CYCB 052200Z 02005KT 15SM BKN016 M11/M15 A3057 RMK SC6 SLP356,CYCB,2020-05-05T22:00:00Z,69.08,-105.12,-11.0,-15.0,20,5,,15.0,30.569881,1035.6,,,,,,,,,,BKN,1600,,,,,,,MVFR,,,,,,,,,,,,METAR,27.0
UMKK 052200Z 27002MPS 8000 NSC 06/05 Q1012 R24/290095 NOSIG RMK QFE757/1010,UMKK,2020-05-05T22:00:00Z,54.88,20.6,6.0,5.0,270,4,,4.97,29.88189,,,,,,TRUE,,,,,CLR,,,,,,,,MVFR,,,,,,,,,,,,METAR,21.0
UUYY 052200Z 35002MPS 7000 SCT003 09/09 Q1016 R36/29//51 TEMPO 0300 FG RMK QBB100 QFE753/1004,UUYY,2020-05-05T22:00:00Z,61.65,50.82,9.0,9.0,350,4,,4.35,30.0,,,,,,,,,,,SCT,300,,,,,,,MVFR,,,,,,,,,,,,METAR,119.0
UUOO 052200Z 13002MPS 9999 BKN040CB 13/10 Q1006 R12/090070 NOSIG RMK QFE741,UUOO,2020-05-05T22:00:00Z,51.82,39.23,13.0,10.0,130,4,,6.21,29.704725,,,,,,TRUE,,,,,BKN,4000,,,,,,,VFR,,,,,,,,,,,,SPECI,157.0
UHBB 052200Z 01002MPS CAVOK 02/M05 Q1014 R36/090060 NOSIG RMK QFE743/0990,UHBB,2020-05-05T22:00:00Z,50.43,127.42,2.0,-5.0,10,4,,6.21,29.940945,,,,,,TRUE,,,,,CAVOK,,,,,,,,VFR,,,,,,,,,,,,METAR,195.0
UHHH 052200Z 09003MPS 060V120 CAVOK 07/M01 Q1011 R23L/090060 NOSIG RMK QFE752/1003,UHHH,2020-05-05T22:00:00Z,48.52,135.18,7.0,-1.0,90,6,,6.21,29.852362,,,,,,TRUE,,,,,CAVOK,,,,,,,,VFR,,,,,,,,,,,,METAR,72.0
UHPP 052200Z 33002MPS 9999 FEW007 BKN030CB BKN046 01/01 Q0984 R34L/290150 NOSIG RMK MT OBSC QFE735/0980,UHPP,2020-05-05T22:00:00Z,53.17,158.45,1.0,1.0,330,4,,6.21,29.055119,,,,,,TRUE,,,,,FEW,700,BKN,3000,BKN,4600,,,MVFR,,,,,,,,,,,,METAR,40.0
UHWW 052200Z 31002MPS 9999 FEW013 09/08 Q1014 R25L/19//65 NOSIG RMK QFE759,UHWW,2020-05-05T22:00:00Z,43.4,132.15,9.0,8.0,310,4,,6.21,29.940945,,,,,,TRUE,,,,,FEW,1300,,,,,,,VFR,,,,,,,,,,,,METAR,14.0
UHMD 052200Z 20002MPS CAVOK M01/M07 Q1021 RMK QFE765/1020,UHMD,2020-05-05T22:00:00Z,64.38,-173.22,-1.0,-7.0,200,4,,6.21,30.147638,,,,,,,,,,,CAVOK,,,,,,,,VFR,,,,,,,,,,,,METAR,3.0
UHMA 052200Z 36001MPS 9999 VCFG NSC M06/M09 Q1022 R01/60D NOSIG RMK TDZ R01/36001G02MPS END R01/36003MPS QFE762/1017,UHMA,2020-05-05T22:00:00Z,64.73,177.73,-6.0,-9.0,360,2,,6.21,30.177166,,,,,,TRUE,,,,VCFG,CLR,,,,,,,,VFR,,,,,,,,,,,,METAR,62.0
UHMM 052200Z 01005G10MPS 9999 SCT040 02/M07 Q0998 R10/70D NOSIG RMK QFE733,UHMM,2020-05-05T22:00:00Z,59.92,150.72,2.0,-7.0,10,10,19,6.21,29.468504,,,,,,TRUE,,,,,SCT,4000,,,,,,,VFR,,,,,,,,,,,,METAR,175.0
UHSS 052200Z 00000MPS 9999 BKN033CB 03/02 Q1016 R01/70D NOSIG RMK MT OBSC QFE761/1014,UHSS,2020-05-05T22:00:00Z,46.88,142.72,3.0,2.0,0,0,,6.21,30.0,,,,,,TRUE,,,,,BKN,3300,,,,,,,VFR,,,,,,,,,,,,METAR,31.0
UNAA 052200Z 23004MPS CAVOK 06/M02 Q1024 R20/090065 NOSIG RMK QFE745,UNAA,2020-05-05T22:00:00Z,53.75,91.4,6.0,-2.0,230,8,,6.21,30.236221,,,,,,TRUE,,,,,CAVOK,,,,,,,,VFR,,,,,,,,,,,,SPECI,245.0
UNEE 052200Z 26004MPS CAVOK 01/M01 Q1024 R23/CLRD60 NOSIG RMK QFE745,UNEE,2020-05-05T22:00:00Z,55.27,86.08,1.0,-1.0,260,8,,6.21,30.236221,,,,,,TRUE,,,,,CAVOK,,,,,,,,VFR,,,,,,,,,,,,METAR,260.0
UNBB 052200Z 26004MPS CAVOK 04/00 Q1028 R24/CLRD66 NOSIG RMK QFE748,UNBB,2020-05-05T22:00:00Z,53.37,83.53,4.0,0.0,260,8,,6.21,30.35433,,,,,,TRUE,,,,,CAVOK,,,,,,,,VFR,,,,,,,,,,,,METAR,255.0
UNKL 052200Z 27007MPS 9999 SCT043 04/02 Q1017 R29/290150 NOSIG RMK QFE737,UNKL,2020-05-05T22:00:00Z,56.17,92.48,4.0,2.0,270,14,,6.21,30.029528,,,,,,TRUE,,,,,SCT,4300,,,,,,,VFR,,,,,,,,,,,,METAR,276.0
UNOO 052200Z 22002MPS CAVOK 05/M01 Q1028 R25/CLRD60 NOSIG RMK QFE763,UNOO,2020-05-05T22:00:00Z,54.97,73.32,5.0,-1.0,220,4,,6.21,30.35433,,,,,,TRUE,,,,,CAVOK,,,,,,,,VFR,,,,,,,,,,,,METAR,95.0
UNNT 052200Z 25004MPS CAVOK 01/M01 Q1027 R25/090070 R16/090070 NOSIG RMK QFE760/1013,UNNT,2020-05-05T22:00:00Z,55.02,82.63,1.0,-1.0,250,8,,6.21,30.324802,,,,,,TRUE,,,,,CAVOK,,,,,,,,VFR,,,,,,,,,,,,SPECI,111.0
UNTT 052200Z 20003MPS 9000 NSC M00/M00 Q1023 R21/190055 NOSIG RMK QFE752,UNTT,2020-05-05T22:00:00Z,56.38,85.22,0.0,0.0,200,6,,5.59,30.206694,,,,,,TRUE,,,,,CLR,,,,,,,,VFR,,,,,,,,,,,,METAR,182.0
TVSA 052200Z 08006KT 040V150 9999 SCT020 28/24 Q1012 TEMPO SHRA ,TVSA,2020-05-05T22:00:00Z,13.15,-61.15,28.0,24.0,80,6,,6.21,29.88189,,,,,,,,,,,SCT,2000,,,,,,,VFR,,,,,,,,,,,,METAR,17.0
USCM 052200Z 24004MPS 9999 FEW040 13/M00 Q1025 R18/090060 NOSIG RMK QFE731,USCM,2020-05-05T22:00:00Z,53.4,58.75,13.0,0.0,240,8,,6.21,30.265747,,,,,,TRUE,,,,,FEW,4000,,,,,,,VFR,,,,,,,,,,,,METAR,435.0
USHH 052200Z 00000MPS CAVOK 10/08 Q1016 R24/010060 NOSIG,USHH,2020-05-05T22:00:00Z,61.03,69.08,10.0,8.0,0,0,,6.21,30.0,,,,,,TRUE,,,,,CAVOK,,,,,,,,VFR,,,,,,,,,,,,METAR,23.0
USTR 052200Z 22005MPS CAVOK 12/M01 Q1024 R21/CLRD65 R30/CLRD65 NOSIG RMK QFE758/1011,USTR,2020-05-05T22:00:00Z,57.17,65.32,12.0,-1.0,220,10,,6.21,30.236221,,,,,,TRUE,,,,,CAVOK,,,,,,,,VFR,,,,,,,,,,,,SPECI,115.0
WMAU 052200Z AUTO 23005KT //// // ////// 24/24 Q1008,WMAU,2020-05-05T22:00:00Z,2.38,103.88,24.0,24.0,230,5,,,29.763779,,,TRUE,,,,,,,,,,,,,,,,,,,,,,,,,,,,METAR,45.0
WMBA 052200Z VRB02KT 7000 -RA FEW017CB SCT029 26/25 Q1008 RERA,WMBA,2020-05-05T22:00:00Z,4.22,100.7,26.0,25.0,0,2,,4.35,29.763779,,,,,,,,,,-RA,FEW,1700,SCT,2900,,,,,MVFR,,,,,,,,,,,,METAR,8.0
WMKA 052200Z 26003KT 200V330 6000 RA SCT026 26/25 Q1008,WMKA,2020-05-05T22:00:00Z,6.2,100.4,26.0,25.0,260,3,,3.73,29.763779,,,,,,,,,,RA,SCT,2600,,,,,,,MVFR,,,,,,,,,,,,METAR,5.0
WMKB 052200Z 10004KT 6000 -RA FEW010 SCT024 26/25 Q1008 NOSIG,WMKB,2020-05-05T22:00:00Z,5.47,100.37,26.0,25.0,100,4,,3.73,29.763779,,,,,,TRUE,,,,-RA,FEW,1000,SCT,2400,,,,,MVFR,,,,,,,,,,,,METAR,4.0
WMKC 052200Z VRB03KT 9999 FEW020 26/25 Q1008,WMKC,2020-05-05T22:00:00Z,6.17,102.27,26.0,25.0,0,3,,6.21,29.763779,,,,,,,,,,,FEW,2000,,,,,,,VFR,,,,,,,,,,,,METAR,5.0
WMKE 052200Z AUTO VRB01KT //// // ////// 25/24 Q1007,WMKE,2020-05-05T22:00:00Z,4.53,103.43,25.0,24.0,0,1,,,29.734253,,,TRUE,,,,,,,,,,,,,,,,,,,,,,,,,,,,METAR,5.0
WMKD 052200Z 00000KT 6000 FEW005 26/25 Q1008 NOSIG,WMKD,2020-05-05T22:00:00Z,3.77,103.22,26.0,25.0,0,0,,3.73,29.763779,,,,,,TRUE,,,,,FEW,500,,,,,,,MVFR,,,,,,,,,,,,METAR,16.0
WMKI 052200Z 10003KT 050V120 8000 FEW006 25/25 Q1009,WMKI,2020-05-05T22:00:00Z,4.57,101.08,25.0,25.0,100,3,,4.97,29.793306,,,,,,,,,,,FEW,600,,,,,,,MVFR,,,,,,,,,,,,METAR,39.0
WMKL 052200Z VRB02KT 8000 -RA FEW010 FEW017CB 26/26 Q1008,WMKL,2020-05-05T22:00:00Z,6.32,99.72,26.0,26.0,0,2,,4.97,29.763779,,,,,,,,,,-RA,FEW,1000,FEW,1700,,,,,MVFR,,,,,,,,,,,,METAR,7.0
WMKM 052200Z 24008G20KT 150V300 4000 TSRA FEW017CB SCT025 25/24 Q1010,WMKM,2020-05-05T22:00:00Z,2.27,102.25,25.0,24.0,240,8,20,2.49,29.822834,,,,,,,,,,TSRA,FEW,1700,SCT,2500,,,,,IFR,,,,,,,,,,,,METAR,9.0
WMKN 052200Z VRB03KT 9999 FEW022 26/26 Q1007,WMKN,2020-05-05T22:00:00Z,5.37,103.08,26.0,26.0,0,3,,6.21,29.734253,,,,,,,,,,,FEW,2200,,,,,,,VFR,,,,,,,,,,,,METAR,6.0
URWW 052200Z 10003MPS 8000 NSC 15/14 Q1009 R06/290157 TEMPO 0400 FG BKN002 BKN020CB,URWW,2020-05-05T22:00:00Z,48.78,44.33,15.0,14.0,100,6,,4.97,29.793306,,,,,,,,,,,CLR,,,,,,,,MVFR,,,,,,,,,,,,METAR,147.0
URWI 052200Z AUTO 31003MPS 9999 // NSC 13/11 Q1008,URWI,2020-05-05T22:00:00Z,46.37,44.33,13.0,11.0,310,6,,6.21,29.763779,,,TRUE,,,,,,,,CLR,,,,,,,,VFR,,,,,,,,,,,,METAR,150.0
URWA 052200Z 05001MPS CAVOK 16/12 Q1007 R09/010070 NOSIG RMK QFE757/1010,URWA,2020-05-05T22:00:00Z,46.28,48.02,16.0,12.0,50,2,,6.21,29.734253,,,,,,TRUE,,,,,CAVOK,,,,,,,,VFR,,,,,,,,,,,,METAR,-20.0
URSS 052200Z 31003MPS 9999 BKN010 OVC050CB 15/13 Q1010 R06/010070 R02/010070 NOSIG RMK R02/29003MPS MT OBSC QFE756,URSS,2020-05-05T22:00:00Z,43.45,39.95,15.0,13.0,310,6,,6.21,29.822834,,,,,,TRUE,,,,,BKN,1000,OVC,5000,,,,,MVFR,,,,,,,,,,,,METAR,16.0
URRP 052200Z 00000MPS 4900 0750NE R23/1200U PRFG FEW/// 13/12 Q1008 R23/CLRD70 TEMPO 0300 FG BKN001 SCT030CB RMK QFE748/0998,URRP,2020-05-05T22:00:00Z,47.5,39.92,13.0,12.0,0,0,,3.04,29.763779,,,,,,,,,,PRFG,,,,,,,,,,,,,,,,,,,,,METAR,65.0
URMT 052200Z 34003MPS 9999 SCT030CB 15/13 Q1009 R07/010070 NOSIG RMK QFE717,URMT,2020-05-05T22:00:00Z,45.12,42.12,15.0,13.0,340,6,,6.21,29.793306,,,,,,TRUE,,,,,SCT,3000,,,,,,,VFR,,,,,,,,,,,,METAR,453.0
URMO 052200Z AUTO 11002MPS 6000 // NCD 12/12 Q1008 RMK QFE712/0950,URMO,2020-05-05T22:00:00Z,43.2,44.6,12.0,12.0,110,4,,3.73,29.763779,,,TRUE,,,,,,,,CLR,,,,,,,,MVFR,,,,,,,,,,,,METAR,510.0
GOOY 052200Z 36002KT CAVOK 22/20 Q1012,GOOY,2020-05-05T22:00:00Z,14.72,-17.5,22.0,20.0,360,2,,6.21,29.88189,,,,,,,,,,,CAVOK,,,,,,,,VFR,,,,,,,,,,,,METAR,24.0
GOOK 052200Z 28008KT CAVOK 29/21 Q1011,GOOK,2020-05-05T22:00:00Z,14.15,-16.07,29.0,21.0,280,8,,6.21,29.852362,,,,,,,,,,,CAVOK,,,,,,,,VFR,,,,,,,,,,,,METAR,7.0
GOSS 052200Z 35008KT 300V020 CAVOK 22/18 Q1010,GOSS,2020-05-05T22:00:00Z,16.05,-16.43,22.0,18.0,350,8,,6.21,29.822834,,,,,,,,,,,CAVOK,,,,,,,,VFR,,,,,,,,,,,,METAR,4.0
GOTT 052200Z 20004KT CAVOK 35/10 Q1008,GOTT,2020-05-05T22:00:00Z,13.73,-13.65,35.0,10.0,200,4,,6.21,29.763779,,,,,,,,,,,CAVOK,,,,,,,,VFR,,,,,,,,,,,,METAR,50.0
USSS 052200Z VRB01MPS CAVOK 06/02 Q1024 R08L/010060 NOSIG RMK QFE748/0997,USSS,2020-05-05T22:00:00Z,56.75,60.82,6.0,2.0,0,2,,6.21,30.236221,,,,,,TRUE,,,,,CAVOK,,,,,,,,VFR,,,,,,,,,,,,SPECI,233.0
USRR 052200Z 25002MPS CAVOK 07/06 Q1017 R25/290055 NOSIG RMK QFE757,USRR,2020-05-05T22:00:00Z,61.33,73.42,7.0,6.0,250,4,,6.21,30.029528,,,,,,TRUE,,,,,CAVOK,,,,,,,,VFR,,,,,,,,,,,,SPECI,44.0
USNN 052200Z 27002MPS CAVOK 07/04 Q1015 R21/19//60 NOSIG RMK QFE756,USNN,2020-05-05T22:00:00Z,60.95,76.48,7.0,4.0,270,4,,6.21,29.970472,,,,,,TRUE,,,,,CAVOK,,,,,,,,VFR,,,,,,,,,,,,SPECI,54.0
USCC 052200Z 10001MPS CAVOK 09/01 Q1024 R09/000060 NOSIG RMK QFE747,USCC,2020-05-05T22:00:00Z,55.3,61.5,9.0,1.0,100,2,,6.21,30.236221,,,,,,TRUE,,,,,CAVOK,,,,,,,,VFR,,,,,,,,,,,,SPECI,234.0
UWUU 052200Z 14002MPS CAVOK 08/02 Q1024 R14R/0///60 NOSIG,UWUU,2020-05-05T22:00:00Z,54.57,55.87,8.0,2.0,140,4,,6.21,30.236221,,,,,,TRUE,,,,,CAVOK,,,,,,,,VFR,,,,,,,,,,,,SPECI,137.0
GABS 052200Z 17005KT CAVOK 33/18 Q1013 NOSIG,GABS,2020-05-05T22:00:00Z,12.52,-7.95,33.0,18.0,170,5,,6.21,29.911417,,,,,,TRUE,,,,,CAVOK,,,,,,,,VFR,,,,,,,,,,,,METAR,381.0
GOGG 052200Z 26006KT CAVOK 26/22 Q1011,GOGG,2020-05-05T22:00:00Z,12.55,-16.27,26.0,22.0,260,6,,6.21,29.852362,,,,,,,,,,,CAVOK,,,,,,,,VFR,,,,,,,,,,,,METAR,23.0
DIBK 052200Z 36008KT 8000 TS SCT010 FEW020CB 23/23 Q1014 NOSIG,DIBK,2020-05-05T22:00:00Z,7.72,-5.07,23.0,23.0,360,8,,4.97,29.940945,,,,,,TRUE,,,,TS,SCT,1000,FEW,2000,,,,,MVFR,,,,,,,,,,,,METAR,376.0
GQNO 052200Z 33014KT CAVOK 22/18 Q1010 NOSIG,GQNO,2020-05-05T22:00:00Z,18.3,-15.97,22.0,18.0,330,14,,6.21,29.822834,,,,,,TRUE,,,,,CAVOK,,,,,,,,VFR,,,,,,,,,,,,METAR,4.0
DIAP 052200Z 21004KT 9999 FEW017 29/26 Q1011 NOSIG,DIAP,2020-05-05T22:00:00Z,5.25,-3.92,29.0,26.0,210,4,,6.21,29.852362,,,,,,TRUE,,,,,FEW,1700,,,,,,,VFR,,,,,,,,,,,,METAR,8.0
SBPP 052200Z 00000KT CAVOK 25/15 Q1013,SBPP,2020-05-05T22:00:00Z,-22.55,-55.7,25.0,15.0,0,0,,6.21,29.911417,,,,,,,,,,,CAVOK,,,,,,,,VFR,,,,,,,,,,,,METAR,660.0
DIYO 052200Z 00000KT 9999 FEW013 FEW023CB BKN260 27/25 Q1012 NOSIG,DIYO,2020-05-05T22:00:00Z,6.9,-5.33,27.0,25.0,0,0,,6.21,29.88189,,,,,,TRUE,,,,,FEW,1300,FEW,2300,BKN,26000,,,VFR,,,,,,,,,,,,METAR,213.0
WIMM 052200Z 19004KT 250V330 9000 SCT017 25/24 Q1007 NOSIG,WIMM,2020-05-05T22:00:00Z,3.57,98.67,25.0,24.0,190,4,,5.59,29.734253,,,,,,TRUE,,,,,SCT,1700,,,,,,,VFR,,,,,,,,,,,,METAR,25.0
SAOC 052200Z 23006KT CAVOK 12/02 Q1024,SAOC,2020-05-05T22:00:00Z,-33.12,-64.27,12.0,2.0,230,6,,6.21,30.236221,,,,,,,,,,,CAVOK,,,,,,,,VFR,,,,,,,,,,,,METAR,421.0
WAAA 052200Z 09006KT 8000 FEW020 26/25 Q1010,WAAA,2020-05-05T22:00:00Z,-5.07,119.53,26.0,25.0,90,6,,4.97,29.822834,,,,,,,,,,,FEW,2000,,,,,,,MVFR,,,,,,,,,,,,METAR,14.0
WIHH 052200Z 00000KT 5000 HZ FEW020 26/25 Q1009 NOSIG,WIHH,2020-05-05T22:00:00Z,-6.25,106.88,26.0,25.0,0,0,,3.11,29.793306,,,,,,TRUE,,,,HZ,FEW,2000,,,,,,,MVFR,,,,,,,,,,,,METAR,25.0
WADD 052200Z VRB02KT 9999 BKN017 26/26 Q1010 NOSIG,WADD,2020-05-05T22:00:00Z,-8.73,115.17,26.0,26.0,0,2,,6.21,29.822834,,,,,,TRUE,,,,,BKN,1700,,,,,,,MVFR,,,,,,,,,,,,METAR,216.0
OEKM 052200Z 00000KT CAVOK 19/17 Q1024 NOSIG,OEKM,2020-05-05T22:00:00Z,18.3,42.78,19.0,17.0,0,0,,6.21,30.236221,,,,,,TRUE,,,,,CAVOK,,,,,,,,VFR,,,,,,,,,,,,METAR,2054.0
OENG 052200Z 00000KT 9999 SCT030 23/17 Q1016 NOSIG,OENG,2020-05-05T22:00:00Z,17.62,44.42,23.0,17.0,0,0,,6.21,30.0,,,,,,TRUE,,,,,SCT,3000,,,,,,,VFR,,,,,,,,,,,,METAR,1203.0
OERF 052200Z 28010KT 7000 SCT040 SCT100 33/M05 Q1005,OERF,2020-05-05T22:00:00Z,29.62,43.47,33.0,-5.0,280,10,,4.35,29.675198,,,,,,,,,,,SCT,4000,SCT,10000,,,,,MVFR,,,,,,,,,,,,METAR,447.0
OEPA 052200Z 11015KT 9999 FEW035 23/18 Q1008 NOSIG,OEPA,2020-05-05T22:00:00Z,28.32,46.12,23.0,18.0,110,15,,6.21,29.763779,,,,,,TRUE,,,,,FEW,3500,,,,,,,VFR,,,,,,,,,,,,METAR,355.0
OESH 052200Z 19004KT 9999 FEW035 31/11 Q1011 NOSIG,OESH,2020-05-05T22:00:00Z,17.47,47.12,31.0,11.0,190,4,,6.21,29.852362,,,,,,TRUE,,,,,FEW,3500,,,,,,,VFR,,,,,,,,,,,,METAR,722.0
OESK 052200Z 30018KT CAVOK 21/05 Q1014,OESK,2020-05-05T22:00:00Z,29.77,40.1,21.0,5.0,300,18,,6.21,29.940945,,,,,,,,,,,CAVOK,,,,,,,,VFR,,,,,,,,,,,,METAR,684.0
OETF 052200Z 31007KT CAVOK 22/12 Q1020 NOSIG,OETF,2020-05-05T22:00:00Z,21.47,40.53,22.0,12.0,310,7,,6.21,30.11811,,,,,,TRUE,,,,,CAVOK,,,,,,,,VFR,,,,,,,,,,,,METAR,1449.0
OEWD 052200Z 30014KT 4000 DU SCT030 BKN080 31/21 Q1011 NOSIG,OEWD,2020-05-05T22:00:00Z,20.5,45.2,31.0,21.0,300,14,,2.49,29.852362,,,,,,TRUE,,,,DU,SCT,3000,BKN,8000,,,,,IFR,,,,,,,,,,,,METAR,617.0
OEWJ 052200Z 32010KT CAVOK 26/20 Q1010 NOSIG,OEWJ,2020-05-05T22:00:00Z,26.18,36.47,26.0,20.0,320,10,,6.21,29.822834,,,,,,TRUE,,,,,CAVOK,,,,,,,,VFR,,,,,,,,,,,,METAR,16.0
OETB 052200Z 36018KT 3000 BLDU NSC 19/07 Q1013 TEMPO 1000,OETB,2020-05-05T22:00:00Z,28.37,36.62,19.0,7.0,360,18,,1.86,29.911417,,,,,,,,,,BLDU,CLR,,,,,,,,IFR,,,,,,,,,,,,METAR,770.0
OEAB 052200Z 00000KT CAVOK 18/16 Q1025 NOSIG,OEAB,2020-05-05T22:00:00Z,18.22,42.63,18.0,16.0,0,0,,6.21,30.265747,,,,,,TRUE,,,,,CAVOK,,,,,,,,VFR,,,,,,,,,,,,METAR,2084.0
OEYN 052200Z 29007KT CAVOK 25/20 Q1007 NOSIG,OEYN,2020-05-05T22:00:00Z,24.13,38.07,25.0,20.0,290,7,,6.21,29.734253,,,,,,TRUE,,,,,CAVOK,,,,,,,,VFR,,,,,,,,,,,,METAR,8.0
OEAH 052200Z 21005KT CAVOK 27/00 Q1008 NOSIG,OEAH,2020-05-05T22:00:00Z,25.27,49.47,27.0,0.0,210,5,,6.21,29.763779,,,,,,TRUE,,,,,CAVOK,,,,,,,,VFR,,,,,,,,,,,,METAR,172.0
OEBA 052200Z 35004KT CAVOK 23/11 Q1020 NOSIG,OEBA,2020-05-05T22:00:00Z,20.3,41.62,23.0,11.0,350,4,,6.21,30.11811,,,,,,TRUE,,,,,CAVOK,,,,,,,,VFR,,,,,,,,,,,,METAR,1656.0
OETR 052200Z 24012KT 9999 SCT030 13/11 Q1011,OETR,2020-05-05T22:00:00Z,31.7,38.73,13.0,11.0,240,12,,6.21,29.852362,,,,,,,,,,,SCT,3000,,,,,,,VFR,,,,,,,,,,,,METAR,855.0
OEGT 052200Z 25008KT CAVOK 14/11 Q1012 NOSIG,OEGT,2020-05-05T22:00:00Z,31.42,37.27,14.0,11.0,250,8,,6.21,29.88189,,,,,,TRUE,,,,,CAVOK,,,,,,,,VFR,,,,,,,,,,,,METAR,499.0
OEGS 052200Z 17013KT 5000 DU NSC 28/20 Q1009,OEGS,2020-05-05T22:00:00Z,26.3,43.77,28.0,20.0,170,13,,3.11,29.793306,,,,,,,,,,DU,CLR,,,,,,,,MVFR,,,,,,,,,,,,METAR,650.0
OEGN 052200Z 00000KT CAVOK 32/25 Q1007 NOSIG,OEGN,2020-05-05T22:00:00Z,16.88,42.57,32.0,25.0,0,0,,6.21,29.734253,,,,,,TRUE,,,,,CAVOK,,,,,,,,VFR,,,,,,,,,,,,METAR,3.0
OEBH 052200Z 17005KT CAVOK 24/20 Q1016 NOSIG,OEBH,2020-05-05T22:00:00Z,19.97,42.62,24.0,20.0,170,5,,6.21,30.0,,,,,,TRUE,,,,,CAVOK,,,,,,,,VFR,,,,,,,,,,,,METAR,1157.0
OEHL 052200Z 27018G28KT CAVOK 27/M03 Q1012 TEMPO 0800 DS,OEHL,2020-05-05T22:00:00Z,27.42,41.67,27.0,-3.0,270,18,28,6.21,29.88189,,,,,,,,,,,CAVOK,,,,,,,,VFR,,,,,,,,,,,,METAR,1013.0
LYKV 052200Z 30004KT 260V340 9999 -RA SCT040 14/14 Q1014 NOSIG,LYKV,2020-05-05T22:00:00Z,43.82,20.58,14.0,14.0,300,4,,6.21,29.940945,,,,,,TRUE,,,,-RA,SCT,4000,,,,,,,VFR,,,,,,,,,,,,METAR,209.0
SEST 052200Z 15008KT 9999 FEW020 BKN070 28/24 Q1006 A2973,SEST,2020-05-05T22:00:00Z,-0.9,-89.58,28.0,24.0,150,8,,6.21,29.704725,,,,,,,,,,,FEW,2000,BKN,7000,,,,,VFR,,,,,,,,,,,,METAR,6.0
SAZM 052200Z 20018G29KT 9999 OVC039 12/06 Q1015,SAZM,2020-05-05T22:00:00Z,-37.92,-57.57,12.0,6.0,200,18,29,6.21,29.970472,,,,,,,,,,,OVC,3900,,,,,,,VFR,,,,,,,,,,,,METAR,21.0
YSNF 052200Z AUTO 17013KT 9999 // SCT041 BKN053 19/09 Q1021,YSNF,2020-05-05T22:00:00Z,-29.02,167.92,19.0,9.0,170,13,,6.21,30.147638,,,TRUE,,,,,,,,SCT,4100,BKN,5300,,,,,VFR,,,,,,,,,,,,METAR,109.0
YPGV 052200Z AUTO 12008KT 9999 // NCD ///// Q1013,YPGV,2020-05-05T22:00:00Z,-12.27,136.82,,,120,8,,6.21,29.911417,,,TRUE,,,,,,,,CLR,,,,,,,,VFR,,,,,,,,,,,,METAR,55.0
YMHB 052200Z 33006KT 9999 FEW055 BKN190 BKN250 13/06 Q1020 RF00.0/000.0,YMHB,2020-05-05T22:00:00Z,-42.82,147.52,13.0,6.0,330,6,,6.21,30.11811,,,,,,,,,,,FEW,5500,BKN,19000,BKN,25000,,,VFR,,,,,,,,,,,,SPECI,27.0
YFRT 052200Z AUTO 35016KT 9999 // NCD 17/M02 Q1011,YFRT,2020-05-05T22:00:00Z,-30.83,128.12,17.0,-2.0,350,16,,6.21,29.852362,,,TRUE,,,,,,,,CLR,,,,,,,,VFR,,,,,,,,,,,,METAR,156.0
OEJB 052200Z AUTO 30010KT CAVOK 29/08 Q1009 NOSIG,OEJB,2020-05-05T22:00:00Z,27.05,49.38,29.0,8.0,300,10,,6.21,29.793306,,,TRUE,,,TRUE,,,,,CAVOK,,,,,,,,VFR,,,,,,,,,,,,METAR,8.0
FIMP 052200Z 09003KT 9999 BKN016 23/22 Q1018,FIMP,2020-05-05T22:00:00Z,-20.42,57.67,23.0,22.0,90,3,,6.21,30.059055,,,,,,,,,,,BKN,1600,,,,,,,MVFR,,,,,,,,,,,,METAR,57.0
SACO 052200Z 19011KT CAVOK 14/01 Q1024 NOSIG,SACO,2020-05-05T22:00:00Z,-31.32,-64.22,14.0,1.0,190,11,,6.21,30.236221,,,,,,TRUE,,,,,CAVOK,,,,,,,,VFR,,,,,,,,,,,,METAR,474.0
OERK 052200Z 34008KT 3000 DU BKN040 28/14 Q1013 NOSIG,OERK,2020-05-05T22:00:00Z,24.95,46.72,28.0,14.0,340,8,,1.86,29.911417,,,,,,TRUE,,,,DU,BKN,4000,,,,,,,IFR,,,,,,,,,,,,METAR,612.0
OEMA 052200Z 25002KT CAVOK 30/M03 Q1013 NOSIG,OEMA,2020-05-05T22:00:00Z,24.55,39.7,30.0,-3.0,250,2,,6.21,29.911417,,,,,,TRUE,,,,,CAVOK,,,,,,,,VFR,,,,,,,,,,,,METAR,631.0
OEJN 052200Z 00000KT CAVOK 26/15 Q1009 NOSIG,OEJN,2020-05-05T22:00:00Z,21.68,39.15,26.0,15.0,0,0,,6.21,29.793306,,,,,,TRUE,,,,,CAVOK,,,,,,,,VFR,,,,,,,,,,,,METAR,15.0
OEDF 052200Z 14008KT CAVOK 27/11 Q1007 NOSIG,OEDF,2020-05-05T22:00:00Z,26.47,49.8,27.0,11.0,140,8,,6.21,29.734253,,,,,,TRUE,,,,,CAVOK,,,,,,,,VFR,,,,,,,,,,,,METAR,22.0
OEKJ 052200Z 13019KT CAVOK 32/06 Q1012,OEKJ,2020-05-05T22:00:00Z,24.07,47.58,32.0,6.0,130,19,,6.21,29.88189,,,,,,,,,,,CAVOK,,,,,,,,VFR,,,,,,,,,,,,METAR,503.0
FMNM 052200Z 07002KT 9999 SCT020 24/23 Q1014,FMNM,2020-05-05T22:00:00Z,-15.67,46.35,24.0,23.0,70,2,,6.21,29.940945,,,,,,,,,,,SCT,2000,,,,,,,VFR,,,,,,,,,,,,METAR,18.0
SAZS 052200Z 26004kt CAVOK 05/03 Q1025,SAZS,2020-05-05T22:00:00Z,-41.13,-71.17,5.0,3.0,,,,6.21,30.265747,,,,,,,,,,,CAVOK,,,,,,,,VFR,,,,,,,,,,,,SPECI,840.0
UERP 052200Z 33003G08MPS 9999 BKN013 OVC100 M11/M12 Q1009 R35/690250 NOSIG RMK QFE713,UERP,2020-05-05T22:00:00Z,66.4,112.03,-11.0,-12.0,330,6,16,6.21,29.793306,,,,,,TRUE,,,,,BKN,1300,OVC,10000,,,,,MVFR,,,,,,,,,,,,METAR,509.0
UERR 052200Z VRB01MPS 9999 SCT040CB 04/M06 Q0998 R25/CLRD60 NOSIG RMK QFE718,UERR,2020-05-05T22:00:00Z,62.53,114.05,4.0,-6.0,0,2,,6.21,29.468504,,,,,,TRUE,,,,,SCT,4000,,,,,,,VFR,,,,,,,,,,,,METAR,347.0
URFF 052200Z 22005MPS 7000 BKN006 OVC035 13/13 Q1009 R19/290295 NOSIG,URFF,2020-05-05T22:00:00Z,45.03,33.98,13.0,13.0,220,10,,4.35,29.793306,,,,,,TRUE,,,,,BKN,600,OVC,3500,,,,,IFR,,,,,,,,,,,,METAR,188.0
UOOO 052200Z 19004MPS CAVOK M08/M10 Q1011 R19/CLRD60 NOSIG RMK QFE742/0989,UOOO,2020-05-05T22:00:00Z,69.32,87.33,-8.0,-10.0,190,8,,6.21,29.852362,,,,,,TRUE,,,,,CAVOK,,,,,,,,VFR,,,,,,,,,,,,METAR,175.0
LFLW 052200Z AUTO VRB02KT 9999 ////// 12/10 Q1018,LFLW,2020-05-05T22:00:00Z,44.88,2.42,12.0,10.0,0,2,,6.21,30.059055,,,TRUE,,,,,,,,,,,,,,,,,,,,,,,,,,,,METAR,639.0
SBCJ 052200Z 00000KT CAVOK 25/21 Q1014,SBCJ,2020-05-05T22:00:00Z,-6.12,-50.0,25.0,21.0,0,0,,6.21,29.940945,,,,,,,,,,,CAVOK,,,,,,,,VFR,,,,,,,,,,,,METAR,621.0
SAWE 052200Z 34005KT CAVOK 03/03 Q1019,SAWE,2020-05-05T22:00:00Z,-53.78,-67.75,3.0,3.0,340,5,,6.21,30.088583,,,,,,,,,,,CAVOK,,,,,,,,VFR,,,,,,,,,,,,METAR,22.0
SKBQ 052200Z 01012KT CAVOK 30/25 A2971 NOSIG,SKBQ,2020-05-05T22:00:00Z,10.9,-74.77,30.0,25.0,10,12,,6.21,29.71063,,,,,,TRUE,,,,,CAVOK,,,,,,,,VFR,,,,,,,,,,,,METAR,10.0
SUSO 052200Z 23008KT 9999 SCT023 SCT083 14/09 Q1017,SUSO,2020-05-05T22:00:00Z,-31.43,-57.98,14.0,9.0,230,8,,6.21,30.029528,,,,,,,,,,,SCT,2300,SCT,8300,,,,,VFR,,,,,,,,,,,,METAR,34.0
SPJC 052200Z 16007KT CAVOK 21/17 Q1008 NOSIG RMK TX24.3 PP000,SPJC,2020-05-05T22:00:00Z,-12.02,-77.12,21.0,17.0,160,7,,6.21,29.763779,,,,,,TRUE,,,,,CAVOK,,,,,,,,VFR,,,,,,,,,,,,METAR,13.0
AYMH 052200Z 00000KT 9999 SCT000 BKN050 17/17 Q1020,AYMH,2020-05-05T22:00:00Z,-5.83,144.3,17.0,17.0,0,0,,6.21,30.11811,,,,,,,,,,,SCT,0,BKN,5000,,,,,VFR,,,,,,,,,,,,METAR,1642.0
SBFZ 052200Z 10012KT 9999 FEW017 BKN090 29/24 Q1011,SBFZ,2020-05-05T22:00:00Z,-3.77,-38.52,29.0,24.0,100,12,,6.21,29.852362,,,,,,,,,,,FEW,1700,BKN,9000,,,,,VFR,,,,,,,,,,,,METAR,25.0
MPDA 052200Z 23005KT 9999 SCT015 SCT080 29/24 Q1007,MPDA,2020-05-05T22:00:00Z,8.4,-82.43,29.0,24.0,230,5,,6.21,29.734253,,,,,,,,,,,SCT,1500,SCT,8000,,,,,VFR,,,,,,,,,,,,METAR,27.0
SBPS 052200Z 09008KT 9999 SCT020 26/20 Q1016,SBPS,2020-05-05T22:00:00Z,-16.43,-39.07,26.0,20.0,90,8,,6.21,30.0,,,,,,,,,,,SCT,2000,,,,,,,VFR,,,,,,,,,,,,METAR,51.0
SBTT 052200Z 17003KT 9999 FEW020 27/24 Q1008,SBTT,2020-05-05T22:00:00Z,-4.25,-69.93,27.0,24.0,170,3,,6.21,29.763779,,,,,,,,,,,FEW,2000,,,,,,,VFR,,,,,,,,,,,,METAR,85.0
YGLA 052200Z AUTO 15010KT 9999 // NCD 21/13 Q1024,YGLA,2020-05-05T22:00:00Z,-23.87,151.22,21.0,13.0,150,10,,6.21,30.236221,,,TRUE,,,,,,,,CLR,,,,,,,,VFR,,,,,,,,,,,,METAR,52.0
YGEL 052200Z AUTO 25017KT 9999 // SCT048 OVC060 18/09 Q1016,YGEL,2020-05-05T22:00:00Z,-28.8,114.7,18.0,9.0,250,17,,6.21,30.0,,,TRUE,,,,,,,,SCT,4800,OVC,6000,,,,,VFR,,,,,,,,,,,,METAR,37.0
YHID 052200Z AUTO 13009KT 9999 // NCD 26/22 Q1013,YHID,2020-05-05T22:00:00Z,-10.58,142.3,26.0,22.0,130,9,,6.21,29.911417,,,TRUE,,,,,,,,CLR,,,,,,,,VFR,,,,,,,,,,,,METAR,13.0
YPWR 052200Z AUTO 01013KT 9999 // NCD 09/01 Q1023,YPWR,2020-05-05T22:00:00Z,-31.12,136.82,9.0,1.0,10,13,,6.21,30.206694,,,TRUE,,,,,,,,CLR,,,,,,,,VFR,,,,,,,,,,,,METAR,167.0
YMTG 052200Z AUTO 01009KT 9999 // NCD 10/06 Q1022,YMTG,2020-05-05T22:00:00Z,-37.75,140.78,10.0,6.0,10,9,,6.21,30.177166,,,TRUE,,,,,,,,CLR,,,,,,,,VFR,,,,,,,,,,,,METAR,65.0
SBCY 052200Z 25003KT 9999 FEW020 SCT100 30/18 Q1011,SBCY,2020-05-05T22:00:00Z,-15.65,-56.12,30.0,18.0,250,3,,6.21,29.852362,,,,,,,,,,,FEW,2000,SCT,10000,,,,,VFR,,,,,,,,,,,,METAR,182.0
MHLM 052200Z 07016KT 5000 FU FEW028 BKN250 33/24 Q1008 A2977,MHLM,2020-05-05T22:00:00Z,15.45,-87.93,33.0,24.0,70,16,,3.11,29.763779,,,,,,,,,,FU,FEW,2800,BKN,25000,,,,,MVFR,,,,,,,,,,,,METAR,26.0
MHTG 052200Z 09005KT 9999 5000SW FU SCT032TCU SCT220 28/14 Q1014 A2994,MHTG,2020-05-05T22:00:00Z,14.07,-87.22,28.0,14.0,90,5,,6.21,29.940945,,,,,,,,,,FU,SCT,3200,SCT,22000,,,,,VFR,,,,,,,,,,,,METAR,1004.0
MHLE 052200Z 05004KT 3000 FU SCT024CB SCT200 24/15,MHLE,2020-05-05T22:00:00Z,14.32,-88.15,24.0,15.0,50,4,,1.86,,,,,,,,,,,FU,SCT,2400,SCT,20000,,,,,IFR,,,,,,,,,,,,METAR,1100.0
SBBV 052200Z 18003KT 9999 SCT035 FEW040TCU SCT090 31/22 Q1008,SBBV,2020-05-05T22:00:00Z,2.85,-60.7,31.0,22.0,180,3,,6.21,29.763779,,,,,,,,,,,SCT,3500,FEW,4000,SCT,9000,,,VFR,,,,,,,,,,,,METAR,140.0
OPNH 052200Z 18004KT 4000M HZ NSC 28/22 Q1004 NOSIG,OPNH,2020-05-05T22:00:00Z,26.22,68.37,28.0,22.0,180,4,,2.49,29.64567,,,,,,TRUE,,,,HZ,CLR,,,,,,,,IFR,,,,,,,,,,,,METAR,38.0
SBEG 052200Z 00000KT 9999 FEW006 FEW025TCU BKN100 25/24 Q1009,SBEG,2020-05-05T22:00:00Z,-3.02,-60.03,25.0,24.0,0,0,,6.21,29.793306,,,,,,,,,,,FEW,600,FEW,2500,BKN,10000,,,VFR,,,,,,,,,,,,METAR,2.0
SANT 052200Z 14011KT 9999 OVC040 20/11 Q1020,SANT,2020-05-05T22:00:00Z,-26.85,-65.08,20.0,11.0,140,11,,6.21,30.11811,,,,,,,,,,,OVC,4000,,,,,,,VFR,,,,,,,,,,,,METAR,450.0
UBBL 052200Z 34008KT 9999 SCT055 20/15 Q1009 R33/CLRD// NOSIG RMK MT OP ,UBBL,2020-05-05T22:00:00Z,38.75,48.82,20.0,15.0,340,8,,6.21,29.793306,,,,,,TRUE,,,,,SCT,5500,,,,,,,VFR,,,,,,,,,,,,METAR,10.0
DNMM 052200Z 24003KT 9999 FEW012 28/27 Q1013 NOSIG,DNMM,2020-05-05T22:00:00Z,6.57,3.32,28.0,27.0,240,3,,6.21,29.911417,,,,,,TRUE,,,,,FEW,1200,,,,,,,VFR,,,,,,,,,,,,METAR,38.0
DGAA 052200Z 20006KT CAVOK 28/26 Q1011 NOSIG,DGAA,2020-05-05T22:00:00Z,5.58,-0.17,28.0,26.0,200,6,,6.21,29.852362,,,,,,TRUE,,,,,CAVOK,,,,,,,,VFR,,,,,,,,,,,,METAR,69.0
DRRN 052200Z 21005KT 4200 DU NSC 31/18 Q1011 NOSIG,DRRN,2020-05-05T22:00:00Z,13.47,2.17,31.0,18.0,210,5,,2.61,29.852362,,,,,,TRUE,,,,DU,CLR,,,,,,,,IFR,,,,,,,,,,,,METAR,227.0
FTTJ 052200Z 01007KT CAVOK 35/00 Q1009 NOSIG,FTTJ,2020-05-05T22:00:00Z,12.12,15.02,35.0,0.0,10,7,,6.21,29.793306,,,,,,TRUE,,,,,CAVOK,,,,,,,,VFR,,,,,,,,,,,,METAR,295.0
DFOO 052200Z 24002KT CAVOK 30/22 Q1013,DFOO,2020-05-05T22:00:00Z,11.17,-4.32,30.0,22.0,240,2,,6.21,29.911417,,,,,,,,,,,CAVOK,,,,,,,,VFR,,,,,,,,,,,,METAR,460.0
LEMO 052200Z AUTO 19008KT 170V230 CAVOK 16/12 Q1017,LEMO,2020-05-05T22:00:00Z,37.17,-5.62,16.0,12.0,190,8,,6.21,30.029528,,,TRUE,,,,,,,,CAVOK,,,,,,,,VFR,,,,,,,,,,,,METAR,88.0
SBCT 052200Z 29007KT CAVOK 19/11 Q1015,SBCT,2020-05-05T22:00:00Z,-25.52,-49.17,19.0,11.0,290,7,,6.21,29.970472,,,,,,,,,,,CAVOK,,,,,,,,VFR,,,,,,,,,,,,METAR,908.0
DFFD 052200Z 16005KT CAVOK 34/20 Q1012 NOSIG,DFFD,2020-05-05T22:00:00Z,12.33,-1.52,34.0,20.0,160,5,,6.21,29.88189,,,,,,TRUE,,,,,CAVOK,,,,,,,,VFR,,,,,,,,,,,,METAR,306.0
DXXX 052200Z 21005KT 9999 FEW013 28/26 Q1012 NOSIG,DXXX,2020-05-05T22:00:00Z,6.17,1.25,28.0,26.0,210,5,,6.21,29.88189,,,,,,TRUE,,,,,FEW,1300,,,,,,,VFR,,,,,,,,,,,,METAR,25.0
DNMN 052200Z 11006KT CAVOK 27/20 Q1011,DNMN,2020-05-05T22:00:00Z,9.65,6.47,27.0,20.0,110,6,,6.21,29.852362,,,,,,,,,,,CAVOK,,,,,,,,VFR,,,,,,,,,,,,METAR,254.0
FOOG 052200Z 18004KT 150V210 9999 FEW010 FEW020CB 28/26 Q1012,FOOG,2020-05-05T22:00:00Z,-0.7,8.75,28.0,26.0,180,4,,6.21,29.88189,,,,,,,,,,,FEW,1000,FEW,2000,,,,,VFR,,,,,,,,,,,,METAR,4.0
FQMA 052200Z 25003KT 9999 FEW025 21/19 Q1021 NOSIG,FQMA,2020-05-05T22:00:00Z,-25.92,32.57,21.0,19.0,250,3,,6.21,30.147638,,,,,,TRUE,,,,,FEW,2500,,,,,,,VFR,,,,,,,,,,,,METAR,44.0
VERC 052200Z 00000KT 4000 HZ SCT100 18/17 Q1010 NOSIG,VERC,2020-05-05T22:00:00Z,23.32,85.32,18.0,17.0,0,0,,2.49,29.822834,,,,,,TRUE,,,,HZ,SCT,10000,,,,,,,IFR,,,,,,,,,,,,METAR,652.0
YLHI 052200Z 12009KT 080V210 9999 BKN035 20/13 Q1027 RF00.0/000.0,YLHI,2020-05-05T22:00:00Z,-31.53,159.07,20.0,13.0,120,9,,6.21,30.324802,,,,,,,,,,,BKN,3500,,,,,,,VFR,,,,,,,,,,,,METAR,2.0
YCFS 052200Z AUTO 24011KT 9999 // OVC068 17/14 Q1029,YCFS,2020-05-05T22:00:00Z,-30.32,153.12,17.0,14.0,240,11,,6.21,30.383858,,,TRUE,,,,,,,,OVC,6800,,,,,,,VFR,,,,,,,,,,,,METAR,5.0
SBSV 052200Z 13009KT 9999 SCT020 FEW023TCU SCT060 28/22 Q1015,SBSV,2020-05-05T22:00:00Z,-12.9,-38.32,28.0,22.0,130,9,,6.21,29.970472,,,,,,,,,,,SCT,2000,FEW,2300,SCT,6000,,,VFR,,,,,,,,,,,,METAR,6.0
HSSS 052200Z 36012KT CAVOK 34/M04 Q1008 NOSIG,HSSS,2020-05-05T22:00:00Z,15.58,32.53,34.0,-4.0,360,12,,6.21,29.763779,,,,,,TRUE,,,,,CAVOK,,,,,,,,VFR,,,,,,,,,,,,METAR,380.0
NIUE 052200Z 08006KT 9999 FEW020 FEW300 29/23 Q1013,NIUE,2020-05-05T22:00:00Z,-19.07,-169.92,29.0,23.0,80,6,,6.21,29.911417,,,,,,,,,,,FEW,2000,FEW,30000,,,,,VFR,,,,,,,,,,,,METAR,20.0
WAHQ 052200Z 00000KT 6000 SCT015 26/25 Q1010 NOSIG,WAHQ,2020-05-05T22:00:00Z,-7.52,110.75,26.0,25.0,0,0,,3.73,29.822834,,,,,,TRUE,,,,,SCT,1500,,,,,,,MVFR,,,,,,,,,,,,METAR,126.0
WAPP 052200Z 35004KT 9999 FEW018 26/25 Q1009 NOSIG,WAPP,2020-05-05T22:00:00Z,-3.7,128.07,26.0,25.0,350,4,,6.21,29.793306,,,,,,TRUE,,,,,FEW,1800,,,,,,,VFR,,,,,,,,,,,,METAR,12.0
SBMQ 052200Z 03010KT 9999 SCT010 FEW020TCU BKN080 28/28 Q1009,SBMQ,2020-05-05T22:00:00Z,0.05,-51.07,28.0,28.0,30,10,,6.21,29.793306,,,,,,,,,,,SCT,1000,FEW,2000,BKN,8000,,,VFR,,,,,,,,,,,,METAR,15.0
SBMO 052200Z 09004KT 9999 SCT019 25/24 Q1014,SBMO,2020-05-05T22:00:00Z,-9.52,-35.77,25.0,24.0,90,4,,6.21,29.940945,,,,,,,,,,,SCT,1900,,,,,,,VFR,,,,,,,,,,,,METAR,115.0
OKBK 052200Z 33003KT 9999 -RA FEW040 BKN080 29/14 Q1008 NOSIG,OKBK,2020-05-05T22:00:00Z,29.22,47.97,29.0,14.0,330,3,,6.21,29.763779,,,,,,TRUE,,,,-RA,FEW,4000,BKN,8000,,,,,VFR,,,,,,,,,,,,METAR,55.0
SBPJ 052200Z 13002KT CAVOK 29/22 Q1011,SBPJ,2020-05-05T22:00:00Z,-10.28,-48.37,29.0,22.0,130,2,,6.21,29.852362,,,,,,,,,,,CAVOK,,,,,,,,VFR,,,,,,,,,,,,METAR,236.0
WATT 052200Z 12002KT 9999 FEW018 25/24 Q1011 NOSIG,WATT,2020-05-05T22:00:00Z,-10.17,123.67,25.0,24.0,120,2,,6.21,29.852362,,,,,,TRUE,,,,,FEW,1800,,,,,,,VFR,,,,,,,,,,,,METAR,102.0
SBBR 052200Z 16004KT CAVOK 26/14 Q1019,SBBR,2020-05-05T22:00:00Z,-15.87,-47.92,26.0,14.0,160,4,,6.21,30.088583,,,,,,,,,,,CAVOK,,,,,,,,VFR,,,,,,,,,,,,METAR,1061.0
MRLB 052200Z 31005KT 9999 FEW045 BKN250 34/22 A2974,MRLB,2020-05-05T22:00:00Z,10.6,-85.55,34.0,22.0,310,5,,6.21,29.740158,,,,,,,,,,,FEW,4500,BKN,25000,,,,,VFR,,,,,,,,,,,,METAR,82.0
SBMN 052200Z 31003KT 9999 SCT020 BKN100 26/25 Q1009,SBMN,2020-05-05T22:00:00Z,-3.13,-59.97,26.0,25.0,310,3,,6.21,29.793306,,,,,,,,,,,SCT,2000,BKN,10000,,,,,VFR,,,,,,,,,,,,METAR,84.0
SBSL 052200Z 03004KT 9999 FEW020 FEW025TCU BKN100 26/25 Q1010,SBSL,2020-05-05T22:00:00Z,-2.6,-44.22,26.0,25.0,30,4,,6.21,29.822834,,,,,,,,,,,FEW,2000,FEW,2500,BKN,10000,,,VFR,,,,,,,,,,,,METAR,53.0
SBRF 052200Z 13011KT 9000 VCSH SCT023 29/24 Q1013,SBRF,2020-05-05T22:00:00Z,-8.13,-34.92,29.0,24.0,130,11,,5.59,29.911417,,,,,,,,,,VCSH,SCT,2300,,,,,,,VFR,,,,,,,,,,,,METAR,19.0
MHLC 052200Z 08005KT 5000 FU FEW026 32/24 1009 A2980,MHLC,2020-05-05T22:00:00Z,15.75,-86.85,32.0,24.0,80,5,,3.11,29.799213,,,,,,,,,,FU,FEW,2600,,,,,,,MVFR,,,,,,,,,,,,METAR,15.0
PLCH 052200Z 09010KT 9999 FEW020 SCT043 31/23 Q1007,PLCH,2020-05-05T22:00:00Z,1.98,-157.35,31.0,23.0,90,10,,6.21,29.734253,,,,,,,,,,,FEW,2000,SCT,4300,,,,,VFR,,,,,,,,,,,,METAR,3.0
NFTF 052200Z 05008KT 9999 FEW010 FEW018TCU BKN270 27/23 Q1014,NFTF,2020-05-05T22:00:00Z,-21.23,-175.15,27.0,23.0,50,8,,6.21,29.940945,,,,,,,,,,,FEW,1000,FEW,1800,BKN,27000,,,VFR,,,,,,,,,,,,METAR,38.0
NFTL 052200Z 08009KT 9999 FEW018 28/24 Q1013,NFTL,2020-05-05T22:00:00Z,-19.78,-174.33,28.0,24.0,80,9,,6.21,29.911417,,,,,,,,,,,FEW,1800,,,,,,,VFR,,,,,,,,,,,,METAR,3.0
NFTV 052200Z 08009KT 9999 FEW017 SCT290 29/23 Q1013,NFTV,2020-05-05T22:00:00Z,-18.58,-173.97,29.0,23.0,80,9,,6.21,29.911417,,,,,,,,,,,FEW,1700,SCT,29000,,,,,VFR,,,,,,,,,,,,METAR,71.0
SUCA 052200Z 23020G32KT 9999 FEW030 14/07 Q1016,SUCA,2020-05-05T22:00:00Z,-34.45,-57.77,14.0,7.0,230,20,32,6.21,30.0,,,,,,,,,,,FEW,3000,,,,,,,VFR,,,,,,,,,,,,METAR,23.0
SBSG 052200Z 19003KT 160V220 9999 SCT021 FEW025TCU 26/25 Q1012,SBSG,2020-05-05T22:00:00Z,-5.77,-35.37,26.0,25.0,190,3,,6.21,29.88189,,,,,,,,,,,SCT,2100,FEW,2500,,,,,VFR,,,,,,,,,,,,METAR,83.0
GVSV 052200Z 07018KT 9999 FEW018 23/18 Q1016 NOSIG,GVSV,2020-05-05T22:00:00Z,16.83,-25.07,23.0,18.0,70,18,,6.21,30.0,,,,,,TRUE,,,,,FEW,1800,,,,,,,VFR,,,,,,,,,,,,METAR,20.0
SBMA 052200Z 11002KT 9999 FEW020 FEW023TCU 29/25 Q1009,SBMA,2020-05-05T22:00:00Z,-5.37,-49.13,29.0,25.0,110,2,,6.21,29.793306,,,,,,,,,,,FEW,2000,FEW,2300,,,,,VFR,,,,,,,,,,,,METAR,102.0
SBFL 052200Z 08004KT CAVOK 20/18 Q1010,SBFL,2020-05-05T22:00:00Z,-27.67,-48.53,20.0,18.0,80,4,,6.21,29.822834,,,,,,,,,,,CAVOK,,,,,,,,VFR,,,,,,,,,,,,METAR,5.0
SKCG 052200Z 36016KT 9999 FEW016 BKN200 31/26 A2969,SKCG,2020-05-05T22:00:00Z,10.43,-75.52,31.0,26.0,360,16,,6.21,29.68996,,,,,,,,,,,FEW,1600,BKN,20000,,,,,VFR,,,,,,,,,,,,METAR,1.0
SKCL 052200Z 32012KT 9999 FEW040 SCT120 28/19 A2985 NOSIG,SKCL,2020-05-05T22:00:00Z,3.53,-76.37,28.0,19.0,320,12,,6.21,29.84941,,,,,,TRUE,,,,,FEW,4000,SCT,12000,,,,,VFR,,,,,,,,,,,,METAR,969.0
SKBO 052200Z 13007KT 9999 VCSH SCT020 SCT080 19/10 A3025 NOSIGRMK VCSH SE,SKBO,2020-05-05T22:00:00Z,4.7,-74.12,19.0,10.0,130,7,,6.21,30.250984,,,,,,,,,,VCSH VCSH GR,SCT,2000,SCT,8000,,,,,VFR,,,,,,,,,,,,METAR,2548.0
SKCC 052200Z 15012KT 9999 SCT020 SCT090 33/18 A2979,SKCC,2020-05-05T22:00:00Z,7.92,-72.52,33.0,18.0,150,12,,6.21,29.790354,,,,,,,,,,,SCT,2000,SCT,9000,,,,,VFR,,,,,,,,,,,,METAR,317.0
SKLT 052200Z 32004KT 9999 FEW015 BKN080 28/26 A2976,SKLT,2020-05-05T22:00:00Z,-4.2,-69.93,28.0,26.0,320,4,,6.21,29.760826,,,,,,,,,,,FEW,1500,BKN,8000,,,,,VFR,,,,,,,,,,,,METAR,84.0
SKSP 052200Z 04008KT 9999 SCT017 BKN080 29/25 A2982,SKSP,2020-05-05T22:00:00Z,12.57,-81.72,29.0,25.0,40,8,,6.21,29.819881,,,,,,,,,,,SCT,1700,BKN,8000,,,,,VFR,,,,,,,,,,,,METAR,-2.0
SKRG 052200Z 11010KT 9999 FEW020TCU BKN200 22/13 A3017 NOSIG RMK TCUSW,SKRG,2020-05-05T22:00:00Z,6.17,-75.42,22.0,13.0,110,10,,6.21,30.171259,,,,,,TRUE,,,,,FEW,2000,BKN,20000,,,,,VFR,,,,,,,,,,,,METAR,2137.0
SBNF 052200Z 00000KT 9999 FEW030 23/16 Q1011,SBNF,2020-05-05T22:00:00Z,-26.88,-48.65,23.0,16.0,0,0,,6.21,29.852362,,,,,,,,,,,FEW,3000,,,,,,,VFR,,,,,,,,,,,,METAR,5.0
SKBG 052200Z 34005KT 9999 SCT017 BKN080 26/20 A2987,SKBG,2020-05-05T22:00:00Z,7.13,-73.18,26.0,20.0,340,5,,6.21,29.870079,,,,,,,,,,,SCT,1700,BKN,8000,,,,,VFR,,,,,,,,,,,,METAR,1189.0
NGTA 052200Z 07005KT 9999 FEW020 SCT300 30/25 Q1010,NGTA,2020-05-05T22:00:00Z,1.37,173.13,30.0,25.0,70,5,,6.21,29.822834,,,,,,,,,,,FEW,2000,SCT,30000,,,,,VFR,,,,,,,,,,,,METAR,2.0
SBSJ 052200Z 25003KT CAVOK 24/10 Q1015,SBSJ,2020-05-05T22:00:00Z,-23.22,-45.87,24.0,10.0,250,3,,6.21,29.970472,,,,,,,,,,,CAVOK,,,,,,,,VFR,,,,,,,,,,,,METAR,646.0
SBPV 052200Z 07004KT 9999 -TSRA BKN035 FEW040CB BKN100 26/24 Q1008 RERA,SBPV,2020-05-05T22:00:00Z,-8.72,-63.9,26.0,24.0,70,4,,6.21,29.763779,,,,,,,,,,-TSRA,BKN,3500,FEW,4000,BKN,10000,,,VFR,,,,,,,,,,,,METAR,88.0
NFFN 052200Z 28005KT 9999 SCT026 SCT046 29/25 Q1011 NOSIG,NFFN,2020-05-05T22:00:00Z,-17.75,177.45,29.0,25.0,280,5,,6.21,29.852362,,,,,,TRUE,,,,,SCT,2600,SCT,4600,,,,,VFR,,,,,,,,,,,,METAR,18.0
MGGT 052200Z 18010KT 5000 HZ FEW020 BKN090 23/17 Q1022 A3018,MGGT,2020-05-05T22:00:00Z,14.57,-90.53,23.0,17.0,180,10,,3.11,30.177166,,,,,,,,,,HZ,FEW,2000,BKN,9000,,,,,MVFR,,,,,,,,,,,,METAR,1509.0
SARC 052200Z 18005KT CAVOK 19/16 Q1014,SARC,2020-05-05T22:00:00Z,-27.43,-58.77,19.0,16.0,180,5,,6.21,29.940945,,,,,,,,,,,CAVOK,,,,,,,,VFR,,,,,,,,,,,,METAR,62.0
SAVC 052200Z 32002KT CAVOK 11/06 Q1025,SAVC,2020-05-05T22:00:00Z,-45.77,-67.47,11.0,6.0,320,2,,6.21,30.265747,,,,,,,,,,,CAVOK,,,,,,,,VFR,,,,,,,,,,,,METAR,46.0
SBPA 052200Z 27004KT 9999 FEW035 SCT050 BKN100 18/17 Q1011,SBPA,2020-05-05T22:00:00Z,-30.0,-51.17,18.0,17.0,270,4,,6.21,29.852362,,,,,,,,,,,FEW,3500,SCT,5000,BKN,10000,,,VFR,,,,,,,,,,,,METAR,3.0
SAAR 052200Z 20009KT 9999 BKN048 15/07 Q1021,SAAR,2020-05-05T22:00:00Z,-32.92,-60.77,15.0,7.0,200,9,,6.21,30.147638,,,,,,,,,,,BKN,4800,,,,,,,VFR,,,,,,,,,,,,METAR,25.0
RPVK 052200Z AUTO 00000KT 9999 OVC012 27/26 Q1010,RPVK,2020-05-05T22:00:00Z,11.67,122.37,27.0,26.0,0,0,,6.21,29.822834,,,TRUE,,,,,,,,OVC,1200,,,,,,,MVFR,,,,,,,,,,,,METAR,6.0
SUAA 052200Z 23015G26KT 9999 FEW008 SCT011 13/09 Q1013,SUAA,2020-05-05T22:00:00Z,-34.77,-56.25,13.0,9.0,230,15,26,6.21,29.911417,,,,,,,,,,,FEW,800,SCT,1100,,,,,VFR,,,,,,,,,,,,METAR,54.0
SCEL 052200Z 19005KT CAVOK 23/04 Q1014 NOSIG,SCEL,2020-05-05T22:00:00Z,-33.37,-70.77,23.0,4.0,190,5,,6.21,29.940945,,,,,,TRUE,,,,,CAVOK,,,,,,,,VFR,,,,,,,,,,,,METAR,476.0
SBBE 052200Z 13003KT 9999 SCT030 FEW035TCU BKN100 26/24 Q1010,SBBE,2020-05-05T22:00:00Z,-1.37,-48.47,26.0,24.0,130,3,,6.21,29.822834,,,,,,,,,,,SCT,3000,FEW,3500,BKN,10000,,,VFR,,,,,,,,,,,,METAR,16.0
OPMT 052200Z 00000KT 4000 FU NSC 30/19 Q1004 NOSIG,OPMT,2020-05-05T22:00:00Z,30.18,71.42,30.0,19.0,0,0,,2.49,29.64567,,,,,,TRUE,,,,FU,CLR,,,,,,,,IFR,,,,,,,,,,,,METAR,123.0
SBCF 052200Z 23002KT CAVOK 22/16 Q1017,SBCF,2020-05-05T22:00:00Z,-19.63,-43.97,22.0,16.0,230,2,,6.21,30.029528,,,,,,,,,,,CAVOK,,,,,,,,VFR,,,,,,,,,,,,METAR,828.0
GVAC 052200Z 04013KT 9999 BKN013 22/18 Q1015 NOSIG,GVAC,2020-05-05T22:00:00Z,16.72,-22.93,22.0,18.0,40,13,,6.21,29.970472,,,,,,TRUE,,,,,BKN,1300,,,,,,,MVFR,,,,,,,,,,,,METAR,55.0
SBFI 052200Z 10008KT CAVOK 21/16 Q1010,SBFI,2020-05-05T22:00:00Z,-25.6,-54.48,21.0,16.0,100,8,,6.21,29.822834,,,,,,,,,,,CAVOK,,,,,,,,VFR,,,,,,,,,,,,METAR,243.0
OSLK 052200Z 21004KT 9999 FEW026 SCT030 17/13 Q1009,OSLK,2020-05-05T22:00:00Z,35.4,35.95,17.0,13.0,210,4,,6.21,29.793306,,,,,,,,,,,FEW,2600,SCT,3000,,,,,VFR,,,,,,,,,,,,SPECI,48.0
OSDI 052200Z 23007KT 9999 SCT030 12/08 Q1010,OSDI,2020-05-05T22:00:00Z,33.42,36.52,12.0,8.0,230,7,,6.21,29.822834,,,,,,,,,,,SCT,3000,,,,,,,VFR,,,,,,,,,,,,SPECI,605.0
SBRB 052200Z VRB02KT 8000 VCSH FEW030TCU BKN060 27/26 Q1009,SBRB,2020-05-05T22:00:00Z,-9.87,-67.88,27.0,26.0,0,2,,4.97,29.793306,,,,,,,,,,VCSH,FEW,3000,BKN,6000,,,,,MVFR,,,,,,,,,,,,METAR,190.0
SMZO 052200Z 03008KT 9999 SCT015 28/25 Q1010 NOSIG,SMZO,2020-05-05T22:00:00Z,5.82,-55.18,28.0,25.0,30,8,,6.21,29.822834,,,,,,TRUE,,,,,SCT,1500,,,,,,,VFR,,,,,,,,,,,,METAR,10.0
SMJP 052200Z 05007KT 9999 SCT010 27/25 Q1009 NOSIG,SMJP,2020-05-05T22:00:00Z,5.45,-55.17,27.0,25.0,50,7,,6.21,29.793306,,,,,,TRUE,,,,,SCT,1000,,,,,,,VFR,,,,,,,,,,,,METAR,16.0
FQBR 052200Z 14007KT 9999 FEW020 24/18 Q1019,FQBR,2020-05-05T22:00:00Z,-19.8,34.88,24.0,18.0,140,7,,6.21,30.088583,,,,,,,,,,,FEW,2000,,,,,,,VFR,,,,,,,,,,,,METAR,16.0
SCVM 052200Z 33004KT CAVOK 21/11 Q1013,SCVM,2020-05-05T22:00:00Z,-32.95,-71.48,21.0,11.0,330,4,,6.21,29.911417,,,,,,,,,,,CAVOK,,,,,,,,VFR,,,,,,,,,,,,METAR,141.0
SBLO 052200Z 00000KT CAVOK 24/14 Q1014,SBLO,2020-05-05T22:00:00Z,-23.32,-51.12,24.0,14.0,0,0,,6.21,29.940945,,,,,,,,,,,CAVOK,,,,,,,,VFR,,,,,,,,,,,,METAR,570.0
NZAA 052200Z AUTO 19016KT 9999 NCD 13/06 Q1014 NOSIG,NZAA,2020-05-05T22:00:00Z,-37.02,174.8,13.0,6.0,190,16,,6.21,29.940945,,,TRUE,,,TRUE,,,,,CLR,,,,,,,,VFR,,,,,,,,,,,,METAR,6.0
ORER 042200Z 10007KT 8000 SCT040 BKN100 23/07 Q1010 NOSIG,ORER,2020-05-05T22:00:00Z,36.23,43.97,23.0,7.0,100,7,,4.97,29.822834,,,,,,TRUE,,,,,SCT,4000,BKN,10000,,,,,MVFR,,,,,,,,,,,,METAR,409.0
ORNI 052200Z 13012KT 4000 DU SCT040 31/06 Q0998 BECMG 2000,ORNI,2020-05-05T22:00:00Z,31.98,44.4,31.0,6.0,130,12,,2.49,29.468504,,,,,,,,,,DU,SCT,4000,,,,,,,IFR,,,,,,,,,,,,METAR,53.0
ORMM 042200Z 11006KT CAVOK 30/01 Q1008 NOSIG,ORMM,2020-05-05T22:00:00Z,30.57,47.67,30.0,1.0,110,6,,6.21,29.763779,,,,,,TRUE,,,,,CAVOK,,,,,,,,VFR,,,,,,,,,,,,METAR,2.0
SBGO 052200Z 02002KT 9999 FEW040 SCT100 26/17 Q1017,SBGO,2020-05-05T22:00:00Z,-16.62,-49.22,26.0,17.0,20,2,,6.21,30.029528,,,,,,,,,,,FEW,4000,SCT,10000,,,,,VFR,,,,,,,,,,,,METAR,747.0
SBTE 052200Z 14005KT CAVOK 30/23 Q1010,SBTE,2020-05-05T22:00:00Z,-5.03,-42.82,30.0,23.0,140,5,,6.21,29.822834,,,,,,,,,,,CAVOK,,,,,,,,VFR,,,,,,,,,,,,METAR,69.0
MPTO 052200Z 30009KT 9000 SCT018 BKN090 31/24 Q1007 NOSIG,MPTO,2020-05-05T22:00:00Z,9.05,-79.37,31.0,24.0,300,9,,5.59,29.734253,,,,,,TRUE,,,,,SCT,1800,BKN,9000,,,,,VFR,,,,,,,,,,,,METAR,45.0
OJAQ 052200Z AUTO 36008KT 6000 SCT040 20/09 Q1015 NOSIG,OJAQ,2020-05-05T22:00:00Z,29.62,35.02,20.0,9.0,360,8,,3.73,29.970472,,,TRUE,,,TRUE,,,,,SCT,4000,,,,,,,MVFR,,,,,,,,,,,,METAR,51.0
GOOG 052200Z 36006KT CAVOK 36/19 Q////,GOOG,2020-05-05T22:00:00Z,15.4,-15.08,36.0,19.0,360,6,,6.21,,,,,,,,,,,,CAVOK,,,,,,,,VFR,,,,,,,,,,,,METAR,21.0
UTSK 052200Z 10006KT 9999 FEW050CB 17/13 Q1014 R16/CLRD70,UTSK,2020-05-05T22:00:00Z,38.83,65.77,17.0,13.0,100,6,,6.21,29.940945,,,,,,,,,,,FEW,5000,,,,,,,VFR,,,,,,,,,,,,METAR,1365.0
LRFT 052200Z 19004KT 9999 BKN060 13/10 Q1011 BLU BLU,LRFT,2020-05-05T22:00:00Z,44.38,27.72,13.0,10.0,190,4,,6.21,29.852362,,,,,,,,,,,BKN,6000,,,,,,,VFR,,,,,,,,,,,,METAR,52.0
LRTZ 052200Z 21004KT 9999 SCT100 10/08 Q1011 BLU BLU,LRTZ,2020-05-05T22:00:00Z,43.98,28.62,10.0,8.0,210,4,,6.21,29.852362,,,,,,,,,,,SCT,10000,,,,,,,VFR,,,,,,,,,,,,METAR,49.0
LRCT 052200Z 15009KT 8000 SHRA SCT040CB BKN070 10/08 Q1010 BLU BLU,LRCT,2020-05-05T22:00:00Z,46.5,23.88,10.0,8.0,150,9,,4.97,29.822834,,,,,,,,,,SHRA,SCT,4000,BKN,7000,,,,,MVFR,,,,,,,,,,,,METAR,331.0
LRBO 052200Z 24004KT 9999 SCT120 BKN200 13/09 Q1009 BLU BLU,LRBO,2020-05-05T22:00:00Z,45.22,26.97,13.0,9.0,240,4,,6.21,29.793306,,,,,,,,,,,SCT,12000,BKN,20000,,,,,VFR,,,,,,,,,,,,METAR,103.0
MYGF 052200Z 22006KT 9999 FEW025 28/21 A2996,MYGF,2020-05-05T22:00:00Z,26.55,-78.7,28.0,21.0,220,6,,6.21,29.958662,,,,,,,,,,,FEW,2500,,,,,,,VFR,,,,,,,,,,,,METAR,2.0
OLBA 052200Z 27009KT 8000 -RA FEW026 SCT030 18/12 Q1012 NOSIG,OLBA,2020-05-05T22:00:00Z,33.82,35.47,18.0,12.0,270,9,,4.97,29.88189,,,,,,TRUE,,,,-RA,FEW,2600,SCT,3000,,,,,MVFR,,,,,,,,,,,,METAR,19.0
GVNP 052200Z 01010KT 9999 FEW015 23/18 Q1015 NOSIG,GVNP,2020-05-05T22:00:00Z,14.95,-23.48,23.0,18.0,10,10,,6.21,29.970472,,,,,,TRUE,,,,,FEW,1500,,,,,,,VFR,,,,,,,,,,,,METAR,70.0
SBSP 052200Z 33005KT CAVOK 23/07 Q1016,SBSP,2020-05-05T22:00:00Z,-23.62,-46.63,23.0,7.0,330,5,,6.21,30.0,,,,,,,,,,,CAVOK,,,,,,,,VFR,,,,,,,,,,,,METAR,803.0
KNGU 052159Z 08005KT 10SM BKN041 OVC100 14/07 A2990 RMK AO2 SLP125 T01390067,KNGU,2020-05-05T21:59:00Z,36.92,-76.27,13.9,6.7,80,5,,10.0,29.899607,1012.5,,,TRUE,,,,,,,BKN,4100,OVC,10000,,,,,VFR,,,,,,,,,,,,METAR,5.0
KEKN 052159Z AUTO 00000KT 3SM -RA BKN025 OVC030 10/07 A2977 RMK AO2 P0002 T01000072,KEKN,2020-05-05T21:59:00Z,38.88,-79.85,10.0,7.2,0,0,,3.0,29.769686,,,TRUE,TRUE,,,,,,-RA,BKN,2500,OVC,3000,,,,,MVFR,,,,,,0.02,,,,,,METAR,603.0
PASY 052159Z 15023G28KT 6SM -RA BR OVC008 04/04 A2984 RMK AO2A PK WND 15030/48 RAB44 SLP109 T00420035 RVRNO PNO FZRANO $,PASY,2020-05-05T21:59:00Z,52.72,174.12,4.2,3.5,150,23,28,6.0,29.840551,1010.9,,,TRUE,TRUE,,,TRUE,,-RA BR,OVC,800,,,,,,,IFR,,,,,,,,,,,,METAR,31.0
OAIX 052159Z AUTO 35020G26KT 9999 CLR 16/01 A3002 RMK AO2 PK WND 35036/24 SLP092 T01550012 $,OAIX,2020-05-05T21:59:00Z,34.95,69.27,15.5,1.2,350,20,26,6.21,30.02067,1009.2,,TRUE,TRUE,TRUE,,,,,,CLR,,,,,,,,VFR,,,,,,,,,,,,METAR,1492.0
KTKC 052159Z AUTO 32011KT 5SM DZ SCT008 BKN020 OVC028 09/08 A3009 RMK AO2 P0001 TSNO,KTKC,2020-05-05T21:59:00Z,44.25,-95.62,9.0,8.0,320,11,,5.0,30.088583,,,TRUE,TRUE,,,TRUE,,,DZ,SCT,800,BKN,2000,OVC,2800,,,MVFR,,,,,,0.01,,,,,,METAR,408.0
MTPP 052159Z AUTO 32012KT 290V350 9999 ////// 30/25 Q1011 A2988 NOSIG,MTPP,2020-05-05T21:59:00Z,18.57,-72.28,30.0,25.0,320,12,,6.21,29.852362,,,TRUE,,,TRUE,,,,,,,,,,,,,,,,,,,,,,,,,METAR,37.0
KNOZ 052159Z AUTO 31008KT 10SM CLR 39/M06 A2984 RMK AO2 SLP053 T03941061 $,KNOZ,2020-05-05T21:59:00Z,32.53,-114.5,39.4,-6.1,310,8,,10.0,29.840551,1005.3,,TRUE,TRUE,TRUE,,,,,,CLR,,,,,,,,VFR,,,,,,,,,,,,METAR,78.0
KP92 052159Z AUTO VRB04KT 27/23 A2990 RMK AO1 SLP124 T02670228,KP92,2020-05-05T21:59:00Z,29.57,-91.53,26.7,22.8,0,4,,,29.899607,1012.4,,TRUE,TRUE,,,,,,,,,,,,,,,,,,,,,,,,,,,METAR,1.0
K1IW 052158Z AUTO 33014KT 10SM CLR 18/M01 A3016 RMK AO2 SLPNO T01781006 $,K1IW,2020-05-05T21:58:00Z,41.05,-102.87,17.8,-0.6,330,14,,10.0,30.159449,,,TRUE,TRUE,TRUE,,,,,,CLR,,,,,,,,VFR,,,,,,,,,,,,METAR,1293.0
KVBG 052158Z 35016KT 10SM CLR 17/10 A3006 RMK AO2A PK WND 36027/29 SLP183 T01650104,KVBG,2020-05-05T21:58:00Z,34.73,-120.58,16.5,10.4,350,16,,10.0,30.059055,1018.3,,,TRUE,,,,,,,CLR,,,,,,,,VFR,,,,,,,,,,,,METAR,112.0
PGWT 052158Z 10007KT 7SM FEW018 29/24 A2992,PGWT,2020-05-05T21:58:00Z,14.98,145.62,29.0,24.0,100,7,,7.0,29.920275,,,,,,,,,,,FEW,1800,,,,,,,VFR,,,,,,,,,,,,METAR,82.0
PAFB 052158Z 25006KT 7SM FEW080 14/M03 A2999 RMK AO2A SLP160 T01421028,PAFB,2020-05-05T21:58:00Z,64.83,-147.62,14.2,-2.8,250,6,,7.0,29.991142,1016.0,,,TRUE,,,,,,,FEW,8000,,,,,,,VFR,,,,,,,,,,,,METAR,137.0
KTCM 052158Z 00000KT 10SM CLR 20/11 A3007 RMK AO2A SLPNO ALSTG ESTMD $,KTCM,2020-05-05T21:58:00Z,47.12,-122.47,20.0,11.0,0,0,,10.0,30.070866,,,,TRUE,TRUE,,,,,,CLR,,,,,,,,VFR,,,,,,,,,,,,METAR,98.0
KEDW 052158Z 00000KT 90SM FEW300 31/M05 A3000 RMK AO2A SLP142 T03141053,KEDW,2020-05-05T21:58:00Z,34.88,-117.87,31.4,-5.3,0,0,,90.0,30.0,1014.2,,,TRUE,,,,,,,FEW,30000,,,,,,,VFR,,,,,,,,,,,,METAR,702.0
KSUU 052158Z 23015G18KT 10SM FEW300 27/09 A3005 RMK AO2A WND DATA ESTMD ALSTG ESTMD SLPNO $,KSUU,2020-05-05T21:58:00Z,38.27,-121.92,27.0,9.0,230,15,18,10.0,30.050198,,,,TRUE,TRUE,,,,,,FEW,30000,,,,,,,VFR,,,,,,,,,,,,SPECI,19.0
KCFO 052158Z 04009G16KT 10SM FEW070 BKN220 21/M08 A3019,KCFO,2020-05-05T21:58:00Z,,,21.0,-8.0,40,9,16,10.0,30.188976,,,,,,,,,,,FEW,7000,BKN,22000,,,,,VFR,,,,,,,,,,,,METAR,
K1HM 052158Z AUTO 10007KT 10SM CLR 16/M06 A3023 RMK AO2 SLP245 T01551058 $,K1HM,2020-05-05T21:58:00Z,47.7,-111.95,15.5,-5.8,100,7,,10.0,30.230314,1024.5,,TRUE,TRUE,TRUE,,,,,,CLR,,,,,,,,VFR,,,,,,,,,,,,METAR,1181.0
K1GM 052158Z AUTO 11011KT 10SM CLR 15/M04 A3022 RMK AO2 SLP240 T01471044 $,K1GM,2020-05-05T21:58:00Z,47.33,-112.1,14.7,-4.4,110,11,,10.0,30.221457,1024.0,,TRUE,TRUE,TRUE,,,,,,CLR,,,,,,,,VFR,,,,,,,,,,,,METAR,1311.0
K1EM 052158Z AUTO 33008KT 10SM CLR 14/M02 A3027 RMK AO2 SLP272 T01361018 $,K1EM,2020-05-05T21:58:00Z,47.45,-109.42,13.6,-1.8,330,8,,10.0,30.268702,1027.2,,TRUE,TRUE,TRUE,,,,,,CLR,,,,,,,,VFR,,,,,,,,,,,,METAR,1116.0
K1DM 052158Z AUTO 34004KT 10SM CLR 14/M03 A3024 RMK AO2 SLP266 T01441029 $,K1DM,2020-05-05T21:58:00Z,47.37,-109.8,14.4,-2.9,340,4,,10.0,30.239174,1026.6,,TRUE,TRUE,TRUE,,,,,,CLR,,,,,,,,VFR,,,,,,,,,,,,METAR,1093.0
K1BM 052158Z AUTO 22005KT 10SM CLR 14/M04 A3026 RMK AO2 SLP266 T01411039 $,K1BM,2020-05-05T21:58:00Z,47.28,-110.37,14.1,-3.9,220,5,,10.0,30.259842,1026.6,,TRUE,TRUE,TRUE,,,,,,CLR,,,,,,,,VFR,,,,,,,,,,,,METAR,1234.0
RKSY 052158Z AUTO 00000KT 9999 CLR 13/10 A2996 RMK AO2 SLP149 T01300104 $,RKSY,2020-05-05T21:58:00Z,37.52,126.97,13.0,10.4,0,0,,6.21,29.958662,1014.9,,TRUE,TRUE,TRUE,,,,,,CLR,,,,,,,,VFR,,,,,,,,,,,,METAR,12.0
PHSF 052158Z AUTO 27009G16KT 10SM FEW280 SCT340 21/11 A3032 RMK AO2 SLP154 T02050106 $,PHSF,2020-05-05T21:58:00Z,19.77,-155.55,20.5,10.6,270,9,16,10.0,30.318897,1015.4,,TRUE,TRUE,TRUE,,,,,,FEW,28000,SCT,34000,,,,,VFR,,,,,,,,,,,,METAR,1887.0
PAFR 052158Z AUTO 28007KT 7SM CLR 14/M01 A2996 RMK AO2 SLP153 T01351012 $,PAFR,2020-05-05T21:58:00Z,61.27,-149.65,13.5,-1.2,280,7,,7.0,29.958662,1015.3,,TRUE,TRUE,TRUE,,,,,,CLR,,,,,,,,VFR,,,,,,,,,,,,METAR,115.0
KINS 052158Z AUTO 03004KT 10SM CLR 31/M16 A3002 RMK AO2 SLP126 T03071160 $,KINS,2020-05-05T21:58:00Z,36.58,-115.67,30.7,-16.0,30,4,,10.0,30.02067,1012.6,,TRUE,TRUE,TRUE,,,,,,CLR,,,,,,,,VFR,,,,,,,,,,,,METAR,955.0
KDMA 052158Z COR 21005KT 10SM CLR 37/M07 A2993 RMK AO2 SLP092 T03681067 FZRANO $ COR 2229,KDMA,2020-05-05T21:58:00Z,32.17,-110.87,36.8,-6.7,210,5,,10.0,29.929134,1009.2,TRUE,,TRUE,TRUE,,,TRUE,,,CLR,,,,,,,,VFR,,,,,,,,,,,,METAR,824.0
KBKF 052158Z 05005KT 10SM FEW080 FEW140 BKN200 21/M09 A3018 RMK AO2A SLP179 T02111094,KBKF,2020-05-05T21:58:00Z,39.72,-104.75,21.1,-9.4,50,5,,10.0,30.180119,1017.9,,,TRUE,,,,,,,FEW,8000,FEW,14000,BKN,20000,,,VFR,,,,,,,,,,,,METAR,1726.0
KAPG 052158Z AUTO 00000KT 8SM OVC100 14/03 A2989 RMK AO2 SLP125 T01400029 PNO TSNO $,KAPG,2020-05-05T21:58:00Z,39.47,-76.17,14.0,2.9,0,0,,8.0,29.890747,1012.5,,TRUE,TRUE,TRUE,,TRUE,,,,OVC,10000,,,,,,,VFR,,,,,,,,,,,,METAR,18.0
KBYS 052158Z AUTO 29003KT 10SM CLR 32/M13 A3001 RMK AO2 SLP138 T03161127 $,KBYS,2020-05-05T21:58:00Z,35.28,-116.62,31.6,-12.7,290,3,,10.0,30.008858,1013.8,,TRUE,TRUE,TRUE,,,,,,CLR,,,,,,,,VFR,,,,,,,,,,,,SPECI,716.0
KLUF 052158Z AUTO 15003KT 10SM FEW200 38/M04 A2984 RMK AO2 SLP091 T03781039 $,KLUF,2020-05-05T21:58:00Z,33.52,-112.37,37.8,-3.9,150,3,,10.0,29.840551,1009.1,,TRUE,TRUE,TRUE,,,,,,FEW,20000,,,,,,,VFR,,,,,,,,,,,,METAR,332.0
K1OM 052158Z AUTO 02009G19KT 10SM CLR 14/M01 A3026 RMK AO2 SLP260 T01381006 $,K1OM,2020-05-05T21:58:00Z,47.33,-108.93,13.8,-0.6,20,9,19,10.0,30.259842,1026.0,,TRUE,TRUE,TRUE,,,,,,CLR,,,,,,,,VFR,,,,,,,,,,,,METAR,1086.0
K1NM 052158Z AUTO 30007KT 10SM FEW065 14/M02 A3024 RMK AO2 SLP261 T01411022 $,K1NM,2020-05-05T21:58:00Z,47.07,-109.03,14.1,-2.2,300,7,,10.0,30.239174,1026.1,,TRUE,TRUE,TRUE,,,,,,FEW,6500,,,,,,,VFR,,,,,,,,,,,,METAR,1161.0
K1MM 052158Z AUTO 32007KT 10SM CLR 13/M04 A3027 RMK AO2 SLPNO T01301039 $,K1MM,2020-05-05T21:58:00Z,47.02,-109.63,13.0,-3.9,320,7,,10.0,30.268702,,,TRUE,TRUE,TRUE,,,,,,CLR,,,,,,,,VFR,,,,,,,,,,,,METAR,1256.0
K1LM 052158Z AUTO 36019G28KT 10SM CLR 13/M02 A3025 RMK AO2 PK WND 36028/50 SLP263 T01341017 $,K1LM,2020-05-05T21:58:00Z,46.7,-109.73,13.4,-1.7,360,19,28,10.0,30.250984,1026.3,,TRUE,TRUE,TRUE,,,,,,CLR,,,,,,,,VFR,,,,,,,,,,,,METAR,1414.0
K1JM 052158Z AUTO 31006KT 10SM CLR 15/M07 A3024 RMK AO2 SLP267 T01501074 $,K1JM,2020-05-05T21:58:00Z,47.75,-111.55,15.0,-7.4,310,6,,10.0,30.239174,1026.7,,TRUE,TRUE,TRUE,,,,,,CLR,,,,,,,,VFR,,,,,,,,,,,,METAR,1152.0
K1IM 052158Z AUTO 01007KT 10SM CLR 16/M04 A3024 RMK AO2 SLP264 T01611042 $,K1IM,2020-05-05T21:58:00Z,47.32,-111.47,16.1,-4.2,10,7,,10.0,30.239174,1026.4,,TRUE,TRUE,TRUE,,,,,,CLR,,,,,,,,VFR,,,,,,,,,,,,METAR,1108.0
KBIF 052158Z AUTO 14010G18KT 10SM CLR 28/01 A3010 RMK AO2 SLP130 T02840010 $,KBIF,2020-05-05T21:58:00Z,31.85,-106.38,28.4,1.0,140,10,18,10.0,30.100393,1013.0,,TRUE,TRUE,TRUE,,,,,,CLR,,,,,,,,VFR,,,,,,,,,,,,METAR,1203.0
K4MR 052158Z AUTO 00000KT 10SM CLR 23/00 A3022 RMK AO2 SLP189 T02291003 $,K4MR,2020-05-05T21:58:00Z,34.3,-103.8,22.9,-0.3,0,0,,10.0,30.221457,1018.9,,TRUE,TRUE,TRUE,,,,,,CLR,,,,,,,,VFR,,,,,,,,,,,,METAR,1326.0
KSXS 052158Z AUTO 29007KT 10SM FEW060 31/15 A2986 RMK AO2 SLP110 T03050150 $,KSXS,2020-05-05T21:58:00Z,31.37,-85.85,30.5,15.0,290,7,,10.0,29.861221,1011.0,,TRUE,TRUE,TRUE,,,,,,FEW,6000,,,,,,,VFR,,,,,,,,,,,,METAR,122.0
KPOE 052158Z AUTO 35010KT 10SM FEW060 OVC080 29/22 A2990 RMK AO2 SLP124 T02870215,KPOE,2020-05-05T21:58:00Z,31.05,-93.2,28.7,21.5,350,10,,10.0,29.899607,1012.4,,TRUE,TRUE,,,,,,,FEW,6000,OVC,8000,,,,,VFR,,,,,,,,,,,,METAR,101.0
KMUO 052158Z AUTO 08008G20KT 10SM CLR 27/M12 A3005 RMK AO2 PK WND 09026/25 SLP164 T02661121 $,KMUO,2020-05-05T21:58:00Z,43.03,-115.87,26.6,-12.1,80,8,20,10.0,30.050198,1016.4,,TRUE,TRUE,TRUE,,,,,,CLR,,,,,,,,VFR,,,,,,,,,,,,METAR,913.0
KFCS 052158Z AUTO 15005G15KT 10SM CLR 21/M04 A3015 RMK AO2 SLP192 T02071038 $,KFCS,2020-05-05T21:58:00Z,38.67,-104.77,20.7,-3.8,150,5,15,10.0,30.15059,1019.2,,TRUE,TRUE,TRUE,,,,,,CLR,,,,,,,,VFR,,,,,,,,,,,,METAR,1789.0
KSLI 052158Z 21009KT 10SM CLR 30/13 A2991 RMK AO2A SLP131 T02990133,KSLI,2020-05-05T21:58:00Z,33.77,-118.03,29.9,13.3,210,9,,10.0,29.911417,1013.1,,,TRUE,,,,,,,CLR,,,,,,,,VFR,,,,,,,,,,,,METAR,11.0
K1HW 052158Z AUTO 32015KT 10SM CLR 18/01 A3017 RMK AO2 PK WND 32029/44 SLP209 T01770011 $,K1HW,2020-05-05T21:58:00Z,41.32,-102.83,17.7,1.1,320,15,,10.0,30.171259,1020.9,,TRUE,TRUE,TRUE,,,,,,CLR,,,,,,,,VFR,,,,,,,,,,,,METAR,1263.0
K1FW 052158Z AUTO 32014G22KT 10SM CLR 17/M01 A3019 RMK AO2 SLP207 T01661010 $,K1FW,2020-05-05T21:58:00Z,41.37,-103.47,16.6,-1.0,320,14,22,10.0,30.188976,1020.7,,TRUE,TRUE,TRUE,,,,,,CLR,,,,,,,,VFR,,,,,,,,,,,,METAR,1453.0
KMEI 052158Z 29008KT 10SM FEW027 BKN039 OVC047 26/20 A2991 RMK AO2 SLP126 T02610200,KMEI,2020-05-05T21:58:00Z,32.33,-88.75,26.1,20.0,290,8,,10.0,29.911417,1012.6,,,TRUE,,,,,,,FEW,2700,BKN,3900,OVC,4700,,,VFR,,,,,,,,,,,,METAR,89.0
KLGF 052158Z AUTO 30004KT 10SM CLR 39/M04 A2982 RMK AO2 SLP094 T03921037 $,KLGF,2020-05-05T21:58:00Z,32.87,-114.4,39.2,-3.7,300,4,,10.0,29.819881,1009.4,,TRUE,TRUE,TRUE,,,,,,CLR,,,,,,,,VFR,,,,,,,,,,,,METAR,132.0
KCVS 052158Z AUTO 18004KT 10SM CLR 22/M01 A3023 RMK AO2 SLP197 T02191014 $,KCVS,2020-05-05T21:58:00Z,34.37,-103.32,21.9,-1.4,180,4,,10.0,30.230314,1019.7,,TRUE,TRUE,TRUE,,,,,,CLR,,,,,,,,VFR,,,,,,,,,,,,METAR,1309.0
K1MW 052158Z AUTO 35015KT 10SM FEW110 21/M05 A3014 RMK AO2 SLP194 T02071052 $,K1MW,2020-05-05T21:58:00Z,40.7,-103.48,20.7,-5.2,350,15,,10.0,30.138779,1019.4,,TRUE,TRUE,TRUE,,,,,,FEW,11000,,,,,,,VFR,,,,,,,,,,,,METAR,1336.0
KMRH 052158Z AUTO 06006KT 10SM FEW017 19/15 A2984 RMK AO2 SLP104 T01940150,KMRH,2020-05-05T21:58:00Z,34.73,-76.65,19.4,15.0,60,6,,10.0,29.840551,1010.4,,TRUE,TRUE,,,,,,,FEW,1700,,,,,,,VFR,,,,,,,,,,,,METAR,3.0
K1EW 052158Z AUTO 02015G19KT 10SM CLR 17/M03 A3019 RMK AO2 SLP211 T01671028 $,K1EW,2020-05-05T21:58:00Z,41.12,-103.98,16.7,-2.8,20,15,19,10.0,30.188976,1021.1,,TRUE,TRUE,TRUE,,,,,,CLR,,,,,,,,VFR,,,,,,,,,,,,METAR,1609.0
KAFF 052158Z AUTO 00000KT 10SM FEW080 18/M04 A3020 RMK AO2 SLP193 T01771037,KAFF,2020-05-05T21:58:00Z,38.97,-104.82,17.7,-3.7,0,0,,10.0,30.200787,1019.3,,TRUE,TRUE,,,,,,,FEW,8000,,,,,,,VFR,,,,,,,,,,,,METAR,2003.0
K9L2 052158Z AUTO 13006KT 9SM CLR 31/M08 A3001 RMK AO2 SLP144 T03141085 $,K9L2,2020-05-05T21:58:00Z,34.97,-117.87,31.4,-8.5,130,6,,9.0,30.008858,1014.4,,TRUE,TRUE,TRUE,,,,,,CLR,,,,,,,,VFR,,,,,,,,,,,,METAR,701.0
K1J0 052158Z AUTO 22009G14KT 10SM CLR 29/18 A2988 RMK AO2 SLP076 T02940178,K1J0,2020-05-05T21:58:00Z,30.85,-85.6,29.4,17.8,220,9,14,10.0,29.878937,1007.6,,TRUE,TRUE,,,,,,,CLR,,,,,,,,VFR,,,,,,,,,,,,METAR,26.0
KROG 052158Z 31011G19KT 10SM CLR 21/04 A3006 RMK AO2 SLP171 T02060044,KROG,2020-05-05T21:58:00Z,36.37,-94.08,20.6,4.4,310,11,19,10.0,30.059055,1017.1,,,TRUE,,,,,,,CLR,,,,,,,,VFR,,,,,,,,,,,,METAR,415.0
KGUR 052158Z AUTO 34015G30KT 10SM CLR 19/M06 A3019 RMK AO2 PK WND 34030/49 SLP215 T01931061,KGUR,2020-05-05T21:58:00Z,42.25,-104.72,19.3,-6.1,340,15,30,10.0,30.188976,1021.5,,TRUE,TRUE,,,,,,,CLR,,,,,,,,VFR,,,,,,,,,,,,METAR,1358.0
K1AM 052158Z AUTO 25004KT 10SM CLR 14/M05 A3026 RMK AO2 SLP221 T01441051 $,K1AM,2020-05-05T21:58:00Z,47.28,-110.8,14.4,-5.1,250,4,,10.0,30.259842,1022.1,,TRUE,TRUE,TRUE,,,,,,CLR,,,,,,,,VFR,,,,,,,,,,,,METAR,1219.0
KABH 052158Z AUTO 00000KT 10SM CLR 19/M07 A3021 RMK AO2 SLP208 T01871069,KABH,2020-05-05T21:58:00Z,38.75,-104.3,18.7,-6.9,0,0,,10.0,30.209646,1020.8,,TRUE,TRUE,,,,,,,CLR,,,,,,,,VFR,,,,,,,,,,,,METAR,1840.0
KGRK 052158Z AUTO 03012KT 10SM FEW095 26/10 A3003 RMK AO2 SLP160 T02570101 $,KGRK,2020-05-05T21:58:00Z,31.07,-97.83,25.7,10.1,30,12,,10.0,30.029528,1016.0,,TRUE,TRUE,TRUE,,,,,,FEW,9500,,,,,,,VFR,,,,,,,,,,,,METAR,309.0
K1OW 052158Z AUTO 36022G30KT 10SM CLR 18/M04 A3017 RMK AO2 PK WND 33035/03 SLP194 T01791042 $,K1OW,2020-05-05T21:58:00Z,40.88,-104.0,17.9,-4.2,360,22,30,10.0,30.171259,1019.4,,TRUE,TRUE,TRUE,,,,,,CLR,,,,,,,,VFR,,,,,,,,,,,,METAR,1649.0
K1GW 052158Z AUTO 34014G17KT 10SM CLR 18/M01 A3016 RMK AO2 SLP205 T01801014 $,K1GW,2020-05-05T21:58:00Z,41.22,-103.1,18.0,-1.4,340,14,17,10.0,30.159449,1020.5,,TRUE,TRUE,TRUE,,,,,,CLR,,,,,,,,VFR,,,,,,,,,,,,METAR,1334.0
K1CW 052158Z AUTO 33016G23KT 10SM CLR 18/M04 A3021 RMK AO2 SLP211 T01751042 TSNO $,K1CW,2020-05-05T21:58:00Z,41.58,-103.57,17.5,-4.2,330,16,23,10.0,30.209646,1021.1,,TRUE,TRUE,TRUE,,TRUE,,,,CLR,,,,,,,,VFR,,,,,,,,,,,,METAR,1371.0
K1NW 052158Z AUTO 34019G26KT 10SM CLR 20/M08 A3014 RMK AO2 PK WND 36027/32 SLP186 T01991076 $,K1NW,2020-05-05T21:58:00Z,40.63,-103.83,19.9,-7.6,340,19,26,10.0,30.138779,1018.6,,TRUE,TRUE,TRUE,,,,,,CLR,,,,,,,,VFR,,,,,,,,,,,,METAR,1459.0
KHEY 052158Z AUTO 30008KT 9SM FEW060 31/17 A2986 RMK AO2 SLP111 T03060166,KHEY,2020-05-05T21:58:00Z,31.35,-85.65,30.6,16.6,300,8,,9.0,29.861221,1011.1,,TRUE,TRUE,,,,,,,FEW,6000,,,,,,,VFR,,,,,,,,,,,,METAR,97.0
KBAB 052158Z AUTO 17008KT 9SM CLR 29/00 A3003 RMK AO2 SLP172 T02901003 $,KBAB,2020-05-05T21:58:00Z,39.12,-121.42,29.0,-0.3,170,8,,9.0,30.029528,1017.2,,TRUE,TRUE,TRUE,,,,,,CLR,,,,,,,,VFR,,,,,,,,,,,,SPECI,34.0
KFEW 052158Z AUTO 31015G30KT 10SM SCT100 17/M08 A3023 RMK AO2 PK WND 31030/52 SLP211 T01651080 $,KFEW,2020-05-05T21:58:00Z,41.13,-104.87,16.5,-8.0,310,15,30,10.0,30.230314,1021.1,,TRUE,TRUE,TRUE,,,,,,SCT,10000,,,,,,,VFR,,,,,,,,,,,,METAR,1878.0
MUCF 052158Z AUTO 21012KT 180V240 30/22 Q1012,MUCF,2020-05-05T21:58:00Z,22.13,-80.4,30.0,22.0,210,12,,,29.88189,,,TRUE,,,,,,,,,,,,,,,,,,,,,,,,,,,,METAR,39.0
K1KM 052158Z AUTO 02012KT 10SM CLR 15/M04 A3024 RMK AO2 SLP255 T01521041 $,K1KM,2020-05-05T21:58:00Z,46.45,-109.8,15.2,-4.1,20,12,,10.0,30.239174,1025.5,,TRUE,TRUE,TRUE,,,,,,CLR,,,,,,,,VFR,,,,,,,,,,,,METAR,1330.0
KSEQ 052158Z AUTO 04019KT 10SM FEW075 BKN090 27/18 A2999 RMK AO2 SLP151 T02660178,KSEQ,2020-05-05T21:58:00Z,29.57,-97.9,26.6,17.8,40,19,,10.0,29.991142,1015.1,,TRUE,TRUE,,,,,,,FEW,7500,BKN,9000,,,,,VFR,,,,,,,,,,,,METAR,160.0
K1BW 052158Z AUTO 33014KT 10SM CLR 16/M01 A3021 RMK AO2 SLP210 T01611007 $,K1BW,2020-05-05T21:58:00Z,41.52,-104.0,16.1,-0.7,330,14,,10.0,30.209646,1021.0,,TRUE,TRUE,TRUE,,,,,,CLR,,,,,,,,VFR,,,,,,,,,,,,METAR,1607.0
K1CM 052158Z AUTO 31008KT 10SM CLR 13/M03 A3027 RMK AO2 SLP273 T01331033 $,K1CM,2020-05-05T21:58:00Z,47.1,-110.17,13.3,-3.3,310,8,,10.0,30.268702,1027.3,,TRUE,TRUE,TRUE,,,,,,CLR,,,,,,,,VFR,,,,,,,,,,,,METAR,1337.0
KLOR 052158Z AUTO 30007KT 10SM FEW060 30/16 A2986 RMK AO2 SLP093 T03040162,KLOR,2020-05-05T21:58:00Z,31.35,-85.75,30.4,16.2,300,7,,10.0,29.861221,1009.3,,TRUE,TRUE,,,,,,,FEW,6000,,,,,,,VFR,,,,,,,,,,,,METAR,74.0
KHMN 052158Z AUTO 19008G24KT 10SM CLR 28/02 A3012 RMK AO2 PK WND 21026/07 SLP133 T02820024 $,KHMN,2020-05-05T21:58:00Z,32.85,-106.08,28.2,2.4,190,8,24,10.0,30.121063,1013.3,,TRUE,TRUE,TRUE,,,,,,CLR,,,,,,,,VFR,,,,,,,,,,,,METAR,1248.0
KHLR 052158Z AUTO 02014KT 10SM FEW280 26/10 A3003 RMK AO2 SLP159 T02580104,KHLR,2020-05-05T21:58:00Z,31.13,-97.72,25.8,10.4,20,14,,10.0,30.029528,1015.9,,TRUE,TRUE,,,,,,,FEW,28000,,,,,,,VFR,,,,,,,,,,,,METAR,283.0
KHIF 052158Z AUTO 00000KT 10SM CLR 21/M07 A3023 RMK AO2 SLP204 T02111075,KHIF,2020-05-05T21:58:00Z,41.12,-111.97,21.1,-7.5,0,0,,10.0,30.230314,1020.4,,TRUE,TRUE,,,,,,,CLR,,,,,,,,VFR,,,,,,,,,,,,METAR,1459.0
KGXF 052158Z AUTO 31006KT 10SM CLR 39/M05 A2983 RMK AO2 SLP089 T03871053,KGXF,2020-05-05T21:58:00Z,32.87,-112.72,38.7,-5.3,310,6,,10.0,29.828741,1008.9,,TRUE,TRUE,,,,,,,CLR,,,,,,,,VFR,,,,,,,,,,,,METAR,262.0
KGXA 052158Z AUTO 00000KT 10SM CLR 31/M02 A3002 RMK AO2 SLP141 WND DATA ESTMD T03101022,KGXA,2020-05-05T21:58:00Z,34.57,-117.67,31.0,-2.2,0,0,,10.0,30.02067,1014.1,,TRUE,TRUE,,,,,,,CLR,,,,,,,,VFR,,,,,,,,,,,,METAR,923.0
KGRF 052158Z AUTO 00000KT 10SM CLR 20/11 A3005 RMK AO2 SLP179 T02010113 $,KGRF,2020-05-05T21:58:00Z,47.07,-122.57,20.1,11.3,0,0,,10.0,30.050198,1017.9,,TRUE,TRUE,TRUE,,,,,,CLR,,,,,,,,VFR,,,,,,,,,,,,METAR,92.0
KGOV 052158Z AUTO 07006KT 10SM CLR 13/M09 A2998 RMK AO2 SLP166 T01261086 $,KGOV,2020-05-05T21:58:00Z,44.68,-84.73,12.6,-8.6,70,6,,10.0,29.97933,1016.6,,TRUE,TRUE,TRUE,,,,,,CLR,,,,,,,,VFR,,,,,,,,,,,,SPECI,353.0
KGFA 052158Z AUTO 23005KT 10SM CLR 16/M06 A3026 RMK AO2 SLP267 T01561056 $,KGFA,2020-05-05T21:58:00Z,47.5,-111.17,15.6,-5.6,230,5,,10.0,30.259842,1026.7,,TRUE,TRUE,TRUE,,,,,,CLR,,,,,,,,VFR,,,,,,,,,,,,METAR,1075.0
KFHU 052158Z AUTO 21003KT 10SM CLR 33/M09 A3009 RMK AO2 SLP111 T03301086,KFHU,2020-05-05T21:58:00Z,31.58,-110.35,33.0,-8.6,210,3,,10.0,30.088583,1011.1,,TRUE,TRUE,,,,,,,CLR,,,,,,,,VFR,,,,,,,,,,,,METAR,1438.0
KLSV 052158Z AUTO 36005KT 10SM CLR 33/M09 A2997 RMK AO2 SLP127 T03301094,KLSV,2020-05-05T21:58:00Z,36.22,-115.02,33.0,-9.4,360,5,,10.0,29.970472,1012.7,,TRUE,TRUE,,,,,,,CLR,,,,,,,,VFR,,,,,,,,,,,,METAR,570.0
KRIV 052158Z AUTO 31003KT 10SM CLR 34/05 A2995 RMK AO2 SLP130 T03410047,KRIV,2020-05-05T21:58:00Z,33.87,-117.27,34.1,4.7,310,3,,10.0,29.949802,1013.0,,TRUE,TRUE,,,,,,,CLR,,,,,,,,VFR,,,,,,,,,,,,METAR,469.0
KSKA 052158Z COR 04006KT 10SM CLR 21/01 A3011 RMK AO2A SLP198 T02060009 $ COR 2202,KSKA,2020-05-05T21:58:00Z,47.62,-117.65,20.6,0.9,40,6,,10.0,30.109253,1019.8,TRUE,,TRUE,TRUE,,,,,,CLR,,,,,,,,VFR,,,,,,,,,,,,METAR,750.0
MMLT 052157Z RTD 00000KT 10SM SKC 31/24 A2972 RMK HZY,MMLT,2020-05-05T21:57:00Z,26.02,-111.33,31.0,24.0,0,0,,10.0,29.719488,,,,,,,,,,,SKC,,,,,,,,VFR,,,,,,,,,,,,METAR,15.0
EQYG 052157Z AUTO A3004 RMK AO2 SLPNO PWINO TSNO $ ,EQYG,2020-05-05T21:57:00Z,35.53,24.15,,,,,,,30.041338,,,TRUE,TRUE,TRUE,,TRUE,,TRUE,,,,,,,,,,,,,,,,,,,,,,METAR,142.0
KFBG 052157Z AUTO 11003KT 10SM OVC034 24/16 A2978 RMK AO2 RAE55 SLP086 $,KFBG,2020-05-05T21:57:00Z,35.12,-78.92,24.0,16.0,110,3,,10.0,29.778543,1008.6,,TRUE,TRUE,TRUE,,,,,,OVC,3400,,,,,,,VFR,,,,,,,,,,,,METAR,74.0
KSCH 052157Z 29016G21KT 15SM CLR 13/M05 A2987,KSCH,2020-05-05T21:57:00Z,42.85,-73.92,13.0,-5.0,290,16,21,15.0,29.870079,,,,,,,,,,,CLR,,,,,,,,VFR,,,,,,,,,,,,METAR,115.0
KFLG 052157Z 20011G18KT 10SM CLR 23/M06 A3026 RMK AO2 SLP170 T02331061,KFLG,2020-05-05T21:57:00Z,35.13,-111.67,23.3,-6.1,200,11,18,10.0,30.259842,1017.0,,,TRUE,,,,,,,CLR,,,,,,,,VFR,,,,,,,,,,,,METAR,2134.0
KAQV 052157Z AUTO VRB04KT 10SM BKN085 27/21 A2992 RMK AO2 SLP130 T02720211,KAQV,2020-05-05T21:57:00Z,31.4,-93.3,27.2,21.1,0,4,,10.0,29.920275,1013.0,,TRUE,TRUE,,,,,,,BKN,8500,,,,,,,VFR,,,,,,,,,,,,METAR,111.0
KNYL 052157Z 36007KT 7SM CLR 39/M08 A2982 RMK AO2 SLP096 T03941078,KNYL,2020-05-05T21:57:00Z,32.63,-114.62,39.4,-7.8,360,7,,7.0,29.819881,1009.6,,,TRUE,,,,,,,CLR,,,,,,,,VFR,,,,,,,,,,,,METAR,65.0
PHNG 052157Z 07011G17KT 10SM SCT031 29/18 A3005 RMK AO2 SLP172 T02940183 $,PHNG,2020-05-05T21:57:00Z,21.43,-157.77,29.4,18.3,70,11,17,10.0,30.050198,1017.2,,,TRUE,TRUE,,,,,,SCT,3100,,,,,,,VFR,,,,,,,,,,,,SPECI,3.0
KQN3 052156Z AUTO 00000KT 5000 HZ CLR 33/20 A2987 RMK AO2 SLP103 WND DATA ESTMD T03270195,KQN3,2020-05-05T21:56:00Z,,,32.7,19.5,0,0,,3.11,29.870079,1010.3,,TRUE,TRUE,,,,,,HZ,CLR,,,,,,,,MVFR,,,,,,,,,,,,METAR,
KNDZ 052156Z 28003KT 10SM SCT060 SCT250 30/16 A2987 RMK AO2 SLP101 T03000156,KNDZ,2020-05-05T21:56:00Z,30.7,-87.02,30.0,15.6,280,3,,10.0,29.870079,1010.1,,,TRUE,,,,,,,SCT,6000,SCT,25000,,,,,VFR,,,,,,,,,,,,METAR,54.0
ETIC 052156Z AUTO 00000KT 9999 CLR 02/M01 A3013 RMK AO2 SLP214 T00221012 401360002 $,ETIC,2020-05-05T21:56:00Z,49.7,11.93,2.2,-1.2,0,0,,6.21,30.129921,1021.4,,TRUE,TRUE,TRUE,,,,,,CLR,,,,,,,,VFR,,,,13.6,0.2,,,,,,,METAR,415.0
KPRN 052156Z AUTO 29004KT 10SM CLR 28/15 A2988 RMK AO2 SLP112 T02780150,KPRN,2020-05-05T21:56:00Z,31.85,-86.62,27.8,15.0,290,4,,10.0,29.878937,1011.2,,TRUE,TRUE,,,,,,,CLR,,,,,,,,VFR,,,,,,,,,,,,METAR,138.0
KBAD 052156Z 02008KT 10SM SCT044 25/16 A2998 RMK AO2A SLP154 P0000 T02530156,KBAD,2020-05-05T21:56:00Z,32.5,-93.67,25.3,15.6,20,8,,10.0,29.97933,1015.4,,,TRUE,,,,,,,SCT,4400,,,,,,,VFR,,,,,,0.005,,,,,,METAR,51.0
ETIK 052156Z AUTO 00000KT 9999 CLR 02/02 A3017 RMK AO2 SLP226 T00230022 FZRANO,ETIK,2020-05-05T21:56:00Z,49.47,10.37,2.3,2.2,0,0,,6.21,30.171259,1022.6,,TRUE,TRUE,,,,TRUE,,,CLR,,,,,,,,VFR,,,,,,,,,,,,METAR,325.0
ETIH 052156Z AUTO 00000KT 9999 CLR 04/M01 A3015 RMK AO2 SLP220 T00371013 401400037,ETIH,2020-05-05T21:56:00Z,49.22,11.82,3.7,-1.3,0,0,,6.21,30.15059,1022.0,,TRUE,TRUE,,,,,,,CLR,,,,,,,,VFR,,,,14.0,3.7,,,,,,,METAR,442.0
KHRT 052156Z 24011KT 10SM CLR 27/17 A2989 RMK SLP123 T02700172 $,KHRT,2020-05-05T21:56:00Z,30.42,-86.67,27.0,17.2,240,11,,10.0,29.890747,1012.3,,,,TRUE,,,,,,CLR,,,,,,,,VFR,,,,,,,,,,,,METAR,12.0
KPSM 052156Z 30012G20KT 10SM FEW060 SCT250 11/M02 A2982 RMK SLP101 WND DATA ESTMD ALSTG/SLP ESTMD,KPSM,2020-05-05T21:56:00Z,43.07,-70.82,11.0,-2.0,300,12,20,10.0,29.819881,1010.1,,,,,,,,,,FEW,6000,SCT,25000,,,,,VFR,,,,,,,,,,,,METAR,31.0
OKAS 052156Z 22015G25KT 9000SM -TSRA BKN120CB 26/11 A2979 RMK WND DATA ESTMD ALSTG/SLP ESTMD,OKAS,2020-05-05T21:56:00Z,29.35,47.52,26.0,11.0,220,15,25,0.0,29.790354,,,,,,,,,,-TSRA,BKN,12000,,,,,,,LIFR,,,,,,,,,,,,METAR,144.0
ROTM 052156Z COR 27011KT 0800 +SHRA VCTS FG BKN005 BKN011 OVC020 23/23 A2975 RMK FREQ LTGICCCCG DSNT E SLP057 L5 END T1 T2 P0046 T02330228,ROTM,2020-05-05T21:56:00Z,26.27,127.75,23.3,22.8,270,11,,0.5,29.749016,1005.7,TRUE,,,,,,,,+SHRA VCTS FG,BKN,500,BKN,1100,OVC,2000,,,LIFR,,,,,,0.46,,,,,,SPECI,75.0
KQAJ 052156Z 26004KT 9999 FEW070 BKN140 26/12 A2979 RMK SLP096,KQAJ,2020-05-05T21:56:00Z,,,26.0,12.0,260,4,,6.21,29.790354,1009.6,,,,,,,,,,FEW,7000,BKN,14000,,,,,VFR,,,,,,,,,,,,SPECI,
KLSF 052156Z AUTO 27009KT 10SM FEW060 29/18 A2984 RMK AO2 SLP108 T02930178,KLSF,2020-05-05T21:56:00Z,32.32,-84.97,29.3,17.8,270,9,,10.0,29.840551,1010.8,,TRUE,TRUE,,,,,,,FEW,6000,,,,,,,VFR,,,,,,,,,,,,METAR,71.0
KXNO 052156Z AUTO 20009G15KT 10SM CLR 31/14 A2977 RMK AO2 SLP081 T03090141 $,KXNO,2020-05-05T21:56:00Z,33.62,-81.07,30.9,14.1,200,9,15,10.0,29.769686,1008.1,,TRUE,TRUE,TRUE,,,,,,CLR,,,,,,,,VFR,,,,,,,,,,,,METAR,98.0
KEGI 052156Z AUTO 21010KT 10SM FEW050 30/18 A2987 RMK AO2 SLP114 T03000178 $,KEGI,2020-05-05T21:56:00Z,30.63,-86.52,30.0,17.8,210,10,,10.0,29.870079,1011.4,,TRUE,TRUE,TRUE,,,,,,FEW,5000,,,,,,,VFR,,,,,,,,,,,,METAR,59.0
KDOV 052156Z AUTO 34004KT 10SM OVC100 14/03 A2988 RMK AO2 SLP122 T01430025 $,KDOV,2020-05-05T21:56:00Z,39.12,-75.47,14.3,2.5,340,4,,10.0,29.878937,1012.2,,TRUE,TRUE,TRUE,,,,,,OVC,10000,,,,,,,VFR,,,,,,,,,,,,METAR,9.0
KDLF 052156Z AUTO 04011KT 10SM FEW050 31/18 A2995 RMK AO2 SLP130 T03130176 $,KDLF,2020-05-05T21:56:00Z,29.37,-100.77,31.3,17.6,40,11,,10.0,29.949802,1013.0,,TRUE,TRUE,TRUE,,,,,,FEW,5000,,,,,,,VFR,,,,,,,,,,,,METAR,330.0
RKSG 052156Z 10003KT 1/8SM R32/1000V1200FT FG VV001 11/10 A2996 RMK AO2A SLP149 $,RKSG,2020-05-05T21:56:00Z,36.97,127.02,11.0,10.0,100,3,,0.13,29.958662,1014.9,,,TRUE,TRUE,,,,,FG,OVX,0,,,,,,,LIFR,,,,,,,,,,,100,METAR,16.0
KFFO 052156Z 01011KT 10SM OVC043 10/00 A2983 RMK AO2A SLP107 T01020002,KFFO,2020-05-05T21:56:00Z,39.82,-84.03,10.2,0.2,10,11,,10.0,29.828741,1010.7,,,TRUE,,,,,,,OVC,4300,,,,,,,VFR,,,,,,,,,,,,METAR,251.0
KSMP 052156Z AUTO VRB03KT 10SM FEW028 FEW046 SCT100 16/02 A3010 RMK AO2 SLP185 T01560017,KSMP,2020-05-05T21:56:00Z,47.28,-121.33,15.6,1.7,0,3,,10.0,30.100393,1018.5,,TRUE,TRUE,,,,,,,FEW,2800,FEW,4600,SCT,10000,,,VFR,,,,,,,,,,,,SPECI,1208.0
ETOU 052156Z 01003KT 9999 CLR 09/M01 A3016 RMK A02A WND DATA ESTMD ALSTG ESTMD,ETOU,2020-05-05T21:56:00Z,50.03,8.32,9.0,-1.0,10,3,,6.21,30.159449,,,,TRUE,,,,,,,CLR,,,,,,,,VFR,,,,,,,,,,,,METAR,141.0
MMTP 052156Z 18004KT 1/2SM +RA OVC020CB 22/22 A2985 RMK 8/3// CB OVRHD FQTLTGICCG,MMTP,2020-05-05T21:56:00Z,14.77,-92.37,22.0,22.0,180,4,,0.5,29.84941,,,,,,,,,,+RA,OVC,2000,,,,,,,LIFR,,,,,,,,,,,,METAR,29.0
KGNA 052156Z AUTO 00000KT 04/00 A3009 RMK AO1 SLP198 T00390000,KGNA,2020-05-05T21:56:00Z,47.75,-90.35,3.9,0.0,0,0,,,30.088583,1019.8,,TRUE,TRUE,,,,,,,,,,,,,,,,,,,,,,,,,,,METAR,185.0
K79J 052156Z AUTO 29009KT 10SM FEW060 31/15 A2988 RMK AO2 SLP113 T03110150,K79J,2020-05-05T21:56:00Z,31.32,-86.4,31.1,15.0,290,9,,10.0,29.878937,1011.3,,TRUE,TRUE,,,,,,,FEW,6000,,,,,,,VFR,,,,,,,,,,,,METAR,94.0
PAKU 052156Z 33006KT 10SM R24/P6000FT OVC007 M11/M12 A3015,PAKU,2020-05-05T21:56:00Z,70.32,-149.58,-11.0,-12.0,330,6,,10.0,30.15059,,,,,,,,,,,OVC,700,,,,,,,IFR,,,,,,,,,,,,METAR,2.0
KMUI 052156Z 20007KT 10SM FEW080 BKN130 BKN180 13/M03 A2987 RMK AO2A SLP119 T01321031,KMUI,2020-05-05T21:56:00Z,40.42,-76.57,13.2,-3.1,200,7,,10.0,29.870079,1011.9,,,TRUE,,,,,,,FEW,8000,BKN,13000,BKN,18000,,,VFR,,,,,,,,,,,,METAR,149.0
EGVA 052156Z AUTO 08009KT 9999 CLR 07/00 A3022 RMK AO2 SLP238 T00740001 $,EGVA,2020-05-05T21:56:00Z,51.67,-1.77,7.4,0.1,80,9,,6.21,30.221457,1023.8,,TRUE,TRUE,TRUE,,,,,,CLR,,,,,,,,VFR,,,,,,,,,,,,METAR,87.0
EGUN 052156Z AUTO 07006KT 9999 CLR 06/04 A3027 RMK AO2 SLP254 T00570043 .,EGUN,2020-05-05T21:56:00Z,52.37,0.47,5.7,4.3,70,6,,6.21,30.268702,1025.4,,TRUE,TRUE,,,,,,,CLR,,,,,,,,VFR,,,,,,,,,,,,METAR,10.0
EGUL 052156Z AUTO 05007KT 9999 CLR 03/01 A3028 RMK AO2 SLP258 T00280005 $,EGUL,2020-05-05T21:56:00Z,52.42,0.57,2.8,0.5,50,7,,6.21,30.280512,1025.8,,TRUE,TRUE,TRUE,,,,,,CLR,,,,,,,,VFR,,,,,,,,,,,,METAR,10.0
KBIX 052156Z AUTO 21014KT 10SM CLR 28/21 A2987 RMK AO2 SLP118 T02840209,KBIX,2020-05-05T21:56:00Z,30.42,-88.92,28.4,20.9,210,14,,10.0,29.870079,1011.8,,TRUE,TRUE,,,,,,,CLR,,,,,,,,VFR,,,,,,,,,,,,METAR,10.0
K2DP 052156Z AUTO 04010KT 10SM BKN021 15/09 A2986 RMK AO2 CIG 021V029 SLPNO T01460093 TSNO $,K2DP,2020-05-05T21:56:00Z,35.68,-75.9,14.6,9.3,40,10,,10.0,29.861221,,,TRUE,TRUE,TRUE,,TRUE,,,,BKN,2100,,,,,,,MVFR,,,,,,,,,,,,METAR,3.0
BGTL 052156Z AUTO 15015KT 9999 OVC050 M07/M10 A3009 RMK AO2 SLP177 T10741103 TSNO $,BGTL,2020-05-05T21:56:00Z,76.53,-68.75,-7.4,-10.3,150,15,,6.21,30.088583,1017.7,,TRUE,TRUE,TRUE,,TRUE,,,,OVC,5000,,,,,,,VFR,,,,,,,,,,,,SPECI,77.0
PHHI 052156Z AUTO 09009G17KT 10SM FEW043 26/15 A3008 RMK AO2 SLP176 T02640145 $,PHHI,2020-05-05T21:56:00Z,21.48,-158.05,26.4,14.5,90,9,17,10.0,30.079725,1017.6,,TRUE,TRUE,TRUE,,,,,,FEW,4300,,,,,,,VFR,,,,,,,,,,,,METAR,255.0
PGUA 052156Z 11010KT 10SM BKN012 27/24 A2993 RMK AO2A SLP126 T02740242 PWINO $,PGUA,2020-05-05T21:56:00Z,13.57,144.92,27.4,24.2,110,10,,10.0,29.929134,1012.6,,,TRUE,TRUE,,,,TRUE,,BKN,1200,,,,,,,MVFR,,,,,,,,,,,,SPECI,187.0
KSFO 052156Z 28016KT 10SM FEW028 19/12 A3015 RMK AO2 SLP209 T01940117,KSFO,2020-05-05T21:56:00Z,37.62,-122.37,19.4,11.7,280,16,,10.0,30.15059,1020.9,,,TRUE,,,,,,,FEW,2800,,,,,,,VFR,,,,,,,,,,,,METAR,3.0
ETAR 052156Z AUTO 00000KT 9999 CLR 01/00 A3015 RMK AO2 SLP219 T00140001 FZRANO,ETAR,2020-05-05T21:56:00Z,49.42,7.58,1.4,0.1,0,0,,6.21,30.15059,1021.9,,TRUE,TRUE,,,,TRUE,,,CLR,,,,,,,,VFR,,,,,,,,,,,,SPECI,238.0
ETAD 052156Z AUTO 04007KT 9999 CLR 08/M01 A3015 RMK AO2 SLP206 T00751012,ETAD,2020-05-05T21:56:00Z,49.98,6.7,7.5,-1.2,40,7,,6.21,30.15059,1020.6,,TRUE,TRUE,,,,,,,CLR,,,,,,,,VFR,,,,,,,,,,,,SPECI,365.0
ETEB 052156Z AUTO 06005KT 9999 CLR 05/M01 A3015 RMK AO2 SLP232 T00531012 $,ETEB,2020-05-05T21:56:00Z,49.32,10.62,5.3,-1.2,60,5,,6.21,30.15059,1023.2,,TRUE,TRUE,TRUE,,,,,,CLR,,,,,,,,VFR,,,,,,,,,,,,METAR,467.0
RJTY 052156Z AUTO 00000KT 10SM OVC023 15/10 A2999 RMK AO2 CIG 022 RWY18 SLP157 T01480102 FZRANO $,RJTY,2020-05-05T21:56:00Z,35.75,139.33,14.8,10.2,0,0,,10.0,29.991142,1015.7,,TRUE,TRUE,TRUE,,,TRUE,,,OVC,2300,,,,,,,MVFR,,,,,,,,,,,,METAR,139.0
KSXT 052156Z AUTO VRB04KT 10SM BKN050 18/04 A3012 RMK AO2 SLP170 T01830044,KSXT,2020-05-05T21:56:00Z,42.6,-123.37,18.3,4.4,0,4,,10.0,30.121063,1017.0,,TRUE,TRUE,,,,,,,BKN,5000,,,,,,,VFR,,,,,,,,,,,,SPECI,1170.0
PAVD 052156Z 24006KT 20SM SCT200 SCT250 BKN300 12/M01 A3008,PAVD,2020-05-05T21:56:00Z,61.13,-146.25,12.0,-1.0,240,6,,20.0,30.079725,,,,,,,,,,,SCT,20000,SCT,25000,BKN,30000,,,VFR,,,,,,,,,,,,METAR,37.0
OAJL 052156Z 00000KT 9999 CLR 22/03 A2983 RMK AO2A LTG DSNT NW SLPNO WND DATA ESTMD T02220032,OAJL,2020-05-05T21:56:00Z,34.42,70.47,22.2,3.2,0,0,,6.21,29.828741,,,,TRUE,,,,,,,CLR,,,,,,,,VFR,,,,,,,,,,,,METAR,580.0
PANI 052156Z AUTO VRB04KT 10SM CLR 12/03 A3002 RMK AO2 SLP166 T01220028,PANI,2020-05-05T21:56:00Z,61.58,-159.53,12.2,2.8,0,4,,10.0,30.02067,1016.6,,TRUE,TRUE,,,,,,,CLR,,,,,,,,VFR,,,,,,,,,,,,METAR,21.0
PAMY 052156Z AUTO 29010KT 10SM CLR 02/00 A3007 RMK AO2 SLP183 T00220000 FZRANO,PAMY,2020-05-05T21:56:00Z,60.37,-166.27,2.2,0.0,290,10,,10.0,30.070866,1018.3,,TRUE,TRUE,,,,TRUE,,,CLR,,,,,,,,VFR,,,,,,,,,,,,METAR,13.0
PAMM 052156Z AUTO 10011G17KT 10SM FEW038 SCT055 13/04 A3013 RMK AO2 RAE12 SLP192 P0000 T01330039 $,PAMM,2020-05-05T21:56:00Z,55.13,-131.58,13.3,3.9,100,11,17,10.0,30.129921,1019.2,,TRUE,TRUE,TRUE,,,,,,FEW,3800,SCT,5500,,,,,VFR,,,,,,0.005,,,,,,METAR,1.0
PAMK 052156Z AUTO 34007KT 10SM CLR 08/M01 A3004 RMK AO2 SLP172 T00831011,PAMK,2020-05-05T21:56:00Z,63.48,-162.12,8.3,-1.1,340,7,,10.0,30.041338,1017.2,,TRUE,TRUE,,,,,,,CLR,,,,,,,,VFR,,,,,,,,,,,,METAR,28.0
PAMH 052156Z AUTO VRB04KT 10SM CLR 13/M02 A3001 RMK AO2 SLP161 T01281017,PAMH,2020-05-05T21:56:00Z,63.9,-152.32,12.8,-1.7,0,4,,10.0,30.008858,1016.1,,TRUE,TRUE,,,,,,,CLR,,,,,,,,VFR,,,,,,,,,,,,METAR,214.0
PAMB 052156Z AUTO 08009KT 11/02 A3000 RMK AO2 SLP161 T01110022 PWINO $,PAMB,2020-05-05T21:56:00Z,58.98,-159.05,11.1,2.2,80,9,,,30.0,1016.1,,TRUE,TRUE,TRUE,,,,TRUE,,,,,,,,,,,,,,,,,,,,,,METAR,16.0
PAKK 052156Z AUTO VRB03KT 10SM CLR 10/M03 A3001 RMK AO2 SLP170 T01001033,PAKK,2020-05-05T21:56:00Z,64.93,-161.15,10.0,-3.3,0,3,,10.0,30.008858,1017.0,,TRUE,TRUE,,,,,,,CLR,,,,,,,,VFR,,,,,,,,,,,,METAR,47.0
PAKI 052156Z AUTO 26010KT 10SM CLR 04/01 A3003 RMK AO2 SLP172 T00390006,PAKI,2020-05-05T21:56:00Z,59.93,-164.03,3.9,0.6,260,10,,10.0,30.029528,1017.2,,TRUE,TRUE,,,,,,,CLR,,,,,,,,VFR,,,,,,,,,,,,METAR,4.0
PAKH 052156Z AUTO 10SM BKN035 OVC042 A2986 RMK AO2 RAE41 SLPNO P0000 FZRANO $,PAKH,2020-05-05T21:56:00Z,56.93,-154.18,,,,,,10.0,29.861221,,,TRUE,TRUE,TRUE,,,TRUE,,,BKN,3500,OVC,4200,,,,,VFR,,,,,,0.005,,,,,,METAR,14.0
PAJZ 052156Z AUTO 12012G17KT 7SM FEW045 11/01 A3006 RMK AO2 SLP187 T01110006 $,PAJZ,2020-05-05T21:56:00Z,59.73,-157.27,11.1,0.6,120,12,17,7.0,30.059055,1018.7,,TRUE,TRUE,TRUE,,,,,,FEW,4500,,,,,,,VFR,,,,,,,,,,,,METAR,82.0
PAIW 052156Z AUTO 05018KT 10SM OVC006 M05/M07 A3017 RMK AO2 SLP217 T10501067 FZRANO,PAIW,2020-05-05T21:56:00Z,65.62,-168.1,-5.0,-6.7,50,18,,10.0,30.171259,1021.7,,TRUE,TRUE,,,,TRUE,,,OVC,600,,,,,,,IFR,,,,,,,,,,,,METAR,7.0
PAIN 052156Z AUTO VRB04KT 10SM BKN060 11/M03 A2999 RMK AO2 SLP178 T01111033,PAIN,2020-05-05T21:56:00Z,63.73,-148.92,11.1,-3.3,0,4,,10.0,29.991142,1017.8,,TRUE,TRUE,,,,,,,BKN,6000,,,,,,,VFR,,,,,,,,,,,,METAR,524.0
PAIK 052156Z AUTO VRB04KT 10SM CLR 07/M04 A3009 RMK AO2 SLP193 T00721044,PAIK,2020-05-05T21:56:00Z,66.98,-160.43,7.2,-4.4,0,4,,10.0,30.088583,1019.3,,TRUE,TRUE,,,,,,,CLR,,,,,,,,VFR,,,,,,,,,,,,METAR,51.0
PAII 052156Z AUTO VRB04KT 10SM BKN080 10/04 A2998 RMK AO2 SLP149 T01000039,PAII,2020-05-05T21:56:00Z,58.18,-157.38,10.0,3.9,0,4,,10.0,29.97933,1014.9,,TRUE,TRUE,,,,,,,BKN,8000,,,,,,,VFR,,,,,,,,,,,,METAR,30.0
PAIG 052156Z AUTO 03007KT 10SM SCT120 07/01 A3000 RMK AO2 SLP169 T00720011 $,PAIG,2020-05-05T21:56:00Z,59.32,-155.9,7.2,1.1,30,7,,10.0,30.0,1016.9,,TRUE,TRUE,TRUE,,,,,,SCT,12000,,,,,,,VFR,,,,,,,,,,,,METAR,28.0
PAHL 052156Z AUTO 10004KT 10SM FEW033 OVC046 06/02 A3007 RMK AO2 RAE55 SLP186 P0000 T00610017,PAHL,2020-05-05T21:56:00Z,65.7,-156.35,6.1,1.7,100,4,,10.0,30.070866,1018.6,,TRUE,TRUE,,,,,,,FEW,3300,OVC,4600,,,,,VFR,,,,,,0.005,,,,,,METAR,65.0
PAHC 052156Z AUTO VRB05KT 10SM FEW065 13/02 A3002 RMK AO2 SLP169 T01280022,PAHC,2020-05-05T21:56:00Z,62.18,-159.78,12.8,2.2,0,5,,10.0,30.02067,1016.9,,TRUE,TRUE,,,,,,,FEW,6500,,,,,,,VFR,,,,,,,,,,,,METAR,21.0
PAGS 052156Z AUTO 10006KT 10SM BKN049 BKN060 OVC070 11/03 A3012 RMK AO2 SLP198 T01110033,PAGS,2020-05-05T21:56:00Z,58.42,-135.73,11.1,3.3,100,6,,10.0,30.121063,1019.8,,TRUE,TRUE,,,,,,,BKN,4900,BKN,6000,OVC,7000,,,VFR,,,,,,,,,,,,METAR,9.0
PAGN 052156Z AUTO VRB05KT 10SM FEW037 BKN055 OVC090 09/07 A3014 RMK AO2 RAE56 SLP195 P0002 T00890067,PAGN,2020-05-05T21:56:00Z,57.5,-134.58,8.9,6.7,0,5,,10.0,30.138779,1019.5,,TRUE,TRUE,,,,,,,FEW,3700,BKN,5500,OVC,9000,,,VFR,,,,,,0.02,,,,,,METAR,2.0
PAGM 052156Z AUTO 03013KT 10SM CLR M02/M04 A3016 RMK AO2 SLP220 T10171044 FZRANO,PAGM,2020-05-05T21:56:00Z,63.77,-171.73,-1.7,-4.4,30,13,,10.0,30.159449,1022.0,,TRUE,TRUE,,,,TRUE,,,CLR,,,,,,,,VFR,,,,,,,,,,,,METAR,8.0
PAGL 052156Z AUTO 30004KT 10SM CLR 08/M03 A3005 RMK AO2 SLP170 T00781033,PAGL,2020-05-05T21:56:00Z,64.55,-163.03,7.8,-3.3,300,4,,10.0,30.050198,1017.0,,TRUE,TRUE,,,,,,,CLR,,,,,,,,VFR,,,,,,,,,,,,METAR,8.0
PAGH 052156Z AUTO 11008KT 10SM CLR 07/M01 A3007 RMK AO2 SLP189 T00721006,PAGH,2020-05-05T21:56:00Z,66.88,-157.17,7.2,-0.6,110,8,,10.0,30.070866,1018.9,,TRUE,TRUE,,,,,,,CLR,,,,,,,,VFR,,,,,,,,,,,,METAR,60.0
PAGA 052156Z 25006KT 10SM BKN060 12/M02 A3004 RMK AO2 SLP175 T01221022,PAGA,2020-05-05T21:56:00Z,64.73,-156.93,12.2,-2.2,250,6,,10.0,30.041338,1017.5,,,TRUE,,,,,,,BKN,6000,,,,,,,VFR,,,,,,,,,,,,METAR,46.0
PAFM 052156Z AUTO 00000KT 10SM CLR 07/M06 A3009 RMK AO2 SLP196 T00721056,PAFM,2020-05-05T21:56:00Z,67.1,-157.85,7.2,-5.6,0,0,,10.0,30.088583,1019.6,,TRUE,TRUE,,,,,,,CLR,,,,,,,,VFR,,,,,,,,,,,,METAR,79.0
PAFE 052156Z AUTO 14009KT 10SM FEW025 11/05 A3013 RMK AO2 SLP217 T01060050 $,PAFE,2020-05-05T21:56:00Z,56.97,-133.92,10.6,5.0,140,9,,10.0,30.129921,1021.7,,TRUE,TRUE,TRUE,,,,,,FEW,2500,,,,,,,VFR,,,,,,,,,,,,METAR,9.0
PADU 052156Z 35010KT 10SM A3001 RMK AO2 SLPNO $,PADU,2020-05-05T21:56:00Z,53.9,-166.53,,,350,10,,10.0,30.008858,,,,TRUE,TRUE,,,,,,,,,,,,,,,,,,,,,,,,,,METAR,4.0
PADL 052156Z 01008KT 10SM BKN035 OVC150 11/03 A2999 RMK AO2 SLP160 T01060033,PADL,2020-05-05T21:56:00Z,59.05,-158.5,10.6,3.3,10,8,,10.0,29.991142,1016.0,,,TRUE,,,,,,,BKN,3500,OVC,15000,,,,,VFR,,,,,,,,,,,,METAR,26.0
PADK 052156Z AUTO 11010KT 10SM OVC030 A3015 RMK AO2 SLPNO FZRANO $,PADK,2020-05-05T21:56:00Z,51.88,-176.65,,,110,10,,10.0,30.15059,,,TRUE,TRUE,TRUE,,,TRUE,,,OVC,3000,,,,,,,MVFR,,,,,,,,,,,,METAR,4.0
PACM 052156Z AUTO 27004KT 10SM CLR 05/M01 A3010 RMK AO2 SLP189 T00501006,PACM,2020-05-05T21:56:00Z,61.85,-165.57,5.0,-0.6,270,4,,10.0,30.100393,1018.9,,TRUE,TRUE,,,,,,,CLR,,,,,,,,VFR,,,,,,,,,,,,METAR,4.0
PABV 052156Z AUTO VRB03KT 10SM CLR 13/M01 A3001 RMK AO2 SLP167 T01281006,PABV,2020-05-05T21:56:00Z,61.42,-149.52,12.8,-0.6,0,3,,10.0,30.008858,1016.7,,TRUE,TRUE,,,,,,,CLR,,,,,,,,VFR,,,,,,,,,,,,METAR,29.0
PABL 052156Z AUTO 31012KT 10SM CLR M01/M05 A3009 RMK AO2 SLP192 T10061050 FZRANO,PABL,2020-05-05T21:56:00Z,65.98,-161.15,-0.6,-5.0,310,12,,10.0,30.088583,1019.2,,TRUE,TRUE,,,,TRUE,,,CLR,,,,,,,,VFR,,,,,,,,,,,,METAR,7.0
PAAK 052156Z AUTO 27006KT 10SM OVC039 05/M02 A3016 RMK AO2 SLP213 T00501017 PNO $,PAAK,2020-05-05T21:56:00Z,52.22,-174.2,5.0,-1.7,270,6,,10.0,30.159449,1021.3,,TRUE,TRUE,TRUE,,,,,,OVC,3900,,,,,,,VFR,,,,,,,,,,,,METAR,11.0
KQAZ 052156Z AUTO 09006KT 9999 CLR 31/M07 A2996 RMK AO2 SLP138 WND DATA ESTMD T03111067,KQAZ,2020-05-05T21:56:00Z,,,31.1,-6.7,90,6,,6.21,29.958662,1013.8,,TRUE,TRUE,,,,,,,CLR,,,,,,,,VFR,,,,,,,,,,,,METAR,
PANV 052156Z AUTO 11008KT 10SM CLR 11/02 A3001 RMK AO2 SLP238 T01110017 TSNO,PANV,2020-05-05T21:56:00Z,62.65,-160.18,11.1,1.7,110,8,,10.0,30.008858,1023.8,,TRUE,TRUE,,,TRUE,,,,CLR,,,,,,,,VFR,,,,,,,,,,,,METAR,91.0
PMDY 052156Z AUTO 04010KT 7SM FEW024 OVC044 23/19 A3033 RMK AO2 SLP269 T02330189,PMDY,2020-05-05T21:56:00Z,28.22,-177.37,23.3,18.9,40,10,,7.0,30.33071,1026.9,,TRUE,TRUE,,,,,,,FEW,2400,OVC,4400,,,,,VFR,,,,,,,,,,,,METAR,4.0
PASA 052156Z AUTO 34005KT 10SM CLR M03/M06 A3017 RMK AO2 SLP217 T10281061 FZRANO,PASA,2020-05-05T21:56:00Z,63.68,-170.5,-2.8,-6.1,340,5,,10.0,30.171259,1021.7,,TRUE,TRUE,,,,TRUE,,,CLR,,,,,,,,VFR,,,,,,,,,,,,METAR,16.0
PARY 052156Z AUTO 30005KT 10SM CLR 11/M02 A3002 RMK AO2 SLP176 T01111017,PARY,2020-05-05T21:56:00Z,64.73,-155.47,11.1,-1.7,300,5,,10.0,30.02067,1017.6,,TRUE,TRUE,,,,,,,CLR,,,,,,,,VFR,,,,,,,,,,,,METAR,199.0
PARS 052156Z AUTO VRB03KT 10SM CLR 12/02 A3002 RMK AO2 SLP167 T01170022 $,PARS,2020-05-05T21:56:00Z,61.77,-161.32,11.7,2.2,0,3,,10.0,30.02067,1016.7,,TRUE,TRUE,TRUE,,,,,,CLR,,,,,,,,VFR,,,,,,,,,,,,METAR,16.0
PAPM 052156Z AUTO 31015KT 10SM BKN030 06/03 A3002 RMK AO2 SLP167 T00560028,PAPM,2020-05-05T21:56:00Z,59.02,-161.82,5.6,2.8,310,15,,10.0,30.02067,1016.7,,TRUE,TRUE,,,,,,,BKN,3000,,,,,,,MVFR,,,,,,,,,,,,METAR,5.0
PAPH 052156Z AUTO 36014KT 10SM OVC005 04/03 A2994 RMK AO2 SLP140 T00390028,PAPH,2020-05-05T21:56:00Z,56.95,-158.62,3.9,2.8,360,14,,10.0,29.940945,1014.0,,TRUE,TRUE,,,,,,,OVC,500,,,,,,,IFR,,,,,,,,,,,,METAR,29.0
PAPG 052156Z VRB04KT 10SM -RA FEW021 SCT034 BKN046 11/07 A3014 RMK AO2 RAB31 SLP211 P0001 T01060072,PAPG,2020-05-05T21:56:00Z,56.82,-132.97,10.6,7.2,0,4,,10.0,30.138779,1021.1,,,TRUE,,,,,,-RA,FEW,2100,SCT,3400,BKN,4600,,,VFR,,,,,,0.01,,,,,,METAR,15.0
PAOH 052156Z AUTO 07007KT 030V090 10SM SCT040 BKN050 BKN060 12/03 A3009 RMK AO2 SLP191 T01220033,PAOH,2020-05-05T21:56:00Z,58.1,-135.45,12.2,3.3,70,7,,10.0,30.088583,1019.1,,TRUE,TRUE,,,,,,,SCT,4000,BKN,5000,BKN,6000,,,VFR,,,,,,,,,,,,METAR,9.0
PANW 052156Z AUTO 11008KT 10SM CLR 11/01 A3001 RMK AO2 SLP168 T01060011,PANW,2020-05-05T21:56:00Z,59.45,-157.37,10.6,1.1,110,8,,10.0,30.008858,1016.8,,TRUE,TRUE,,,,,,,CLR,,,,,,,,VFR,,,,,,,,,,,,METAR,92.0
PASD 052156Z 35009KT 10SM -RA FEW018 BKN022 BKN035 05/01 A2990 RMK AO2 RAE02B19 SLP128 T00500011 PNO $,PASD,2020-05-05T21:56:00Z,55.33,-160.5,5.0,1.1,350,9,,10.0,29.899607,1012.8,,,TRUE,TRUE,,,,,-RA,FEW,1800,BKN,2200,BKN,3500,,,MVFR,,,,,,,,,,,,METAR,7.0
PASK 052156Z AUTO 26005KT 10SM CLR 02/M02 A3009 RMK AO2 SLP188 T00221022 FZRANO,PASK,2020-05-05T21:56:00Z,66.6,-160.0,2.2,-2.2,260,5,,10.0,30.088583,1018.8,,TRUE,TRUE,,,,TRUE,,,CLR,,,,,,,,VFR,,,,,,,,,,,,METAR,8.0
PFEL 052156Z AUTO 08007KT 10SM CLR 07/M04 A3004 RMK AO2 SLP175 T00671039,PFEL,2020-05-05T21:56:00Z,64.62,-162.27,6.7,-3.9,80,7,,10.0,30.041338,1017.5,,TRUE,TRUE,,,,,,,CLR,,,,,,,,VFR,,,,,,,,,,,,METAR,49.0
PFKT 052156Z AUTO 04011KT 10SM 04/M08 A3009 RMK AO2 SLP188 T00441078 $,PFKT,2020-05-05T21:56:00Z,65.33,-166.47,4.4,-7.8,40,11,,10.0,30.088583,1018.8,,TRUE,TRUE,TRUE,,,,,,,,,,,,,,,,,,,,,,,,,,METAR,9.0
PFYU 052156Z 29005KT 10SM CLR 12/M04 A3001 RMK AO2 SLP172 T01221039,PFYU,2020-05-05T21:56:00Z,66.57,-145.23,12.2,-3.9,290,5,,10.0,30.008858,1017.2,,,TRUE,,,,,,,CLR,,,,,,,,VFR,,,,,,,,,,,,METAR,131.0
KISO 052156Z 18006KT 10SM BKN036 23/15 A2982,KISO,2020-05-05T21:56:00Z,35.32,-77.62,23.0,15.0,180,6,,10.0,29.819881,,,,,,,,,,,BKN,3600,,,,,,,VFR,,,,,,,,,,,,METAR,29.0
KAWO 052156Z AUTO 30008KT 10SM FEW095 20/12 A3005 RMK AO2 SLP180 T02000117,KAWO,2020-05-05T21:56:00Z,48.17,-122.17,20.0,11.7,300,8,,10.0,30.050198,1018.0,,TRUE,TRUE,,,,,,,FEW,9500,,,,,,,VFR,,,,,,,,,,,,METAR,42.0
PPIZ 052156Z AUTO 06008KT 9SM -SN M09/M13 A3020 RMK AO2 SLP229 P0000 T10891128 FZRANO $,PPIZ,2020-05-05T21:56:00Z,69.73,-163.0,-8.9,-12.8,60,8,,9.0,30.200787,1022.9,,TRUE,TRUE,TRUE,,,TRUE,,-SN,,,,,,,,,,,,,,,0.005,,,,,,METAR,8.0
KQDG 052156Z AUTO 13008G15KT 9999 CLR 11/07 A2996 RMK AO2 SLP147 T01100070,KQDG,2020-05-05T21:56:00Z,,,11.0,7.0,130,8,15,6.21,29.958662,1014.7,,TRUE,TRUE,,,,,,,CLR,,,,,,,,VFR,,,,,,,,,,,,METAR,
KLRF 052156Z AUTO 29008KT 10SM BKN180 BKN200 24/09 A2997 RMK AO2 SLP149 T02430094 $,KLRF,2020-05-05T21:56:00Z,34.92,-92.15,24.3,9.4,290,8,,10.0,29.970472,1014.9,,TRUE,TRUE,TRUE,,,,,,BKN,18000,BKN,20000,,,,,VFR,,,,,,,,,,,,METAR,95.0
KFRI 052156Z AUTO 31011G22KT 10SM CLR 23/01 A3007 RMK AO2 SLP178 T02310014,KFRI,2020-05-05T21:56:00Z,39.03,-96.77,23.1,1.4,310,11,22,10.0,30.070866,1017.8,,TRUE,TRUE,,,,,,,CLR,,,,,,,,VFR,,,,,,,,,,,,METAR,325.0
KEND 052156Z AUTO 01010G16KT 10SM CLR 24/02 A3011 RMK AO2 SLP191 T02390021,KEND,2020-05-05T21:56:00Z,36.32,-97.92,23.9,2.1,10,10,16,10.0,30.109253,1019.1,,TRUE,TRUE,,,,,,,CLR,,,,,,,,VFR,,,,,,,,,,,,METAR,398.0
MUGM 052156Z 12012KT 10SM FEW030 FEW110 BKN250 30/24 A2990 RMK SLP126 CB DSNT NE AND NW SHRA DSNT N-NE T2 SET T03000244,MUGM,2020-05-05T21:56:00Z,19.9,-75.2,30.0,24.4,120,12,,10.0,29.899607,1012.6,,,,,,,,,,FEW,3000,FEW,11000,BKN,25000,,,VFR,,,,,,,,,,,,METAR,17.0
KWRI 052156Z AUTO 33006KT 10SM SCT130 14/M03 A2987 RMK AO2 SLP115 T01401033 $,KWRI,2020-05-05T21:56:00Z,40.02,-74.58,14.0,-3.3,330,6,,10.0,29.870079,1011.5,,TRUE,TRUE,TRUE,,,,,,SCT,13000,,,,,,,VFR,,,,,,,,,,,,METAR,41.0
KVAD 052156Z AUTO 23008KT 10SM SCT055 31/18 A2985 RMK AO2 SLP108 T03070181 $,KVAD,2020-05-05T21:56:00Z,30.97,-83.2,30.7,18.1,230,8,,10.0,29.84941,1010.8,,TRUE,TRUE,TRUE,,,,,,SCT,5500,,,,,,,VFR,,,,,,,,,,,,METAR,71.0
KSSC 052156Z AUTO 18006KT 10SM CLR 30/20 A2975 RMK AO2 SLP074 T03010197 $,KSSC,2020-05-05T21:56:00Z,33.97,-80.47,30.1,19.7,180,6,,10.0,29.749016,1007.4,,TRUE,TRUE,TRUE,,,,,,CLR,,,,,,,,VFR,,,,,,,,,,,,METAR,74.0
KMCF 052156Z AUTO 24007KT 10SM FEW190 28/18 A2995 RMK AO2 SLP145 T02770178 FZRANO $,KMCF,2020-05-05T21:56:00Z,27.85,-82.52,27.7,17.8,240,7,,10.0,29.949802,1014.5,,TRUE,TRUE,TRUE,,,TRUE,,,FEW,19000,,,,,,,VFR,,,,,,,,,,,,METAR,4.0
KHST 052156Z AUTO 14006KT 10SM CLR 30/21 A2992 RMK AO2 SLP135 T02960207,KHST,2020-05-05T21:56:00Z,25.47,-80.37,29.6,20.7,140,6,,10.0,29.920275,1013.5,,TRUE,TRUE,,,,,,,CLR,,,,,,,,VFR,,,,,,,,,,,,METAR,2.0
KCOF 052156Z AUTO 13009KT 10SM CLR 28/22 A2991 RMK AO2 SLP133 T02760223 $,KCOF,2020-05-05T21:56:00Z,28.23,-80.6,27.6,22.3,130,9,,10.0,29.911417,1013.3,,TRUE,TRUE,TRUE,,,,,,CLR,,,,,,,,VFR,,,,,,,,,,,,METAR,3.0
KADW 052156Z AUTO 00000KT 10SM BKN070 14/04 A2987 RMK AO2 SLP122 T01360036 $,KADW,2020-05-05T21:56:00Z,38.82,-76.87,13.6,3.6,0,0,,10.0,29.870079,1012.2,,TRUE,TRUE,TRUE,,,,,,BKN,7000,,,,,,,VFR,,,,,,,,,,,,METAR,86.0
K8D3 052156Z AUTO 36006KT 08/06 A3011 RMK AO1 SLP204 P0002 T00780056,K8D3,2020-05-05T21:56:00Z,45.67,-96.98,7.8,5.6,360,6,,,30.109253,1020.4,,TRUE,TRUE,,,,,,,,,,,,,,,,,,,,,0.02,,,,,,METAR,354.0
RKJK 052156Z AUTO 07004KT 5SM BR CLR 13/13 A2993 RMK AO2 SLP140 T01330133 $,RKJK,2020-05-05T21:56:00Z,35.9,126.62,13.3,13.3,70,4,,5.0,29.929134,1014.0,,TRUE,TRUE,TRUE,,,,,BR,CLR,,,,,,,,MVFR,,,,,,,,,,,,METAR,9.0
PAEI 052156Z 04005KT 10SM FEW060 15/M04 A2998 RMK AO2A SLP158 T01471041 $,PAEI,2020-05-05T21:56:00Z,64.67,-147.1,14.7,-4.1,40,5,,10.0,29.97933,1015.8,,,TRUE,TRUE,,,,,,FEW,6000,,,,,,,VFR,,,,,,,,,,,,METAR,167.0
KVPS 052156Z AUTO 21014G18KT 10SM CLR 28/17 A2989 RMK AO2 SLP128 T02770166 $,KVPS,2020-05-05T21:56:00Z,30.47,-86.52,27.7,16.6,210,14,18,10.0,29.890747,1012.8,,TRUE,TRUE,TRUE,,,,,,CLR,,,,,,,,VFR,,,,,,,,,,,,METAR,26.0
KTTS 052156Z AUTO 12007KT 10SM CLR 28/22 A2991 RMK AO2 SLP133 T02840219 $,KTTS,2020-05-05T21:56:00Z,28.62,-80.72,28.4,21.9,120,7,,10.0,29.911417,1013.3,,TRUE,TRUE,TRUE,,,,,,CLR,,,,,,,,VFR,,,,,,,,,,,,METAR,3.0
KBID 052156Z AUTO 26012G18KT 10SM CLR 12/00 A2985 RMK AO2 SLP108 T01220000,KBID,2020-05-05T21:56:00Z,41.17,-71.58,12.2,0.0,260,12,18,10.0,29.84941,1010.8,,TRUE,TRUE,,,,,,,CLR,,,,,,,,VFR,,,,,,,,,,,,METAR,33.0
KBHB 052156Z AUTO 35008KT 10SM -RA BKN042 09/01 A2975 RMK AO2 RAB53 SLP076 P0000 T00940011,KBHB,2020-05-05T21:56:00Z,44.45,-68.37,9.4,1.1,350,8,,10.0,29.749016,1007.6,,TRUE,TRUE,,,,,,-RA,BKN,4200,,,,,,,VFR,,,,,,0.005,,,,,,METAR,26.0
KBKX 052156Z AUTO 33005KT 10SM -RA BKN017 OVC022 07/07 A3011 RMK AO2 RAE26B44 SLP219 P0000 T00720067,KBKX,2020-05-05T21:56:00Z,44.28,-96.82,7.2,6.7,330,5,,10.0,30.109253,1021.9,,TRUE,TRUE,,,,,,-RA,BKN,1700,OVC,2200,,,,,MVFR,,,,,,0.005,,,,,,METAR,502.0
KBLM 052156Z AUTO 26007KT 10SM CLR 14/M04 A2988 RMK AO2 SLP119 T01441044,KBLM,2020-05-05T21:56:00Z,40.17,-74.12,14.4,-4.4,260,7,,10.0,29.878937,1011.9,,TRUE,TRUE,,,,,,,CLR,,,,,,,,VFR,,,,,,,,,,,,METAR,48.0
KBTP 052156Z AUTO 10008KT 10SM BKN065 13/M03 A2983 RMK AO2 SLP113 T01331033,KBTP,2020-05-05T21:56:00Z,40.77,-79.95,13.3,-3.3,100,8,,10.0,29.828741,1011.3,,TRUE,TRUE,,,,,,,BKN,6500,,,,,,,VFR,,,,,,,,,,,,METAR,380.0
KMQY 052156Z 28013G18KT 10SM SCT035 BKN046 20/13 A2988 RMK AO2 SLP121 T02000133 PNO $,KMQY,2020-05-05T21:56:00Z,36.02,-86.52,20.0,13.3,280,13,18,10.0,29.878937,1012.1,,,TRUE,TRUE,,,,,,SCT,3500,BKN,4600,,,,,VFR,,,,,,,,,,,,METAR,166.0
KMNM 052156Z AUTO 08009KT 10SM CLR 08/M06 A3008 RMK AO2 SLP190 T00781056 $,KMNM,2020-05-05T21:56:00Z,45.12,-87.62,7.8,-5.6,80,9,,10.0,30.079725,1019.0,,TRUE,TRUE,TRUE,,,,,,CLR,,,,,,,,VFR,,,,,,,,,,,,METAR,191.0
KMRF 052156Z AUTO 02014G25KT 10SM CLR 26/04 A3019 RMK AO2 SLP171 T02560039,KMRF,2020-05-05T21:56:00Z,30.37,-104.02,25.6,3.9,20,14,25,10.0,30.188976,1017.1,,TRUE,TRUE,,,,,,,CLR,,,,,,,,VFR,,,,,,,,,,,,METAR,1481.0
KMSV 052156Z AUTO 26006KT 10SM CLR 13/M08 A2986 RMK AO2 SLPNO T01331083,KMSV,2020-05-05T21:56:00Z,41.7,-74.78,13.3,-8.3,260,6,,10.0,29.861221,,,TRUE,TRUE,,,,,,,CLR,,,,,,,,VFR,,,,,,,,,,,,METAR,428.0
KMTW 052156Z AUTO 04007G14KT 10SM CLR 09/M06 A3005 RMK AO2 SLP180 T00891056,KMTW,2020-05-05T21:56:00Z,44.12,-87.67,8.9,-5.6,40,7,14,10.0,30.050198,1018.0,,TRUE,TRUE,,,,,,,CLR,,,,,,,,VFR,,,,,,,,,,,,METAR,198.0
KOWB 052156Z 30016G25KT 10SM BKN019 OVC026 14/10 A2991 RMK AO2 SLP128 T01390100,KOWB,2020-05-05T21:56:00Z,37.72,-87.17,13.9,10.0,300,16,25,10.0,29.911417,1012.8,,,TRUE,,,,,,,BKN,1900,OVC,2600,,,,,MVFR,,,,,,,,,,,,METAR,124.0
KOLU 052156Z AUTO 33020G27KT 10SM FEW070 SCT085 18/02 A3010 RMK AO2 PK WND 33031/2108 SLP194 T01780022,KOLU,2020-05-05T21:56:00Z,41.45,-97.32,17.8,2.2,330,20,27,10.0,30.100393,1019.4,,TRUE,TRUE,,,,,,,FEW,7000,SCT,8500,,,,,VFR,,,,,,,,,,,,METAR,440.0
KOKK 052156Z AUTO 04015G20KT 10SM -RA BKN015 OVC044 06/04 A2991 RMK AO2 SLP130 P0000 T00610044,KOKK,2020-05-05T21:56:00Z,40.53,-86.07,6.1,4.4,40,15,20,10.0,29.911417,1013.0,,TRUE,TRUE,,,,,,-RA,BKN,1500,OVC,4400,,,,,MVFR,,,,,,0.005,,,,,,METAR,253.0
KOCH 052156Z AUTO 35007KT 10SM BKN035 27/19 A2998 RMK AO2 SLP151 T02670194,KOCH,2020-05-05T21:56:00Z,31.57,-94.72,26.7,19.4,350,7,,10.0,29.97933,1015.1,,TRUE,TRUE,,,,,,,BKN,3500,,,,,,,VFR,,,,,,,,,,,,METAR,108.0
KOAJ 052156Z 00000KT 10SM CLR 23/16 A2981 RMK AO2 SLP096 T02330161,KOAJ,2020-05-05T21:56:00Z,34.82,-77.62,23.3,16.1,0,0,,10.0,29.811024,1009.6,,,TRUE,,,,,,,CLR,,,,,,,,VFR,,,,,,,,,,,,METAR,29.0
KMYR 052156Z 10005KT 10SM BKN011 22/19 A2982 RMK AO2 CIG 009V014 SLP097 T02170194,KMYR,2020-05-05T21:56:00Z,33.67,-78.92,21.7,19.4,100,5,,10.0,29.819881,1009.7,,,TRUE,,,,,,,BKN,1100,,,,,,,MVFR,,,,,,,,,,,,METAR,8.0
KGSB 052156Z AUTO 00000KT 10SM CLR 24/15 A2980 RMK AO2 SLP094 T02400147 $,KGSB,2020-05-05T21:56:00Z,35.32,-77.97,24.0,14.7,0,0,,10.0,29.799213,1009.4,,TRUE,TRUE,TRUE,,,,,,CLR,,,,,,,,VFR,,,,,,,,,,,,METAR,33.0
KFSI 052156Z AUTO 06006KT 10SM CLR 25/03 A3011 RMK AO2 SLP190 T02470033 $,KFSI,2020-05-05T21:56:00Z,34.65,-98.4,24.7,3.3,60,6,,10.0,30.109253,1019.0,,TRUE,TRUE,TRUE,,,,,,CLR,,,,,,,,VFR,,,,,,,,,,,,METAR,362.0
KNQI 052156Z 10013G19KT 10SM FEW028 BKN035 BKN250 33/23 A2987 RMK AO2 SLP112 T03280233 $,KNQI,2020-05-05T21:56:00Z,27.5,-97.82,32.8,23.3,100,13,19,10.0,29.870079,1011.2,,,TRUE,TRUE,,,,,,FEW,2800,BKN,3500,BKN,25000,,,VFR,,,,,,,,,,,,METAR,15.0
KPIB 052156Z AUTO 30004KT 10SM FEW042 29/19 A2991 RMK AO2 SLP125 T02890194,KPIB,2020-05-05T21:56:00Z,31.47,-89.32,28.9,19.4,300,4,,10.0,29.911417,1012.5,,TRUE,TRUE,,,,,,,FEW,4200,,,,,,,VFR,,,,,,,,,,,,METAR,91.0
KMMT 052156Z 25007KT 10SM FEW050 SCT110 31/16 A2975 RMK AO2A SLP075 T03090161 $,KMMT,2020-05-05T21:56:00Z,33.92,-80.78,30.9,16.1,250,7,,10.0,29.749016,1007.5,,,TRUE,TRUE,,,,,,FEW,5000,SCT,11000,,,,,VFR,,,,,,,,,,,,METAR,77.0
KDYR 052156Z AUTO 28009KT 10SM FEW039 21/13 A2992 RMK AO2 SLP137 T02110128,KDYR,2020-05-05T21:56:00Z,36.0,-89.4,21.1,12.8,280,9,,10.0,29.920275,1013.7,,TRUE,TRUE,,,,,,,FEW,3900,,,,,,,VFR,,,,,,,,,,,,METAR,103.0
KDVL 052156Z AUTO 01004KT 10SM BKN030 BKN036 OVC080 09/04 A3018 RMK AO2 SLP802 T00940039,KDVL,2020-05-05T21:56:00Z,48.12,-98.92,9.4,3.9,10,4,,10.0,30.180119,980.2,,TRUE,TRUE,,,,,,,BKN,3000,BKN,3600,OVC,8000,,,MVFR,,,,,,,,,,,,METAR,443.0
KDIJ 052156Z AUTO VRB05G14KT 10SM CLR 16/M07 A3032 RMK AO2 SLP247 T01611072,KDIJ,2020-05-05T21:56:00Z,43.75,-111.1,16.1,-7.2,0,5,14,10.0,30.318897,1024.7,,TRUE,TRUE,,,,,,,CLR,,,,,,,,VFR,,,,,,,,,,,,METAR,1899.0
KCWI 052156Z AUTO 10012KT 10SM -RA FEW012 OVC033 08/07 A2998 RMK AO2 SLP159 P0002 T00830067,KCWI,2020-05-05T21:56:00Z,41.82,-90.32,8.3,6.7,100,12,,10.0,29.97933,1015.9,,TRUE,TRUE,,,,,,-RA,FEW,1200,OVC,3300,,,,,VFR,,,,,,0.02,,,,,,METAR,216.0
KCVO 052156Z AUTO 24005KT 10SM SCT060 BKN075 20/12 A3007 RMK AO2 SLP184 T02000122,KCVO,2020-05-05T21:56:00Z,44.5,-123.27,20.0,12.2,240,5,,10.0,30.070866,1018.4,,TRUE,TRUE,,,,,,,SCT,6000,BKN,7500,,,,,VFR,,,,,,,,,,,,METAR,75.0
KCVN 052156Z AUTO 08004KT 10SM CLR 22/M03 A3023 RMK AO2 SLP211 T02171028,KCVN,2020-05-05T21:56:00Z,34.42,-103.07,21.7,-2.8,80,4,,10.0,30.230314,1021.1,,TRUE,TRUE,,,,,,,CLR,,,,,,,,VFR,,,,,,,,,,,,METAR,1284.0
KCOE 052156Z AUTO 05005KT 10SM CLR 21/02 A3012 RMK AO2 SLP215 T02060017,KCOE,2020-05-05T21:56:00Z,47.77,-116.82,20.6,1.7,50,5,,10.0,30.121063,1021.5,,TRUE,TRUE,,,,,,,CLR,,,,,,,,VFR,,,,,,,,,,,,METAR,707.0
KCOD 052156Z AUTO 02013G20KT 10SM FEW095 16/M04 A3025 RMK AO2 SLP244 T01561039,KCOD,2020-05-05T21:56:00Z,44.52,-109.02,15.6,-3.9,20,13,20,10.0,30.250984,1024.4,,TRUE,TRUE,,,,,,,FEW,9500,,,,,,,VFR,,,,,,,,,,,,METAR,1553.0
KNPA 052156Z 21013KT 10SM FEW034 FEW050 SCT250 27/18 A2989 RMK AO2 SLP122 T02720183,KNPA,2020-05-05T21:56:00Z,30.35,-87.32,27.2,18.3,210,13,,10.0,29.890747,1012.2,,,TRUE,,,,,,,FEW,3400,FEW,5000,SCT,25000,,,VFR,,,,,,,,,,,,METAR,9.0
KCIU 052156Z AUTO 36011KT 10SM CLR 09/M07 A3004 RMK AO2 SLP177 T00941072,KCIU,2020-05-05T21:56:00Z,46.25,-84.47,9.4,-7.2,360,11,,10.0,30.041338,1017.7,,TRUE,TRUE,,,,,,,CLR,,,,,,,,VFR,,,,,,,,,,,,METAR,244.0
KCGZ 052156Z AUTO 31009KT 7SM CLR 38/M02 A2988 RMK AO2 SLP102 T03781017,KCGZ,2020-05-05T21:56:00Z,32.95,-111.77,37.8,-1.7,310,9,,7.0,29.878937,1010.2,,TRUE,TRUE,,,,,,,CLR,,,,,,,,VFR,,,,,,,,,,,,METAR,446.0
KBVX 052156Z AUTO 29009G14KT 270V340 10SM CLR 24/07 A2995 RMK AO2 SLP140 T02390072,KBVX,2020-05-05T21:56:00Z,35.73,-91.65,23.9,7.2,290,9,14,10.0,29.949802,1014.0,,TRUE,TRUE,,,,,,,CLR,,,,,,,,VFR,,,,,,,,,,,,METAR,141.0
KEAR 052156Z AUTO 34013G20KT 10SM CLR 19/M01 A3012 RMK AO2 SLP196 T01941011,KEAR,2020-05-05T21:56:00Z,40.72,-99.0,19.4,-1.1,340,13,20,10.0,30.121063,1019.6,,TRUE,TRUE,,,,,,,CLR,,,,,,,,VFR,,,,,,,,,,,,METAR,649.0
KGUS 052156Z 04013KT 10SM -DZ M 05/05 A2990 RMK AO2A SLP132 P0001 T00540054 $,KGUS,2020-05-05T21:56:00Z,40.63,-86.15,5.4,5.4,40,13,,10.0,29.899607,1013.2,,,TRUE,TRUE,,,,,-DZ,,,,,,,,,,,,,,,0.01,,,,,,METAR,247.0
KNXF 052156Z AUTO 28011KT 10SM CLR 24/17 A2994 RMK AO2 SLP223 T02440167 $,KNXF,2020-05-05T21:56:00Z,33.28,-117.45,24.4,16.7,280,11,,10.0,29.940945,1022.3,,TRUE,TRUE,TRUE,,,,,,CLR,,,,,,,,VFR,,,,,,,,,,,,METAR,27.0
KFKL 052156Z AUTO 04004KT 10SM BKN110 15/M08 A2982 RMK AO2 SLP107 T01501078,KFKL,2020-05-05T21:56:00Z,41.37,-79.87,15.0,-7.8,40,4,,10.0,29.819881,1010.7,,TRUE,TRUE,,,,,,,BKN,11000,,,,,,,VFR,,,,,,,,,,,,METAR,469.0
KFCI 052156Z AUTO 14006KT 10SM SCT022 OVC050 14/09 A2989 RMK AO2 SLP132 T01390094,KFCI,2020-05-05T21:56:00Z,37.4,-77.52,13.9,9.4,140,6,,10.0,29.890747,1013.2,,TRUE,TRUE,,,,,,,SCT,2200,OVC,5000,,,,,VFR,,,,,,,,,,,,METAR,72.0
KFAM 052156Z AUTO 30014G24KT 10SM FEW075 21/04 A2992 RMK AO2 PK WND 30026/2110 SLP139 T02060044,KFAM,2020-05-05T21:56:00Z,37.77,-90.42,20.6,4.4,300,14,24,10.0,29.920275,1013.9,,TRUE,TRUE,,,,,,,FEW,7500,,,,,,,VFR,,,,,,,,,,,,METAR,288.0
PFSH 052156Z AUTO 36007KT 10SM CLR 03/01 A3005 RMK AO2 SLP175 T00330006,PFSH,2020-05-05T21:56:00Z,64.37,-161.22,3.3,0.6,360,7,,10.0,30.050198,1017.5,,TRUE,TRUE,,,,,,,CLR,,,,,,,,VFR,,,,,,,,,,,,METAR,7.0
PFNO 052156Z AUTO 23006KT 9SM CLR 06/M03 A3009 RMK AO2 SLP272 T00561033,PFNO,2020-05-05T21:56:00Z,66.82,-161.02,5.6,-3.3,230,6,,9.0,30.088583,1027.2,,TRUE,TRUE,,,,,,,CLR,,,,,,,,VFR,,,,,,,,,,,,METAR,17.0
PFCL 052156Z AUTO 05008G16KT 10SM BKN035 OVC045 11/04 A2999 RMK AO2 SLP149 T01110039 TSNO,PFCL,2020-05-05T21:56:00Z,58.83,-158.53,11.1,3.9,50,8,16,10.0,29.991142,1014.9,,TRUE,TRUE,,,TRUE,,,,BKN,3500,OVC,4500,,,,,VFR,,,,,,,,,,,,METAR,24.0
PAZK 052156Z AUTO 00000KT 10SM CLR 06/M05 A2996 RMK AO2 SLP186 T00611050,PAZK,2020-05-05T21:56:00Z,61.93,-147.17,6.1,-5.0,0,0,,10.0,29.958662,1018.6,,TRUE,TRUE,,,,,,,CLR,,,,,,,,VFR,,,,,,,,,,,,METAR,1003.0
PAWS 052156Z AUTO 06004KT 10SM CLR 14/M01 A3000 RMK AO2 SLP163 T01441011,PAWS,2020-05-05T21:56:00Z,61.57,-149.53,14.4,-1.1,60,4,,10.0,30.0,1016.3,,TRUE,TRUE,,,,,,,CLR,,,,,,,,VFR,,,,,,,,,,,,METAR,107.0
PAWN 052156Z AUTO 32005KT 10SM CLR 03/M06 A3010 RMK AO2 SLP205 T00281061,PAWN,2020-05-05T21:56:00Z,67.57,-162.98,2.8,-6.1,320,5,,10.0,30.100393,1020.5,,TRUE,TRUE,,,,,,,CLR,,,,,,,,VFR,,,,,,,,,,,,METAR,30.0
KEEN 052156Z AUTO 34010G14KT 10SM BKN070 13/M03 A2984 RMK AO2 SLP111 T01331028 $,KEEN,2020-05-05T21:56:00Z,42.88,-72.27,13.3,-2.8,340,10,14,10.0,29.840551,1011.1,,TRUE,TRUE,TRUE,,,,,,BKN,7000,,,,,,,VFR,,,,,,,,,,,,METAR,149.0
KEGE 052156Z 26014KT 10SM CLR 19/M17 A3025 RMK AO2 SLP230 T01941167 PNO $,KEGE,2020-05-05T21:56:00Z,39.63,-106.92,19.4,-16.7,260,14,,10.0,30.250984,1023.0,,,TRUE,TRUE,,,,,,CLR,,,,,,,,VFR,,,,,,,,,,,,METAR,1993.0
KENV 052156Z AUTO 09009KT 10SM CLR 23/M09 A3018 RMK AO2 SLP203 T02281089,KENV,2020-05-05T21:56:00Z,40.72,-114.02,22.8,-8.9,90,9,,10.0,30.180119,1020.3,,TRUE,TRUE,,,,,,,CLR,,,,,,,,VFR,,,,,,,,,,,,METAR,1292.0
KSLE 052156Z 20008KT 10SM SCT085 21/10 A3004 RMK AO2 SLP173 T02110100,KSLE,2020-05-05T21:56:00Z,44.9,-123.0,21.1,10.0,200,8,,10.0,30.041338,1017.3,,,TRUE,,,,,,,SCT,8500,,,,,,,VFR,,,,,,,,,,,,METAR,59.0
KSHV 052156Z 36011KT 10SM FEW045 FEW070 FEW110 SCT200 26/14 A2998 RMK AO2 SLP150 T02610139 $,KSHV,2020-05-05T21:56:00Z,32.45,-93.83,26.1,13.9,360,11,,10.0,29.97933,1015.0,,,TRUE,TRUE,,,,,,FEW,4500,FEW,7000,FEW,11000,SCT,20000,VFR,,,,,,,,,,,,METAR,83.0
K7N0 052156Z AUTO 35005KT 10SM CLR 31/17 A2991 RMK AO2 SLPNO T03110167,K7N0,2020-05-05T21:56:00Z,29.95,-90.07,31.1,16.7,350,5,,10.0,29.911417,,,TRUE,TRUE,,,,,,,CLR,,,,,,,,VFR,,,,,,,,,,,,METAR,0.0
K1M4 052156Z AUTO 33007KT 10SM CLR 21/17 A2990 RMK AO2 SLP508 T02110167 $,K1M4,2020-05-05T21:56:00Z,34.28,-87.6,21.1,16.7,330,7,,10.0,29.899607,1050.8,,TRUE,TRUE,TRUE,,,,,,CLR,,,,,,,,VFR,,,,,,,,,,,,METAR,284.0
KEWK 052156Z AUTO 31011KT 10SM CLR 22/04 A3011 RMK AO2 SLP187 T02220039,KEWK,2020-05-05T21:56:00Z,38.03,-97.27,22.2,3.9,310,11,,10.0,30.109253,1018.7,,TRUE,TRUE,,,,,,,CLR,,,,,,,,VFR,,,,,,,,,,,,METAR,467.0
KEUL 052156Z AUTO 11014G17KT 10SM CLR 27/M02 A3002 RMK AO2 SLP155 T02721017,KEUL,2020-05-05T21:56:00Z,43.62,-116.62,27.2,-1.7,110,14,17,10.0,30.02067,1015.5,,TRUE,TRUE,,,,,,,CLR,,,,,,,,VFR,,,,,,,,,,,,METAR,740.0
KESC 052156Z AUTO 18006KT 10SM CLR 09/M06 A3007 RMK AO2 SLP191 T00891061,KESC,2020-05-05T21:56:00Z,45.75,-87.08,8.9,-6.1,180,6,,10.0,30.070866,1019.1,,TRUE,TRUE,,,,,,,CLR,,,,,,,,VFR,,,,,,,,,,,,METAR,187.0
KADF 052156Z AUTO 34010KT 10SM CLR 24/08 A3001 RMK AO2 SLP161 T02440083,KADF,2020-05-05T21:56:00Z,34.1,-93.07,24.4,8.3,340,10,,10.0,30.008858,1016.1,,TRUE,TRUE,,,,,,,CLR,,,,,,,,VFR,,,,,,,,,,,,METAR,56.0
KMIB 052156Z AUTO 35006KT 10SM CLR 12/03 A3019 RMK AO2 RAE03DZB03E16 SLP237 P0000 T01230033 $,KMIB,2020-05-05T21:56:00Z,48.42,-101.33,12.3,3.3,350,6,,10.0,30.188976,1023.7,,TRUE,TRUE,TRUE,,,,,,CLR,,,,,,,,VFR,,,,,,0.005,,,,,,SPECI,508.0
KLFI 052156Z AUTO 12004KT 10SM OVC041 13/10 A2989 RMK AO2 SLP128 T01320096 $,KLFI,2020-05-05T21:56:00Z,37.07,-76.37,13.2,9.6,120,4,,10.0,29.890747,1012.8,,TRUE,TRUE,TRUE,,,,,,OVC,4100,,,,,,,VFR,,,,,,,,,,,,SPECI,3.0
KAFJ 052156Z AUTO 05004KT FEW050 OVC080 08/03 A2983 RMK AO2 SLP107 P0002 T00830028 PWINO $,KAFJ,2020-05-05T21:56:00Z,40.12,-80.27,8.3,2.8,50,4,,,29.828741,1010.7,,TRUE,TRUE,TRUE,,,,TRUE,,FEW,5000,OVC,8000,,,,,,,,,,,0.02,,,,,,METAR,361.0
KAIZ 052156Z AUTO 28011G23KT 250V310 10SM BKN075 21/05 A2997 RMK AO2 SLP144 T02110050,KAIZ,2020-05-05T21:56:00Z,38.1,-92.53,21.1,5.0,280,11,23,10.0,29.970472,1014.4,,TRUE,TRUE,,,,,,,BKN,7500,,,,,,,VFR,,,,,,,,,,,,METAR,265.0
KAJO 052156Z AUTO 28013G17KT 10SM CLR 34/14 A2992 RMK AO2 SLP126 T03390144,KAJO,2020-05-05T21:56:00Z,33.9,-117.6,33.9,14.4,280,13,17,10.0,29.920275,1012.6,,TRUE,TRUE,,,,,,,CLR,,,,,,,,VFR,,,,,,,,,,,,METAR,163.0
KARG 052156Z AUTO 32018G23KT 10SM CLR 24/08 A2991 RMK AO2 SLP128 T02440078,KARG,2020-05-05T21:56:00Z,36.12,-90.92,24.4,7.8,320,18,23,10.0,29.911417,1012.8,,TRUE,TRUE,,,,,,,CLR,,,,,,,,VFR,,,,,,,,,,,,METAR,83.0
KASH 052156Z 35009G18KT 10SM SCT065 13/M02 A2985 RMK AO2 SLP112 T01331022,KASH,2020-05-05T21:56:00Z,42.78,-71.52,13.3,-2.2,350,9,18,10.0,29.84941,1011.2,,,TRUE,,,,,,,SCT,6500,,,,,,,VFR,,,,,,,,,,,,METAR,61.0
KSFZ 052156Z AUTO 34009KT 10SM FEW075 14/M02 A2982 RMK AO2 SLP045 T01441022,KSFZ,2020-05-05T21:56:00Z,41.92,-71.5,14.4,-2.2,340,9,,10.0,29.819881,1004.5,,TRUE,TRUE,,,,,,,FEW,7500,,,,,,,VFR,,,,,,,,,,,,METAR,134.0
KAUO 052156Z AUTO 26009KT 10SM FEW047 27/18 A2988 RMK AO2 SLP131 T02720178 $,KAUO,2020-05-05T21:56:00Z,32.62,-85.43,27.2,17.8,260,9,,10.0,29.878937,1013.1,,TRUE,TRUE,TRUE,,,,,,FEW,4700,,,,,,,VFR,,,,,,,,,,,,METAR,231.0
KSGH 052156Z AUTO 03014KT 10SM OVC039 09/01 A2982 RMK AO2 SLP104 T00940011,KSGH,2020-05-05T21:56:00Z,39.83,-83.83,9.4,1.1,30,14,,10.0,29.819881,1010.4,,TRUE,TRUE,,,,,,,OVC,3900,,,,,,,VFR,,,,,,,,,,,,METAR,321.0
KNGP 052156Z 12014KT 7SM SCT011 BKN030 29/26 A2989 RMK AO2 SLP122 T02940256,KNGP,2020-05-05T21:56:00Z,27.68,-97.27,29.4,25.6,120,14,,7.0,29.890747,1012.2,,,TRUE,,,,,,,SCT,1100,BKN,3000,,,,,MVFR,,,,,,,,,,,,METAR,6.0
KNMM 052156Z 31007KT 10SM BKN024 BKN034 OVC043 25/20 A2992 RMK AO2 SLP138 T02500200,KNMM,2020-05-05T21:56:00Z,32.53,-88.57,25.0,20.0,310,7,,10.0,29.920275,1013.8,,,TRUE,,,,,,,BKN,2400,BKN,3400,OVC,4300,,,MVFR,,,,,,,,,,,,METAR,97.0
KQRH 052156Z AUTO 00000KT 9999 FEW018 BKN021 BKN044 30/26 A2994 RMK AO2 CIG 021V049 SLP141 WND DATA ESTMD T03000261,KQRH,2020-05-05T21:56:00Z,,,30.0,26.1,0,0,,6.21,29.940945,1014.1,,TRUE,TRUE,,,,,,,FEW,1800,BKN,2100,BKN,4400,,,MVFR,,,,,,,,,,,,METAR,
KQND 052156Z AUTO VRB04KT 1200 HZ CLR 35/00 A2985 RMK AO2 SLP089 WND DATA ESTMD T03520002,KQND,2020-05-05T21:56:00Z,,,35.2,0.2,0,4,,0.75,29.84941,1008.9,,TRUE,TRUE,,,,,,HZ,CLR,,,,,,,,LIFR,,,,,,,,,,,,METAR,
KQHY 052156Z AUTO 25005KT 10SM CLR 27/18 A2990 RMK AO2 SLP131 T02660182,KQHY,2020-05-05T21:56:00Z,,,26.6,18.2,250,5,,10.0,29.899607,1013.1,,TRUE,TRUE,,,,,,,CLR,,,,,,,,VFR,,,,,,,,,,,,METAR,
KQD3 052156Z AUTO VRB04KT 9999 FEW026 30/26 A2983 RMK AO2 SLP086 WND DATA ESTMD T02970258,KQD3,2020-05-05T21:56:00Z,,,29.7,25.8,0,4,,6.21,29.828741,1008.6,,TRUE,TRUE,,,,,,,FEW,2600,,,,,,,VFR,,,,,,,,,,,,METAR,
KSMN 052156Z AUTO 36003KT 10SM CLR 20/M04 A3017 RMK AO2 SLP216 T02001039,KSMN,2020-05-05T21:56:00Z,45.12,-113.87,20.0,-3.9,360,3,,10.0,30.171259,1021.6,,TRUE,TRUE,,,,,,,CLR,,,,,,,,VFR,,,,,,,,,,,,METAR,1233.0
KSLG 052156Z AUTO 32014KT 10SM CLR 21/06 A3007 RMK AO2 SLP178 P0003 T02110056 TSNO $,KSLG,2020-05-05T21:56:00Z,36.2,-94.47,21.1,5.6,320,14,,10.0,30.070866,1017.8,,TRUE,TRUE,TRUE,,TRUE,,,,CLR,,,,,,,,VFR,,,,,,0.03,,,,,,METAR,300.0
KSKX 052156Z AUTO 22013G19KT 10SM FEW090 21/M02 A3025 RMK AO2 PK WND 22026/2145 SLP191 T02111017,KSKX,2020-05-05T21:56:00Z,36.45,-105.67,21.1,-1.7,220,13,19,10.0,30.250984,1019.1,,TRUE,TRUE,,,,,,,FEW,9000,,,,,,,VFR,,,,,,,,,,,,METAR,2161.0
KSGU 052156Z AUTO 00000KT 10SM CLR 31/M08 A3004 RMK AO2 SLP143 T03061078,KSGU,2020-05-05T21:56:00Z,37.07,-113.52,30.6,-7.8,0,0,,10.0,30.041338,1014.3,,TRUE,TRUE,,,,,,,CLR,,,,,,,,VFR,,,,,,,,,,,,METAR,896.0
KSGT 052156Z AUTO 32008KT 10SM CLR 24/12 A2998 RMK AO2 SLP150 T02390117,KSGT,2020-05-05T21:56:00Z,34.6,-91.57,23.9,11.7,320,8,,10.0,29.97933,1015.0,,TRUE,TRUE,,,,,,,CLR,,,,,,,,VFR,,,,,,,,,,,,METAR,68.0
KSGJ 052156Z 23010KT 190V250 10SM FEW050 31/19 A2989 RMK AO2 SLPNO T03110189 $,KSGJ,2020-05-05T21:56:00Z,29.97,-81.32,31.1,18.9,230,10,,10.0,29.890747,,,,TRUE,TRUE,,,,,,FEW,5000,,,,,,,VFR,,,,,,,,,,,,METAR,3.0
KSOP 052156Z AUTO 15003KT 10SM SCT033 23/16 A2980 RMK AO2 SLP091 T02330161 PNO $,KSOP,2020-05-05T21:56:00Z,35.22,-79.4,23.3,16.1,150,3,,10.0,29.799213,1009.1,,TRUE,TRUE,TRUE,,,,,,SCT,3300,,,,,,,VFR,,,,,,,,,,,,METAR,141.0
KSUE 052156Z AUTO 01004KT 10SM CLR 09/M03 A3007 RMK AO2 SLP186 T00891033,KSUE,2020-05-05T21:56:00Z,44.85,-87.42,8.9,-3.3,10,4,,10.0,30.070866,1018.6,,TRUE,TRUE,,,,,,,CLR,,,,,,,,VFR,,,,,,,,,,,,METAR,221.0
KSRC 052156Z AUTO VRB06KT 10SM CLR 25/07 A2996 RMK AO2 SLP142 T02500072,KSRC,2020-05-05T21:56:00Z,35.22,-91.73,25.0,7.2,0,6,,10.0,29.958662,1014.2,,TRUE,TRUE,,,,,,,CLR,,,,,,,,VFR,,,,,,,,,,,,METAR,80.0
KTVF 052156Z AUTO 01006KT 10SM FEW047 OVC070 12/01 A3013 RMK AO2 RAB20E33 SLP212 P0000 T01220006,KTVF,2020-05-05T21:56:00Z,48.07,-96.17,12.2,0.6,10,6,,10.0,30.129921,1021.2,,TRUE,TRUE,,,,,,,FEW,4700,OVC,7000,,,,,VFR,,,,,,0.005,,,,,,METAR,340.0
KUCP 052156Z AUTO 07009KT 10SM FEW070 OVC100 14/M04 A2983 RMK AO2 SLP120 T01391044 PNO $,KUCP,2020-05-05T21:56:00Z,41.03,-80.42,13.9,-4.4,70,9,,10.0,29.828741,1012.0,,TRUE,TRUE,TRUE,,,,,,FEW,7000,OVC,10000,,,,,VFR,,,,,,,,,,,,METAR,327.0
KUDG 052156Z AUTO 08008KT 8SM CLR 27/21 A2976 RMK AO2 SLP077 T02670206,KUDG,2020-05-05T21:56:00Z,34.45,-79.88,26.7,20.6,80,8,,8.0,29.760826,1007.7,,TRUE,TRUE,,,,,,,CLR,,,,,,,,VFR,,,,,,,,,,,,METAR,59.0
KHDN 052156Z AUTO 26012KT 10SM CLR 16/M08 A3031 RMK AO2 SLP237 T01561078,KHDN,2020-05-05T21:56:00Z,40.47,-107.22,15.6,-7.8,260,12,,10.0,30.31004,1023.7,,TRUE,TRUE,,,,,,,CLR,,,,,,,,VFR,,,,,,,,,,,,METAR,2012.0
KHEF 052156Z AUTO 18003KT 10SM -RA OVC060 12/06 A2988 RMK AO2 RAB50 SLP126 P0000 T01220061,KHEF,2020-05-05T21:56:00Z,38.72,-77.52,12.2,6.1,180,3,,10.0,29.878937,1012.6,,TRUE,TRUE,,,,,,-RA,OVC,6000,,,,,,,VFR,,,,,,0.005,,,,,,METAR,59.0
KHEZ 052156Z AUTO 33005KT 10SM CLR 26/21 A2993 RMK AO2 RAB44E56 SLP134 P0000 T02610206,KHEZ,2020-05-05T21:56:00Z,31.62,-91.3,26.1,20.6,330,5,,10.0,29.929134,1013.4,,TRUE,TRUE,,,,,,,CLR,,,,,,,,VFR,,,,,,0.005,,,,,,METAR,83.0
KHYS 052156Z AUTO 31014G17KT 10SM FEW100 23/00 A3011 RMK AO2 SLP194 T02330000,KHYS,2020-05-05T21:56:00Z,38.85,-99.27,23.3,0.0,310,14,17,10.0,30.109253,1019.4,,TRUE,TRUE,,,,,,,FEW,10000,,,,,,,VFR,,,,,,,,,,,,METAR,609.0
KHYI 052156Z 02018G22KT 10SM OVC037 26/17 A3000 RMK AO2 SLP150 T02560172,KHYI,2020-05-05T21:56:00Z,29.88,-97.87,25.6,17.2,20,18,22,10.0,30.0,1015.0,,,TRUE,,,,,,,OVC,3700,,,,,,,VFR,,,,,,,,,,,,METAR,182.0
PAWM 052156Z AUTO 34007KT 10SM CLR 09/M04 A3003 RMK AO2 SLP173 T00891039 PNO $,PAWM,2020-05-05T21:56:00Z,64.68,-163.42,8.9,-3.9,340,7,,10.0,30.029528,1017.3,,TRUE,TRUE,TRUE,,,,,,CLR,,,,,,,,VFR,,,,,,,,,,,,METAR,82.0
PAWG 052156Z 15003KT 10SM BKN045 BKN070 13/04 A3014 RMK AO2 RAE26 SLP206 P0000 T01280039 $,PAWG,2020-05-05T21:56:00Z,56.48,-132.37,12.8,3.9,150,3,,10.0,30.138779,1020.6,,,TRUE,TRUE,,,,,,BKN,4500,BKN,7000,,,,,VFR,,,,,,0.005,,,,,,METAR,11.0
PAVC 052156Z AUTO 13005KT 10SM CLR 07/M04 A2992 RMK AO2 SLP132 T00671039,PAVC,2020-05-05T21:56:00Z,55.12,-162.27,6.7,-3.9,130,5,,10.0,29.920275,1013.2,,TRUE,TRUE,,,,,,,CLR,,,,,,,,VFR,,,,,,,,,,,,METAR,47.0
PAVA 052156Z AUTO 03008KT 10SM CLR 08/M04 A3006 RMK AO2 SLP183 T00831039 PNO $,PAVA,2020-05-05T21:56:00Z,61.53,-165.6,8.3,-3.9,30,8,,10.0,30.059055,1018.3,,TRUE,TRUE,TRUE,,,,,,CLR,,,,,,,,VFR,,,,,,,,,,,,METAR,23.0
PAUN 052156Z AUTO 32006KT 10SM BKN080 07/00 A3004 RMK AO2 SLP174 T00720000,PAUN,2020-05-05T21:56:00Z,63.88,-160.8,7.2,0.0,320,6,,10.0,30.041338,1017.4,,TRUE,TRUE,,,,,,,BKN,8000,,,,,,,VFR,,,,,,,,,,,,METAR,6.0
PATQ 052156Z AUTO 02005KT 7SM -SN OVC006 M08/M13 A3019 RMK AO2 SLP229 P0000 T10831128 FZRANO TSNO,PATQ,2020-05-05T21:56:00Z,70.47,-157.43,-8.3,-12.8,20,5,,7.0,30.188976,1022.9,,TRUE,TRUE,,,TRUE,TRUE,,-SN,OVC,600,,,,,,,IFR,,,,,,0.005,,,,,,METAR,29.0
PATG 052156Z AUTO 19004KT 10SM OVC047 10/04 A3002 RMK AO2 SLP260 T01000044,PATG,2020-05-05T21:56:00Z,59.05,-160.38,10.0,4.4,190,4,,10.0,30.02067,1026.0,,TRUE,TRUE,,,,,,,OVC,4700,,,,,,,VFR,,,,,,,,,,,,METAR,4.0
PATE 052156Z AUTO 02007KT 10SM CLR 03/M07 A3006 RMK AO2 SLP187 T00331067,PATE,2020-05-05T21:56:00Z,65.23,-166.33,3.3,-6.7,20,7,,10.0,30.059055,1018.7,,TRUE,TRUE,,,,,,,CLR,,,,,,,,VFR,,,,,,,,,,,,METAR,90.0
PASX 052156Z AUTO 02007KT 340V050 10SM CLR 13/00 A3002 RMK AO2 SLP174 T01280000,PASX,2020-05-05T21:56:00Z,60.48,-151.03,12.8,0.0,20,7,,10.0,30.02067,1017.4,,TRUE,TRUE,,,,,,,CLR,,,,,,,,VFR,,,,,,,,,,,,METAR,32.0
PASM 052156Z AUTO 01006KT 10SM OVC085 11/M05 A3005 RMK AO2 SLP182 T01061050,PASM,2020-05-05T21:56:00Z,62.07,-163.3,10.6,-5.0,10,6,,10.0,30.050198,1018.2,,TRUE,TRUE,,,,,,,OVC,8500,,,,,,,VFR,,,,,,,,,,,,METAR,92.0
PASL 052156Z AUTO 16006KT 10SM CLR 12/01 A3007 RMK AO2 SLP176 T01220006,PASL,2020-05-05T21:56:00Z,61.72,-157.15,12.2,0.6,160,6,,10.0,30.070866,1017.6,,TRUE,TRUE,,,,,,,CLR,,,,,,,,VFR,,,,,,,,,,,,METAR,55.0
KSZL 052156Z 30012G20KT 10SM SCT090 21/01 A2992 RMK AO2A PK WND 29030/18 SLP132 T02100013 $,KSZL,2020-05-05T21:56:00Z,38.72,-93.53,21.0,1.3,300,12,20,10.0,29.920275,1013.2,,,TRUE,TRUE,,,,,,SCT,9000,,,,,,,VFR,,,,,,,,,,,,METAR,265.0
KSVN 052156Z AUTO 26010KT 10SM CLR 32/16 A2979 RMK AO2 SLP091 T03200159 $,KSVN,2020-05-05T21:56:00Z,32.02,-81.15,32.0,15.9,260,10,,10.0,29.790354,1009.1,,TRUE,TRUE,TRUE,,,,,,CLR,,,,,,,,VFR,,,,,,,,,,,,METAR,13.0
KRND 052156Z AUTO 03015KT 10SM CLR 29/18 A2995 RMK AO2 SLP134 T02890183 $,KRND,2020-05-05T21:56:00Z,29.52,-98.27,28.9,18.3,30,15,,10.0,29.949802,1013.4,,TRUE,TRUE,TRUE,,,,,,CLR,,,,,,,,VFR,,,,,,,,,,,,METAR,232.0
KPOB 052156Z AUTO 21005KT 10SM FEW035 24/16 A2979 RMK AO2 SLP089 T02400157,KPOB,2020-05-05T21:56:00Z,35.17,-79.02,24.0,15.7,210,5,,10.0,29.790354,1008.9,,TRUE,TRUE,,,,,,,FEW,3500,,,,,,,VFR,,,,,,,,,,,,METAR,66.0
KMXF 052156Z AUTO 25008KT 10SM SCT048 29/18 A2986 RMK AO2 SLP113 T02870178 $,KMXF,2020-05-05T21:56:00Z,32.37,-86.37,28.7,17.8,250,8,,10.0,29.861221,1011.3,,TRUE,TRUE,TRUE,,,,,,SCT,4800,,,,,,,VFR,,,,,,,,,,,,METAR,51.0
KJRB 052156Z AUTO VRB04KT 10SM CLR 18/M06 A2985 RMK AO2 SLP109 T01831056,KJRB,2020-05-05T21:56:00Z,40.7,-74.02,18.3,-5.6,0,4,,10.0,29.84941,1010.9,,TRUE,TRUE,,,,,,,CLR,,,,,,,,VFR,,,,,,,,,,,,METAR,7.0
KJHW 052156Z AUTO 03010KT 10SM CLR 09/M04 A2988 RMK AO2 SLP132 T00941039,KJHW,2020-05-05T21:56:00Z,42.13,-79.27,9.4,-3.9,30,10,,10.0,29.878937,1013.2,,TRUE,TRUE,,,,,,,CLR,,,,,,,,VFR,,,,,,,,,,,,METAR,525.0
KJAC 052156Z 32007G16KT 280V360 10SM CLR 15/M09 A3030 RMK AO2 SLP256 T01501089,KJAC,2020-05-05T21:56:00Z,43.62,-110.73,15.0,-8.9,320,7,16,10.0,30.301182,1025.6,,,TRUE,,,,,,,CLR,,,,,,,,VFR,,,,,,,,,,,,METAR,1961.0
KIWD 052156Z AUTO 34008KT 10SM CLR 10/M08 A3006 RMK AO2 SLP191 T01001083,KIWD,2020-05-05T21:56:00Z,46.52,-90.12,10.0,-8.3,340,8,,10.0,30.059055,1019.1,,TRUE,TRUE,,,,,,,CLR,,,,,,,,VFR,,,,,,,,,,,,METAR,375.0
KITH 052156Z 35007KT 10SM CLR 09/M06 A2993 RMK AO2 SLP144 T00941061,KITH,2020-05-05T21:56:00Z,42.47,-76.45,9.4,-6.1,350,7,,10.0,29.929134,1014.4,,,TRUE,,,,,,,CLR,,,,,,,,VFR,,,,,,,,,,,,METAR,335.0
KISP 052156Z 31006KT 10SM FEW150 FEW250 16/M09 A2985 RMK SLP106 T01611089,KISP,2020-05-05T21:56:00Z,40.8,-73.1,16.1,-8.9,310,6,,10.0,29.84941,1010.6,,,,,,,,,,FEW,15000,FEW,25000,,,,,VFR,,,,,,,,,,,,METAR,43.0
KILE 052156Z AUTO 02015G19KT 10SM BKN095 26/12 A3004 RMK AO2 SLP159 T02610122,KILE,2020-05-05T21:56:00Z,31.07,-97.67,26.1,12.2,20,15,19,10.0,30.041338,1015.9,,TRUE,TRUE,,,,,,,BKN,9500,,,,,,,VFR,,,,,,,,,,,,METAR,258.0
KSDF 052156Z 31008KT 10SM OVC013 12/10 A2986 RMK AO2 DZE50 SLP110 P0000 T01220100,KSDF,2020-05-05T21:56:00Z,38.18,-85.73,12.2,10.0,310,8,,10.0,29.861221,1011.0,,,TRUE,,,,,,,OVC,1300,,,,,,,MVFR,,,,,,0.005,,,,,,METAR,146.0
KKLS 052156Z AUTO 17008KT 130V190 10SM FEW085 23/09 A3003 RMK AO2 SLP173 P0001 T02280089,KKLS,2020-05-05T21:56:00Z,46.12,-122.9,22.8,8.9,170,8,,10.0,30.029528,1017.3,,TRUE,TRUE,,,,,,,FEW,8500,,,,,,,VFR,,,,,,0.01,,,,,,METAR,5.0
KLBL 052156Z AUTO 36009KT 10SM CLR 24/M03 A3017 RMK AO2 SLP197 T02391033,KLBL,2020-05-05T21:56:00Z,37.03,-100.97,23.9,-3.3,360,9,,10.0,30.171259,1019.7,,TRUE,TRUE,,,,,,,CLR,,,,,,,,VFR,,,,,,,,,,,,METAR,879.0
KLNR 052156Z AUTO 05008KT 10SM FEW036 OVC095 12/03 A3001 RMK AO2 SLP159 T01170033,KLNR,2020-05-05T21:56:00Z,43.22,-90.18,11.7,3.3,50,8,,10.0,30.008858,1015.9,,TRUE,TRUE,,,,,,,FEW,3600,OVC,9500,,,,,VFR,,,,,,,,,,,,METAR,217.0
KLCI 052156Z AUTO 33011G20KT 10SM CLR 09/M02 A2987 RMK AO2 SLP118 T00891017,KLCI,2020-05-05T21:56:00Z,43.57,-71.42,8.9,-1.7,330,11,20,10.0,29.870079,1011.8,,TRUE,TRUE,,,,,,,CLR,,,,,,,,VFR,,,,,,,,,,,,METAR,166.0
KLEW 052156Z AUTO 31014G19KT 10SM FEW065 10/M01 A2982 RMK AO2 SLP106 T01001006,KLEW,2020-05-05T21:56:00Z,44.03,-70.27,10.0,-0.6,310,14,19,10.0,29.819881,1010.6,,TRUE,TRUE,,,,,,,FEW,6500,,,,,,,VFR,,,,,,,,,,,,METAR,88.0
KSBP 052156Z 33021KT 10SM CLR 23/09 A3002 RMK AO2 PK WND 32026/2114 SLP164 T02280089,KSBP,2020-05-05T21:56:00Z,35.23,-120.63,22.8,8.9,330,21,,10.0,30.02067,1016.4,,,TRUE,,,,,,,CLR,,,,,,,,VFR,,,,,,,,,,,,METAR,59.0
KRDM 052156Z 35004KT 10SM FEW120 24/M02 A3002 RMK AO2 SLP154 T02391022,KRDM,2020-05-05T21:56:00Z,44.25,-121.15,23.9,-2.2,350,4,,10.0,30.02067,1015.4,,,TRUE,,,,,,,FEW,12000,,,,,,,VFR,,,,,,,,,,,,METAR,938.0
KM19 052156Z AUTO 30014KT 10SM CLR 23/10 A2993 RMK AO2 SLP132 T02330100 PNO $,KM19,2020-05-05T21:56:00Z,35.65,-91.17,23.3,10.0,300,14,,10.0,29.929134,1013.2,,TRUE,TRUE,TRUE,,,,,,CLR,,,,,,,,VFR,,,,,,,,,,,,METAR,73.0
KLZU 052156Z 23015G20KT 10SM FEW041 27/18 A2981 RMK AO2 SLP094 T02720183,KLZU,2020-05-05T21:56:00Z,33.98,-83.97,27.2,18.3,230,15,20,10.0,29.811024,1009.4,,,TRUE,,,,,,,FEW,4100,,,,,,,VFR,,,,,,,,,,,,METAR,323.0
KLRD 052156Z 07012G18KT 10SM FEW065 37/21 A2984 RMK AO2 SLP099 T03670211,KLRD,2020-05-05T21:56:00Z,27.55,-99.47,36.7,21.1,70,12,18,10.0,29.840551,1009.9,,,TRUE,,,,,,,FEW,6500,,,,,,,VFR,,,,,,,,,,,,METAR,155.0
KLPC 052156Z AUTO 28016KT 6SM HZ CLR 20/09 A3004 RMK AO2 SLP174 T02000094,KLPC,2020-05-05T21:56:00Z,34.67,-120.47,20.0,9.4,280,16,,6.0,30.041338,1017.4,,TRUE,TRUE,,,,,,HZ,CLR,,,,,,,,VFR,,,,,,,,,,,,METAR,27.0
KLGD 052156Z AUTO 14016G22KT 10SM CLR 25/M02 A3004 RMK AO2 SLP163 T02501017,KLGD,2020-05-05T21:56:00Z,45.27,-118.0,25.0,-1.7,140,16,22,10.0,30.041338,1016.3,,TRUE,TRUE,,,,,,,CLR,,,,,,,,VFR,,,,,,,,,,,,METAR,827.0
KMJX 052156Z AUTO 29007KT 10SM CLR 14/M04 A2988 RMK AO2 SLP122 T01441039,KMJX,2020-05-05T21:56:00Z,39.93,-74.3,14.4,-3.9,290,7,,10.0,29.878937,1012.2,,TRUE,TRUE,,,,,,,CLR,,,,,,,,VFR,,,,,,,,,,,,METAR,25.0
KMBL 052156Z AUTO VRB05KT 10SM CLR 11/M01 A2999 RMK AO2 SLP160 T01061006,KMBL,2020-05-05T21:56:00Z,44.27,-86.25,10.6,-0.6,0,5,,10.0,29.991142,1016.0,,TRUE,TRUE,,,,,,,CLR,,,,,,,,VFR,,,,,,,,,,,,METAR,189.0
KMKT 052156Z AUTO 11010KT 10SM OVC065 12/00 A3006 RMK AO2 SLP184 T01220000,KMKT,2020-05-05T21:56:00Z,44.22,-93.92,12.2,0.0,110,10,,10.0,30.059055,1018.4,,TRUE,TRUE,,,,,,,OVC,6500,,,,,,,VFR,,,,,,,,,,,,METAR,311.0
KMKY 052156Z AUTO 27007KT 10SM CLR A2994 RMK AO2 SLPNO FZRANO TSNO $,KMKY,2020-05-05T21:56:00Z,26.0,-81.67,,,270,7,,10.0,29.940945,,,TRUE,TRUE,TRUE,,TRUE,TRUE,,,CLR,,,,,,,,VFR,,,,,,,,,,,,METAR,2.0
KVIS 052156Z AUTO VRB05KT 10SM CLR 30/06 A3003 RMK AO2 SLP175 T03000056,KVIS,2020-05-05T21:56:00Z,36.32,-119.4,30.0,5.6,0,5,,10.0,30.029528,1017.5,,TRUE,TRUE,,,,,,,CLR,,,,,,,,VFR,,,,,,,,,,,,METAR,89.0
KVBT 052156Z AUTO 34011G23KT 10SM CLR 21/03 A3007 RMK AO2 SLP180 T02110033 TSNO,KVBT,2020-05-05T21:56:00Z,36.35,-94.22,21.1,3.3,340,11,23,10.0,30.070866,1018.0,,TRUE,TRUE,,,TRUE,,,,CLR,,,,,,,,VFR,,,,,,,,,,,,METAR,395.0
KGDV 052156Z AUTO 36014G21KT 10SM BKN060 BKN075 OVC085 12/03 A3023 RMK AO2 SLP246 T01220033,KGDV,2020-05-05T21:56:00Z,47.12,-104.78,12.2,3.3,360,14,21,10.0,30.230314,1024.6,,TRUE,TRUE,,,,,,,BKN,6000,BKN,7500,OVC,8500,,,VFR,,,,,,,,,,,,METAR,749.0
KGBD 052156Z AUTO 31009G18KT 10SM CLR 23/01 A3012 RMK AO2 SLP194 T02280011,KGBD,2020-05-05T21:56:00Z,38.35,-98.87,22.8,1.1,310,9,18,10.0,30.121063,1019.4,,TRUE,TRUE,,,,,,,CLR,,,,,,,,VFR,,,,,,,,,,,,METAR,575.0
KGAI 052156Z AUTO 00000KT 10SM OVC080 13/02 A2988 RMK AO2 SLPNO T01280017,KGAI,2020-05-05T21:56:00Z,39.17,-77.17,12.8,1.7,0,0,,10.0,29.878937,,,TRUE,TRUE,,,,,,,OVC,8000,,,,,,,VFR,,,,,,,,,,,,METAR,165.0
KGAD 052156Z AUTO 24011KT 10SM -RA OVC022 23/20 RMK AO2 LTG DSNT NE RAB43 SLPNO P0000 T02280200 $,KGAD,2020-05-05T21:56:00Z,33.97,-86.07,22.8,20.0,240,11,,10.0,,,,TRUE,TRUE,TRUE,,,,,-RA,OVC,2200,,,,,,,MVFR,,,,,,0.005,,,,,,METAR,173.0
KFRM 052156Z AUTO 36010KT 10SM OVC065 11/04 A3006 RMK AO2 SLP187 T01110044,KFRM,2020-05-05T21:56:00Z,43.63,-94.42,11.1,4.4,360,10,,10.0,30.059055,1018.7,,TRUE,TRUE,,,,,,,OVC,6500,,,,,,,VFR,,,,,,,,,,,,METAR,354.0
KFOD 052156Z AUTO 02007KT 10SM SCT014 BKN018 OVC034 08/06 A3005 RMK AO2 RAE32 SLP207 P0001 T00830056,KFOD,2020-05-05T21:56:00Z,42.53,-94.17,8.3,5.6,20,7,,10.0,30.050198,1020.7,,TRUE,TRUE,,,,,,,SCT,1400,BKN,1800,OVC,3400,,,MVFR,,,,,,0.01,,,,,,METAR,355.0
KFNL 052156Z 00000KT 10SM CLR 20/M06 A3018 RMK AO2 SLP190 T02001056,KFNL,2020-05-05T21:56:00Z,40.45,-105.02,20.0,-5.6,0,0,,10.0,30.180119,1019.0,,,TRUE,,,,,,,CLR,,,,,,,,VFR,,,,,,,,,,,,METAR,1529.0
KFLP 052156Z AUTO 32014G20KT 290V350 10SM CLR 23/05 A2999 RMK AO2 SLP149 T02280050,KFLP,2020-05-05T21:56:00Z,36.28,-92.58,22.8,5.0,320,14,20,10.0,29.991142,1014.9,,TRUE,TRUE,,,,,,,CLR,,,,,,,,VFR,,,,,,,,,,,,METAR,219.0
KYKN 052156Z AUTO 34015G21KT 10SM SCT036 BKN046 14/06 A3012 RMK AO2 SLP214 T01440056,KYKN,2020-05-05T21:56:00Z,42.92,-97.37,14.4,5.6,340,15,21,10.0,30.121063,1021.4,,TRUE,TRUE,,,,,,,SCT,3600,BKN,4600,,,,,VFR,,,,,,,,,,,,METAR,398.0
KY50 052156Z AUTO 11007KT 10SM CLR 12/M02 A3002 RMK AO2 SLP167 T01221017 $,KY50,2020-05-05T21:56:00Z,44.03,-89.3,12.2,-1.7,110,7,,10.0,30.02067,1016.7,,TRUE,TRUE,TRUE,,,,,,CLR,,,,,,,,VFR,,,,,,,,,,,,METAR,262.0
KWWD 052156Z AUTO 20008KT 10SM OVC110 14/04 A2990 RMK AO2 SLP127 T01390044,KWWD,2020-05-05T21:56:00Z,39.02,-74.92,13.9,4.4,200,8,,10.0,29.899607,1012.7,,TRUE,TRUE,,,,,,,OVC,11000,,,,,,,VFR,,,,,,,,,,,,METAR,7.0
KWVL 052156Z AUTO 34011G17KT 10SM SCT041 BKN055 BKN075 09/02 A2977 RMK AO2 SLP109 T00940017,KWVL,2020-05-05T21:56:00Z,44.52,-69.67,9.4,1.7,340,11,17,10.0,29.769686,1010.9,,TRUE,TRUE,,,,,,,SCT,4100,BKN,5500,BKN,7500,,,VFR,,,,,,,,,,,,METAR,101.0
KGPZ 052156Z AUTO 00000KT 10SM CLR 13/M02 A3007 RMK AO2 SLP194 T01331017,KGPZ,2020-05-05T21:56:00Z,47.22,-93.52,13.3,-1.7,0,0,,10.0,30.070866,1019.4,,TRUE,TRUE,,,,,,,CLR,,,,,,,,VFR,,,,,,,,,,,,METAR,413.0
KGTU 052156Z 02009KT 10SM OVC044 25/13 A3004 RMK AO2 SLP167 T02500128,KGTU,2020-05-05T21:56:00Z,30.68,-97.68,25.0,12.8,20,9,,10.0,30.041338,1016.7,,,TRUE,,,,,,,OVC,4400,,,,,,,VFR,,,,,,,,,,,,METAR,240.0
KGUC 052156Z AUTO 26013G24KT 10SM CLR 18/M18 A3028 RMK AO2 SLP217 T01781178,KGUC,2020-05-05T21:56:00Z,38.52,-106.92,17.8,-17.8,260,13,24,10.0,30.280512,1021.7,,TRUE,TRUE,,,,,,,CLR,,,,,,,,VFR,,,,,,,,,,,,METAR,2339.0
KGVQ 052156Z AUTO VRB04KT 10SM CLR 08/M12 A2995 RMK AO2 SLP148 T00831122,KGVQ,2020-05-05T21:56:00Z,43.03,-78.17,8.3,-12.2,0,4,,10.0,29.949802,1014.8,,TRUE,TRUE,,,,,,,CLR,,,,,,,,VFR,,,,,,,,,,,,METAR,278.0
KGXY 052156Z 32009KT 10SM CLR 21/M04 A3016 RMK AO2 SLP206 T02111039,KGXY,2020-05-05T21:56:00Z,40.42,-104.62,21.1,-3.9,320,9,,10.0,30.159449,1020.6,,,TRUE,,,,,,,CLR,,,,,,,,VFR,,,,,,,,,,,,METAR,1420.0
KPRX 052156Z AUTO 35008KT 10SM CLR 24/10 A3007 RMK AO2 SLP189 T02390100,KPRX,2020-05-05T21:56:00Z,33.62,-95.45,23.9,10.0,350,8,,10.0,30.070866,1018.9,,TRUE,TRUE,,,,,,,CLR,,,,,,,,VFR,,,,,,,,,,,,METAR,167.0
KPTV 052156Z AUTO 34007KT 10SM CLR 30/06 A3004 RMK AO2 SLP169 T03000056,KPTV,2020-05-05T21:56:00Z,36.02,-119.07,30.0,5.6,340,7,,10.0,30.041338,1016.9,,TRUE,TRUE,,,,,,,CLR,,,,,,,,VFR,,,,,,,,,,,,METAR,135.0
KPTN 052156Z AUTO 19007KT 10SM FEW040 BKN050 BKN060 28/22 A2991 RMK AO2 SLP129 T02780222,KPTN,2020-05-05T21:56:00Z,29.72,-91.32,27.8,22.2,190,7,,10.0,29.911417,1012.9,,TRUE,TRUE,,,,,,,FEW,4000,BKN,5000,BKN,6000,,,VFR,,,,,,,,,,,,METAR,3.0
KPVC 052156Z AUTO 04005KT RMK AO2 SLPNO PWINO FZRANO PNO $,KPVC,2020-05-05T21:56:00Z,42.07,-70.22,,,40,5,,,,,,TRUE,TRUE,TRUE,,,TRUE,TRUE,,,,,,,,,,,,,,,,,,,,,,METAR,2.0
KSPD 052156Z AUTO VRB03G16KT 22/M04 A3016 RMK AO1 SLP171 T02171044,KSPD,2020-05-05T21:56:00Z,37.28,-102.62,21.7,-4.4,0,3,16,,30.159449,1017.1,,TRUE,TRUE,,,,,,,,,,,,,,,,,,,,,,,,,,,METAR,1335.0
KD07 052156Z AUTO 36013KT 12/02 A3018 RMK AO1 SLP238 T01170022,KD07,2020-05-05T21:56:00Z,45.03,-102.02,11.7,2.2,360,13,,,30.180119,1023.8,,TRUE,TRUE,,,,,,,,,,,,,,,,,,,,,,,,,,,METAR,784.0
KNLC 052156Z 35012G17KT 10SM FEW240 31/M01 A3004 RMK AO2 SLP170 RH/12 T03111011,KNLC,2020-05-05T21:56:00Z,36.32,-119.95,31.1,-1.1,350,12,17,10.0,30.041338,1017.0,,,TRUE,,,,,,,FEW,24000,,,,,,,VFR,,,,,,,,,,,,METAR,72.0
KALK 052156Z AUTO 24013G16KT 10SM CLR 33/M06 A3010 RMK AO2 SLP094 T03281056,KALK,2020-05-05T21:56:00Z,31.6,-110.43,32.8,-5.6,240,13,16,10.0,30.100393,1009.4,,TRUE,TRUE,,,,,,,CLR,,,,,,,,VFR,,,,,,,,,,,,METAR,1453.0
PHBK 052156Z AUTO 29009KT 10SM CLR 27/19 A3007 RMK AO2 SLP184 T02720194,PHBK,2020-05-05T21:56:00Z,22.03,-159.78,27.2,19.4,290,9,,10.0,30.070866,1018.4,,TRUE,TRUE,,,,,,,CLR,,,,,,,,VFR,,,,,,,,,,,,METAR,8.0
KNRS 052156Z 26012KT 10SM CLR 23/17 A2995 RMK AO2 SLP140 T02280167 $,KNRS,2020-05-05T21:56:00Z,32.57,-117.12,22.8,16.7,260,12,,10.0,29.949802,1014.0,,,TRUE,TRUE,,,,,,CLR,,,,,,,,VFR,,,,,,,,,,,,METAR,7.0
KGNR 052156Z AUTO 34013G20KT 05/M01 A2976 RMK AO1 PK WND 33028/2057 SLP092 T00501011,KGNR,2020-05-05T21:56:00Z,45.47,-69.55,5.0,-1.1,340,13,20,,29.760826,1009.2,,TRUE,TRUE,,,,,,,,,,,,,,,,,,,,,,,,,,,METAR,427.0
KNSE 052156Z VRB06KT 10SM SCT050 SCT250 31/15 A2987 RMK AO2 SLP101 T03110150,KNSE,2020-05-05T21:56:00Z,30.73,-87.02,31.1,15.0,0,6,,10.0,29.870079,1010.1,,,TRUE,,,,,,,SCT,5000,SCT,25000,,,,,VFR,,,,,,,,,,,,METAR,61.0
KNOG 052156Z AUTO 10013G18KT 10SM SCT047 A2988 RMK AO2 SLPNO TSNO PNO,KNOG,2020-05-05T21:56:00Z,27.9,-98.05,,,100,13,18,10.0,29.878937,,,TRUE,TRUE,,,TRUE,,,,SCT,4700,,,,,,,VFR,,,,,,,,,,,,METAR,78.0
KNXP 052156Z AUTO 00000KT 10SM CLR 34/M11 A3004 RMK AO2 SLP136 T03391111,KNXP,2020-05-05T21:56:00Z,34.28,-116.17,33.9,-11.1,0,0,,10.0,30.041338,1013.6,,TRUE,TRUE,,,,,,,CLR,,,,,,,,VFR,,,,,,,,,,,,METAR,626.0
KNFL 052156Z VRB05KT 10SM FEW080 FEW150 SCT200 BKN250 28/M16 A3007 RMK AO2 SLP150 CONTRAILS ALQDS T02781161,KNFL,2020-05-05T21:56:00Z,39.42,-118.7,27.8,-16.1,0,5,,10.0,30.070866,1015.0,,,TRUE,,,,,,,FEW,8000,FEW,15000,SCT,20000,BKN,25000,VFR,,,,,,,,,,,,METAR,1199.0
K2WX 052156Z AUTO 33012KT 09/02 A3021 RMK AO1 PK WND 33044/2057 WSHFT 2047 SLP250 T00890017,K2WX,2020-05-05T21:56:00Z,45.6,-103.55,8.9,1.7,330,12,,,30.209646,1025.0,,TRUE,TRUE,,,,,,,,,,,,,,,,,,,,,,,,,,,METAR,915.0
KNUW 052156Z 28006KT 10SM FEW035 SCT085 SCT130 BKN250 14/09 A3010 RMK AO2 SLP192 T01440089,KNUW,2020-05-05T21:56:00Z,48.35,-122.65,14.4,8.9,280,6,,10.0,30.100393,1019.2,,,TRUE,,,,,,,FEW,3500,SCT,8500,SCT,13000,BKN,25000,VFR,,,,,,,,,,,,METAR,14.0
KP28 052156Z AUTO 36009KT 25/M01 A3011 RMK AO1 SLP186 T02501006,KP28,2020-05-05T21:56:00Z,37.28,-98.55,25.0,-0.6,360,9,,,30.109253,1018.6,,TRUE,TRUE,,,,,,,,,,,,,,,,,,,,,,,,,,,METAR,469.0
KNFE 052156Z AUTO 04003KT 10SM BKN035 OVC042 13/06 A2990 RMK AO2 SLP126 T01330056,KNFE,2020-05-05T21:56:00Z,36.7,-76.13,13.3,5.6,40,3,,10.0,29.899607,1012.6,,TRUE,TRUE,,,,,,,BKN,3500,OVC,4200,,,,,VFR,,,,,,,,,,,,METAR,5.0
KNYG 052156Z AUTO 00000KT 10SM OVC060 12/04 A2990 RMK AO2 RAB24E35 SLP125 P0000 T01220044,KNYG,2020-05-05T21:56:00Z,38.5,-77.28,12.2,4.4,0,0,,10.0,29.899607,1012.5,,TRUE,TRUE,,,,,,,OVC,6000,,,,,,,VFR,,,,,,0.005,,,,,,METAR,4.0
KP60 052156Z AUTO 00000KT 07/M07 A3036 RMK AO1 SLP272 T00721067,KP60,2020-05-05T21:56:00Z,44.55,-110.42,7.2,-6.7,0,0,,,30.360237,1027.2,,TRUE,TRUE,,,,,,,,,,,,,,,,,,,,,,,,,,,METAR,2388.0
KP53 052156Z AUTO 04009KT 03/ A3008 RMK AO1 SLP195 T0033 $,KP53,2020-05-05T21:56:00Z,46.42,-86.65,3.3,,40,9,,,30.079725,1019.5,,TRUE,TRUE,TRUE,,,,,,,,,,,,,,,,,,,,,,,,,,METAR,187.0
KNBC 052156Z 23012KT 10SM CLR 31/16 A2980 RMK AO2 SLP090 T03110161,KNBC,2020-05-05T21:56:00Z,32.47,-80.72,31.1,16.1,230,12,,10.0,29.799213,1009.0,,,TRUE,,,,,,,CLR,,,,,,,,VFR,,,,,,,,,,,,METAR,12.0
KNCA 052156Z 17010KT 10SM BKN039 23/16 A2981 RMK AO2 SLP095 T02280161 $,KNCA,2020-05-05T21:56:00Z,34.72,-77.45,22.8,16.1,170,10,,10.0,29.811024,1009.5,,,TRUE,TRUE,,,,,,BKN,3900,,,,,,,VFR,,,,,,,,,,,,METAR,8.0
KNUC 052156Z 27008KT 10SM FEW200 21/14 A2999 RMK AO2 SLP152 T02110139 $,KNUC,2020-05-05T21:56:00Z,33.02,-118.57,21.1,13.9,270,8,,10.0,29.991142,1015.2,,,TRUE,TRUE,,,,,,FEW,20000,,,,,,,VFR,,,,,,,,,,,,METAR,55.0
KNTU 052156Z VRB05KT 10SM BKN038 OVC100 12/07 A2989 RMK AO2 SLP123 T01220067,KNTU,2020-05-05T21:56:00Z,36.82,-76.02,12.2,6.7,0,5,,10.0,29.890747,1012.3,,,TRUE,,,,,,,BKN,3800,OVC,10000,,,,,VFR,,,,,,,,,,,,METAR,7.0
KNID 052156Z 18009KT 10SM SCT300 34/M07 A2999 RMK AO2 SLP136 T03441067 PNO $,KNID,2020-05-05T21:56:00Z,35.67,-117.67,34.4,-6.7,180,9,,10.0,29.991142,1013.6,,,TRUE,TRUE,,,,,,SCT,30000,,,,,,,VFR,,,,,,,,,,,,METAR,696.0
KMHS 052156Z AUTO VRB03KT 10SM CLR 22/M01 A3009 RMK AO2 SLP193 T02171006,KMHS,2020-05-05T21:56:00Z,41.32,-122.32,21.7,-0.6,0,3,,10.0,30.088583,1019.3,,TRUE,TRUE,,,,,,,CLR,,,,,,,,VFR,,,,,,,,,,,,METAR,1078.0
KMEH 052156Z AUTO VRB04KT 10SM BKN100 21/04 A3007 RMK AO2 SLP178 T02060039,KMEH,2020-05-05T21:56:00Z,45.52,-118.42,20.6,3.9,0,4,,10.0,30.070866,1017.8,,TRUE,TRUE,,,,,,,BKN,10000,,,,,,,VFR,,,,,,,,,,,,METAR,1136.0
KSFM 052156Z AUTO 34013G17KT 10SM FEW055 12/M01 A2983 RMK AO2 SLP104 T01171011,KSFM,2020-05-05T21:56:00Z,43.38,-70.72,11.7,-1.1,340,13,17,10.0,29.828741,1010.4,,TRUE,TRUE,,,,,,,FEW,5500,,,,,,,VFR,,,,,,,,,,,,METAR,74.0
KSDY 052156Z AUTO 01009KT 10SM BKN060 15/01 A3021 RMK AO2 SLP619 T01500006,KSDY,2020-05-05T21:56:00Z,47.7,-104.2,15.0,0.6,10,9,,10.0,30.209646,961.9,,TRUE,TRUE,,,,,,,BKN,6000,,,,,,,VFR,,,,,,,,,,,,METAR,605.0
KRUT 052156Z AUTO 33008KT 10SM CLR 11/M02 A2988 RMK AO2 SLP116 T01061022 $,KRUT,2020-05-05T21:56:00Z,43.52,-72.95,10.6,-2.2,330,8,,10.0,29.878937,1011.6,,TRUE,TRUE,TRUE,,,,,,CLR,,,,,,,,VFR,,,,,,,,,,,,METAR,240.0
KRKD 052156Z AUTO 32007KT 280V360 10SM FEW060 BKN075 OVC090 12/M01 A2976 RMK AO2 SLP077 T01171011,KRKD,2020-05-05T21:56:00Z,44.07,-69.08,11.7,-1.1,320,7,,10.0,29.760826,1007.7,,TRUE,TRUE,,,,,,,FEW,6000,BKN,7500,OVC,9000,,,VFR,,,,,,,,,,,,METAR,17.0
KPWT 052156Z AUTO 23008KT 10SM FEW055 20/08 A3006 RMK AO2 SLP181 T02000078,KPWT,2020-05-05T21:56:00Z,47.5,-122.75,20.0,7.8,230,8,,10.0,30.059055,1018.1,,TRUE,TRUE,,,,,,,FEW,5500,,,,,,,VFR,,,,,,,,,,,,METAR,147.0
KPWG 052156Z AUTO 36011KT 10SM SCT100 26/12 A3004 RMK AO2 SLP167 T02610122 $,KPWG,2020-05-05T21:56:00Z,31.47,-97.32,26.1,12.2,360,11,,10.0,30.041338,1016.7,,TRUE,TRUE,TRUE,,,,,,SCT,10000,,,,,,,VFR,,,,,,,,,,,,METAR,180.0
KPVU 052156Z 29004KT 10SM CLR 21/M08 A3023 RMK AO2 SLP208 T02111083,KPVU,2020-05-05T21:56:00Z,40.22,-111.72,21.1,-8.3,290,4,,10.0,30.230314,1020.8,,,TRUE,,,,,,,CLR,,,,,,,,VFR,,,,,,,,,,,,METAR,1369.0
KPVG 052156Z AUTO 06003KT 10SM BKN039 OVC050 14/08 A2990 RMK AO2 SLP125 T01440078 PNO $,KPVG,2020-05-05T21:56:00Z,36.78,-76.45,14.4,7.8,60,3,,10.0,29.899607,1012.5,,TRUE,TRUE,TRUE,,,,,,BKN,3900,OVC,5000,,,,,VFR,,,,,,,,,,,,METAR,7.0
KTPH 052156Z AUTO 23013G21KT 10SM CLR 27/M16 A3015 RMK AO2 SLP158 T02671156,KTPH,2020-05-05T21:56:00Z,38.05,-117.08,26.7,-15.6,230,13,21,10.0,30.15059,1015.8,,TRUE,TRUE,,,,,,,CLR,,,,,,,,VFR,,,,,,,,,,,,METAR,1652.0
KUKI 052156Z AUTO 26009KT 230V290 10SM SCT060 25/09 A3009 RMK AO2 SLP185 T02500094,KUKI,2020-05-05T21:56:00Z,39.12,-123.2,25.0,9.4,260,9,,10.0,30.088583,1018.5,,TRUE,TRUE,,,,,,,SCT,6000,,,,,,,VFR,,,,,,,,,,,,METAR,187.0
KWMC 052156Z AUTO 28007KT 10SM CLR 27/M14 A3007 RMK AO2 SLP158 T02671144,KWMC,2020-05-05T21:56:00Z,40.9,-117.8,26.7,-14.4,280,7,,10.0,30.070866,1015.8,,TRUE,TRUE,,,,,,,CLR,,,,,,,,VFR,,,,,,,,,,,,METAR,1310.0
KWJF 052156Z 32008KT 10SM CLR 33/M03 A3002 RMK AO2 SLP151 T03331033,KWJF,2020-05-05T21:56:00Z,34.72,-118.22,33.3,-3.3,320,8,,10.0,30.02067,1015.1,,,TRUE,,,,,,,CLR,,,,,,,,VFR,,,,,,,,,,,,METAR,715.0
KVPZ 052156Z AUTO 05007KT 10SM BKN047 OVC060 08/03 A2995 RMK AO2 RAB07E55 SLP145 P0000 T00780028,KVPZ,2020-05-05T21:56:00Z,41.45,-87.0,7.8,2.8,50,7,,10.0,29.949802,1014.5,,TRUE,TRUE,,,,,,,BKN,4700,OVC,6000,,,,,VFR,,,,,,0.005,,,,,,METAR,231.0
TJSJ 052156Z 09014KT 10SM FEW037 SCT060 SCT100 29/23 A2993 RMK AO2 SLP135 T02890228,TJSJ,2020-05-05T21:56:00Z,18.43,-66.02,28.9,22.8,90,14,,10.0,29.929134,1013.5,,,TRUE,,,,,,,FEW,3700,SCT,6000,SCT,10000,,,VFR,,,,,,,,,,,,METAR,21.0
KHPN 052156Z 29009KT 10SM CLR 16/M09 A2984 RMK AO2 SLP104 T01561094,KHPN,2020-05-05T21:56:00Z,41.07,-73.7,15.6,-9.4,290,9,,10.0,29.840551,1010.4,,,TRUE,,,,,,,CLR,,,,,,,,VFR,,,,,,,,,,,,METAR,121.0
KHWV 052156Z AUTO 30008KT 10SM CLR 16/M07 A2986 RMK AO2 RAB2059E32 SLP110 P0000 T01611067 TSNO,KHWV,2020-05-05T21:56:00Z,40.82,-72.87,16.1,-6.7,300,8,,10.0,29.861221,1011.0,,TRUE,TRUE,,,TRUE,,,,CLR,,,,,,,,VFR,,,,,,0.005,,,,,,METAR,21.0
KHYA 052156Z 34003KT 10SM BKN075 13/M02 A2983 RMK AO2 SLP102 T01281017,KHYA,2020-05-05T21:56:00Z,41.67,-70.27,12.8,-1.7,340,3,,10.0,29.828741,1010.2,,,TRUE,,,,,,,BKN,7500,,,,,,,VFR,,,,,,,,,,,,METAR,22.0
KJMS 052156Z AUTO 36012KT 10SM -RA FEW014 BKN027 OVC038 08/06 A3014 RMK AO2 SLP220 P0000 T00780061,KJMS,2020-05-05T21:56:00Z,46.93,-98.67,7.8,6.1,360,12,,10.0,30.138779,1022.0,,TRUE,TRUE,,,,,,-RA,FEW,1400,BKN,2700,OVC,3800,,,MVFR,,,,,,0.005,,,,,,METAR,455.0
KJAX 052156Z 24008KT 10SM FEW250 32/18 A2985 RMK AO2 SLP109 T03170178,KJAX,2020-05-05T21:56:00Z,30.5,-81.68,31.7,17.8,240,8,,10.0,29.84941,1010.9,,,TRUE,,,,,,,FEW,25000,,,,,,,VFR,,,,,,,,,,,,METAR,10.0
KINW 052156Z AUTO VRB06KT 10SM CLR 29/M05 A3013 RMK AO2 SLP143 T02891050,KINW,2020-05-05T21:56:00Z,35.03,-110.72,28.9,-5.0,0,6,,10.0,30.129921,1014.3,,TRUE,TRUE,,,,,,,CLR,,,,,,,,VFR,,,,,,,,,,,,METAR,1490.0
KJXN 052156Z 36006KT 10SM OVC070 10/M06 A2994 RMK AO2 SLP142 T01001061,KJXN,2020-05-05T21:56:00Z,42.27,-84.47,10.0,-6.1,360,6,,10.0,29.940945,1014.2,,,TRUE,,,,,,,OVC,7000,,,,,,,VFR,,,,,,,,,,,,METAR,305.0
KLAS 052156Z VRB03KT 10SM FEW250 32/M09 A3000 RMK AO2 SLP137 T03171094 $,KLAS,2020-05-05T21:56:00Z,36.07,-115.17,31.7,-9.4,0,3,,10.0,30.0,1013.7,,,TRUE,TRUE,,,,,,FEW,25000,,,,,,,VFR,,,,,,,,,,,,METAR,636.0
KLWS 052156Z 02008KT 10SM CLR 26/03 A3002 RMK AO2 SLP163 T02610028,KLWS,2020-05-05T21:56:00Z,46.37,-117.02,26.1,2.8,20,8,,10.0,30.02067,1016.3,,,TRUE,,,,,,,CLR,,,,,,,,VFR,,,,,,,,,,,,METAR,438.0
KMDT 052156Z 25007KT 10SM FEW060 BKN080 BKN120 OVC200 13/M02 A2987 RMK AO2 SLP116 T01281022,KMDT,2020-05-05T21:56:00Z,40.2,-76.77,12.8,-2.2,250,7,,10.0,29.870079,1011.6,,,TRUE,,,,,,,FEW,6000,BKN,8000,BKN,12000,OVC,20000,VFR,,,,,,,,,,,,METAR,95.0
KMOB 052156Z 33006KT 10SM FEW055 SCT250 29/16 A2989 RMK AO2 SLP118 T02940161,KMOB,2020-05-05T21:56:00Z,30.68,-88.25,29.4,16.1,330,6,,10.0,29.890747,1011.8,,,TRUE,,,,,,,FEW,5500,SCT,25000,,,,,VFR,,,,,,,,,,,,METAR,63.0
KDIK 052156Z AUTO 04011KT 10SM FEW045 14/01 A3018 RMK AO2 SLP233 T01390011,KDIK,2020-05-05T21:56:00Z,46.8,-102.8,13.9,1.1,40,11,,10.0,30.180119,1023.3,,TRUE,TRUE,,,,,,,FEW,4500,,,,,,,VFR,,,,,,,,,,,,METAR,788.0
KDAY 052156Z 03014KT 10SM OVC050 09/00 A2985 RMK AO2 SLP108 T00940000,KDAY,2020-05-05T21:56:00Z,39.9,-84.22,9.4,0.0,30,14,,10.0,29.84941,1010.8,,,TRUE,,,,,,,OVC,5000,,,,,,,VFR,,,,,,,,,,,,METAR,305.0
KCXY 052156Z 00000KT 10SM BKN100 13/M02 A2988 RMK AO2 SLP119 T01331022,KCXY,2020-05-05T21:56:00Z,40.22,-76.85,13.3,-2.2,0,0,,10.0,29.878937,1011.9,,,TRUE,,,,,,,BKN,10000,,,,,,,VFR,,,,,,,,,,,,METAR,106.0
KCTB 052156Z AUTO 00000KT 10SM CLR 15/M08 A3023 RMK AO2 SLP246 T01501078,KCTB,2020-05-05T21:56:00Z,48.6,-112.37,15.0,-7.8,0,0,,10.0,30.230314,1024.6,,TRUE,TRUE,,,,,,,CLR,,,,,,,,VFR,,,,,,,,,,,,METAR,1175.0
KCHS 052156Z 18014KT 10SM FEW150 SCT250 28/20 A2979 RMK AO2 SLP085 T02830200,KCHS,2020-05-05T21:56:00Z,32.9,-80.03,28.3,20.0,180,14,,10.0,29.790354,1008.5,,,TRUE,,,,,,,FEW,15000,SCT,25000,,,,,VFR,,,,,,,,,,,,METAR,13.0
KCAE 052156Z 24013KT 10SM FEW065 SCT200 31/16 A2974 RMK AO2 SLP067 T03060156,KCAE,2020-05-05T21:56:00Z,33.93,-81.12,30.6,15.6,240,13,,10.0,29.740158,1006.7,,,TRUE,,,,,,,FEW,6500,SCT,20000,,,,,VFR,,,,,,,,,,,,METAR,70.0
KBZN 052156Z VRB03KT 10SM CLR 17/M04 A3024 RMK AO2 SLP239 T01721039,KBZN,2020-05-05T21:56:00Z,45.78,-111.17,17.2,-3.9,0,3,,10.0,30.239174,1023.9,,,TRUE,,,,,,,CLR,,,,,,,,VFR,,,,,,,,,,,,METAR,1361.0
KBJJ 052156Z AUTO 35013KT 10SM OVC070 09/01 A2983 RMK AO2 WSHFT 2124 SLP109 T00890006,KBJJ,2020-05-05T21:56:00Z,40.87,-81.88,8.9,0.6,350,13,,10.0,29.828741,1010.9,,TRUE,TRUE,,,,,,,OVC,7000,,,,,,,VFR,,,,,,,,,,,,METAR,343.0
KBIH 052156Z AUTO 15013G19KT 10SM CLR 31/M11 A3005 RMK AO2 SLP134 T03111106,KBIH,2020-05-05T21:56:00Z,37.37,-118.35,31.1,-10.6,150,13,19,10.0,30.050198,1013.4,,TRUE,TRUE,,,,,,,CLR,,,,,,,,VFR,,,,,,,,,,,,METAR,1253.0
KART 052156Z AUTO 25006KT 10SM CLR 06/M02 A2997 RMK AO2 SLP152 T00611022,KART,2020-05-05T21:56:00Z,43.98,-76.03,6.1,-2.2,250,6,,10.0,29.970472,1015.2,,TRUE,TRUE,,,,,,,CLR,,,,,,,,VFR,,,,,,,,,,,,METAR,100.0
KOFK 052156Z AUTO 34019G33KT 10SM FEW060 17/04 A3010 RMK AO2 PK WND 34033/2150 SLP192 T01720039,KOFK,2020-05-05T21:56:00Z,41.98,-97.43,17.2,3.9,340,19,33,10.0,30.100393,1019.2,,TRUE,TRUE,,,,,,,FEW,6000,,,,,,,VFR,,,,,,,,,,,,METAR,470.0
KLHW 052156Z AUTO 27010G17KT 10SM CLR 32/16 A2980 RMK AO2 SLP094 T03160155 $,KLHW,2020-05-05T21:56:00Z,31.87,-81.57,31.6,15.5,270,10,17,10.0,29.799213,1009.4,,TRUE,TRUE,TRUE,,,,,,CLR,,,,,,,,VFR,,,,,,,,,,,,METAR,14.0
KGTB 052156Z AUTO 27013KT 10SM CLR 08/M02 A2994 RMK AO2 SLP145 T00801021,KGTB,2020-05-05T21:56:00Z,44.07,-75.72,8.0,-2.1,270,13,,10.0,29.940945,1014.5,,TRUE,TRUE,,,,,,,CLR,,,,,,,,VFR,,,,,,,,,,,,METAR,207.0
KVOK 052156Z AUTO 00000KT 10SM SCT055 OVC110 13/01 A3000 RMK AO2 SLP167 T01270014 $,KVOK,2020-05-05T21:56:00Z,43.92,-90.27,12.7,1.4,0,0,,10.0,30.0,1016.7,,TRUE,TRUE,TRUE,,,,,,SCT,5500,OVC,11000,,,,,VFR,,,,,,,,,,,,METAR,277.0
KHFF 052156Z AUTO 14005KT 10SM CLR 24/18 A2977 RMK AO2 SLP094 T02410175 $,KHFF,2020-05-05T21:56:00Z,35.02,-79.5,24.1,17.5,140,5,,10.0,29.769686,1009.4,,TRUE,TRUE,TRUE,,,,,,CLR,,,,,,,,VFR,,,,,,,,,,,,METAR,115.0
KRCA 052156Z AUTO 33017G28KT 10SM FEW100 15/M05 A3017 RMK AO2 PK WND 36033/07 SLP226 T01531046 $,KRCA,2020-05-05T21:56:00Z,44.13,-103.08,15.3,-4.6,330,17,28,10.0,30.171259,1022.6,,TRUE,TRUE,TRUE,,,,,,FEW,10000,,,,,,,VFR,,,,,,,,,,,,METAR,999.0
KHOP 052156Z AUTO 30014G21KT 10SM BKN037 17/11 A2990 RMK AO2 SLP124 T01740105,KHOP,2020-05-05T21:56:00Z,36.67,-87.5,17.4,10.5,300,14,21,10.0,29.899607,1012.4,,TRUE,TRUE,,,,,,,BKN,3700,,,,,,,VFR,,,,,,,,,,,,METAR,174.0
KFAF 052156Z AUTO 04004KT 10SM SCT042 BKN095 14/09 A2988 RMK AO2 SLP121 T01430087 $,KFAF,2020-05-05T21:56:00Z,37.12,-76.62,14.3,8.7,40,4,,10.0,29.878937,1012.1,,TRUE,TRUE,TRUE,,,,,,SCT,4200,BKN,9500,,,,,VFR,,,,,,,,,,,,METAR,4.0
KBLV 052156Z AUTO 31011KT 10SM CLR 18/11 A2989 RMK AO2 SLPNO T01810107 $,KBLV,2020-05-05T21:56:00Z,38.53,-89.83,18.1,10.7,310,11,,10.0,29.890747,,,TRUE,TRUE,TRUE,,,,,,CLR,,,,,,,,VFR,,,,,,,,,,,,METAR,138.0
KXMR 052156Z AUTO 14010KT 10SM CLR 28/22 A2990 RMK AO2 SLP128 T02820217 $,KXMR,2020-05-05T21:56:00Z,28.47,-80.57,28.2,21.7,140,10,,10.0,29.899607,1012.8,,TRUE,TRUE,TRUE,,,,,,CLR,,,,,,,,VFR,,,,,,,,,,,,METAR,3.0
KWRB 052156Z 26011G19KT 10SM CLR 31/15 A2981 RMK AO2A SLP094 T03060146 $,KWRB,2020-05-05T21:56:00Z,32.62,-83.58,30.6,14.6,260,11,19,10.0,29.811024,1009.4,,,TRUE,TRUE,,,,,,CLR,,,,,,,,VFR,,,,,,,,,,,,METAR,90.0
KTIK 052156Z AUTO 03008G15KT 10SM CLR 23/02 A3011 RMK AO2 SLP196 T02330016,KTIK,2020-05-05T21:56:00Z,35.42,-97.37,23.3,1.6,30,8,15,10.0,30.109253,1019.6,,TRUE,TRUE,,,,,,,CLR,,,,,,,,VFR,,,,,,,,,,,,METAR,394.0
KTDR 052156Z AUTO 00000KT 10SM FEW013 27/22 A2991 RMK AO2 SLP132 T02740216 $,KTDR,2020-05-05T21:56:00Z,30.05,-85.52,27.4,21.6,0,0,,10.0,29.911417,1013.2,,TRUE,TRUE,TRUE,,,,,,FEW,1300,,,,,,,VFR,,,,,,,,,,,,METAR,5.0
KLTS 052156Z AUTO 06008KT 10SM CLR 25/M01 A3014 RMK AO2 SLP196 T02521008 $,KLTS,2020-05-05T21:56:00Z,34.67,-99.27,25.2,-0.8,60,8,,10.0,30.138779,1019.6,,TRUE,TRUE,TRUE,,,,,,CLR,,,,,,,,VFR,,,,,,,,,,,,METAR,420.0
KEED 052156Z AUTO 06006KT 10SM CLR 38/M13 A2988 RMK AO2 SLP085 T03831128,KEED,2020-05-05T21:56:00Z,34.77,-114.62,38.3,-12.8,60,6,,10.0,29.878937,1008.5,,TRUE,TRUE,,,,,,,CLR,,,,,,,,VFR,,,,,,,,,,,,METAR,302.0
KEAU 052156Z 20005KT 10SM CLR 14/M03 A3002 RMK AO2 SLP167 T01441033,KEAU,2020-05-05T21:56:00Z,44.87,-91.47,14.4,-3.3,200,5,,10.0,30.02067,1016.7,,,TRUE,,,,,,,CLR,,,,,,,,VFR,,,,,,,,,,,,METAR,276.0
KAND 052156Z AUTO 25010KT 10SM BKN044 BKN050 27/18 A2976 RMK AO2 LTG DSNT N SLP070 T02720183,KAND,2020-05-05T21:56:00Z,34.5,-82.72,27.2,18.3,250,10,,10.0,29.760826,1007.0,,TRUE,TRUE,,,,,,,BKN,4400,BKN,5000,,,,,VFR,,,,,,,,,,,,METAR,239.0
KELZ 052156Z AUTO 34007KT 10SM CLR 10/M08 A2988 RMK AO2 SLP134 T01001083,KELZ,2020-05-05T21:56:00Z,42.1,-77.98,10.0,-8.3,340,7,,10.0,29.878937,1013.4,,TRUE,TRUE,,,,,,,CLR,,,,,,,,VFR,,,,,,,,,,,,METAR,646.0
KEKO 052156Z AUTO 10SM CLR A3012 RMK AO2 SLPNO PNO $,KEKO,2020-05-05T21:56:00Z,40.82,-115.78,,,,,,10.0,30.121063,,,TRUE,TRUE,TRUE,,,,,,CLR,,,,,,,,VFR,,,,,,,,,,,,METAR,1547.0
KFSD 052156Z 01009KT 10SM SCT016 BKN022 BKN028 10/06 A3012 RMK AO2 SLP205 T01000061 $,KFSD,2020-05-05T21:56:00Z,43.58,-96.75,10.0,6.1,10,9,,10.0,30.121063,1020.5,,,TRUE,TRUE,,,,,,SCT,1600,BKN,2200,BKN,2800,,,MVFR,,,,,,,,,,,,METAR,436.0
KRYM 052156Z AUTO 00000KT 10SM BKN065 15/00 A3006 RMK AO2 SLP189 T01470000 $,KRYM,2020-05-05T21:56:00Z,46.08,-94.37,14.7,0.0,0,0,,10.0,30.059055,1018.9,,TRUE,TRUE,TRUE,,,,,,BKN,6500,,,,,,,VFR,,,,,,,,,,,,METAR,351.0
KGON 052156Z VRB05KT 10SM CLR 15/M03 A2983 RMK AO2 SLP101 T01501033,KGON,2020-05-05T21:56:00Z,41.33,-72.05,15.0,-3.3,0,5,,10.0,29.828741,1010.1,,,TRUE,,,,,,,CLR,,,,,,,,VFR,,,,,,,,,,,,METAR,3.0
KGRD 052156Z AUTO 22009KT 10SM SCT055 OVC070 27/19 A2978 RMK AO2 SLP076 T02670189,KGRD,2020-05-05T21:56:00Z,34.25,-82.15,26.7,18.9,220,9,,10.0,29.778543,1007.6,,TRUE,TRUE,,,,,,,SCT,5500,OVC,7000,,,,,VFR,,,,,,,,,,,,METAR,185.0
PAED 052156Z AUTO 03007KT 10SM FEW180 15/M01 A2999 RMK AO2 SLP152 T01451012 $,PAED,2020-05-05T21:56:00Z,61.25,-149.83,14.5,-1.2,30,7,,10.0,29.991142,1015.2,,TRUE,TRUE,TRUE,,,,,,FEW,18000,,,,,,,VFR,,,,,,,,,,,,METAR,59.0
OAKN 052156Z AUTO 00000KT 9999 CLR 20/M01 A2994 RMK AO2 SLP087 WND DATA ESTMD T02031015,OAKN,2020-05-05T21:56:00Z,31.5,65.83,20.3,-1.5,0,0,,6.21,29.940945,1008.7,,TRUE,TRUE,,,,,,,CLR,,,,,,,,VFR,,,,,,,,,,,,SPECI,1010.0
KCEF 052156Z 31009KT 10SM FEW050 FEW250 15/M04 A2983 RMK AO2A SLP108 T01491039,KCEF,2020-05-05T21:56:00Z,42.2,-72.52,14.9,-3.9,310,9,,10.0,29.828741,1010.8,,,TRUE,,,,,,,FEW,5000,FEW,25000,,,,,VFR,,,,,,,,,,,,METAR,75.0
KOZR 052156Z AUTO 26007KT 10SM CLR 31/16 A2987 RMK AO2 SLP115 T03090161,KOZR,2020-05-05T21:56:00Z,31.28,-85.72,30.9,16.1,260,7,,10.0,29.870079,1011.5,,TRUE,TRUE,,,,,,,CLR,,,,,,,,VFR,,,,,,,,,,,,METAR,93.0
KNJK 052156Z 07003KT 10SM CLR 39/M17 A2983 RMK AO2 SLP116 T03891167,KNJK,2020-05-05T21:56:00Z,32.82,-115.67,38.9,-16.7,70,3,,10.0,29.828741,1011.6,,,TRUE,,,,,,,CLR,,,,,,,,VFR,,,,,,,,,,,,METAR,-13.0
KHSA 052155Z 34006KT 10SM FEW050 30/17 A2987,KHSA,2020-05-05T21:55:00Z,30.37,-89.45,30.0,17.0,340,6,,10.0,29.870079,,,,,,,,,,,FEW,5000,,,,,,,VFR,,,,,,,,,,,,METAR,7.0
LIEB 052155Z 21012KT 0400 FG OVC008 17/17 Q1014 RMK OVC QUK / QUL / VIS MAR 400 M MON INVIS VIS MIN 4000,LIEB,2020-05-05T21:55:00Z,39.93,9.72,17.0,17.0,210,12,,0.25,29.940945,,,,,,,,,,FG,OVC,800,,,,,,,LIFR,,,,,,,,,,,,METAR,156.0
LICF 052155Z 36003KT CAVOK 19/09 Q1017 RMK SKC QUK / QUL / VIS MAR 25 KM MON INVIS NC VIS MIN 9999,LICF,2020-05-05T21:55:00Z,38.2,15.55,19.0,9.0,360,3,,6.21,30.029528,,,,,,,,,,,CAVOK,,,,,,,,VFR,,,,,,,,,,,,METAR,51.0
LIBN 052155Z 17005KT CAVOK 15/14 Q1015 RMK FEW FEW200 VIS MIN 9999 WIND THR14 18007KT WIND THR32 17004KT BLU,LIBN,2020-05-05T21:55:00Z,40.22,18.13,15.0,14.0,170,5,,6.21,29.970472,,,,,,,,,,,CAVOK,,,,,,,,VFR,,,,,,,,,,,,METAR,61.0
TNCE 052155Z AUTO 08009KT 050V120 //// // ///////// 28/22 Q1014 RE//,TNCE,2020-05-05T21:55:00Z,17.47,-62.97,28.0,22.0,80,9,,,29.940945,,,TRUE,,,,,,,,,,,,,,,,,,,,,,,,,,,,METAR,39.0
TNCB 052155Z AUTO 09018KT 9999 FEW016/// 28/23 Q1009,TNCB,2020-05-05T21:55:00Z,12.13,-68.28,28.0,23.0,90,18,,6.21,29.793306,,,TRUE,,,,,,,,FEW,1600,,,,,,,VFR,,,,,,,,,,,,METAR,6.0
KCBG 052155Z AUTO 02007KT 10SM CLR 16/02 A3005 RMK AO2,KCBG,2020-05-05T21:55:00Z,45.57,-93.27,16.0,2.0,20,7,,10.0,30.050198,,,TRUE,TRUE,,,,,,,CLR,,,,,,,,VFR,,,,,,,,,,,,SPECI,287.0
KNKX 052155Z 32008KT 10SM CLR 29/14 A2994 RMK AO2 SLP132 T02890139 $,KNKX,2020-05-05T21:55:00Z,32.87,-117.13,28.9,13.9,320,8,,10.0,29.940945,1013.2,,,TRUE,TRUE,,,,,,CLR,,,,,,,,VFR,,,,,,,,,,,,SPECI,146.0
LIPS 052155Z /////KT 9999 BKN060 16/15 Q1014 RMK BKN VIS MIN 9999 WIND THR26 34003KT WIND THR08 01003KT BLU,LIPS,2020-05-05T21:55:00Z,45.67,12.08,16.0,15.0,,,,6.21,29.940945,,,,,,,,,,,BKN,6000,,,,,,,VFR,,,,,,,,,,,,METAR,41.0
KNBG 052155Z 23006KT 10SM SCT060 BKN250 30/19 A2989 RMK SLP122 T03000189,KNBG,2020-05-05T21:55:00Z,29.82,-90.02,30.0,18.9,230,6,,10.0,29.890747,1012.2,,,,,,,,,,SCT,6000,BKN,25000,,,,,VFR,,,,,,,,,,,,METAR,1.0
KCPC 052155Z AUTO 16009KT 10SM SCT030 26/19 A2978 RMK AO2 T02560190,KCPC,2020-05-05T21:55:00Z,34.28,-78.72,25.6,19.0,160,9,,10.0,29.778543,,,TRUE,TRUE,,,,,,,SCT,3000,,,,,,,VFR,,,,,,,,,,,,SPECI,29.0
KSKF 052155Z 04014G19KT 10SM FEW043 31/19 A2992 RMK SLP124 T03080188 $,KSKF,2020-05-05T21:55:00Z,29.37,-98.57,30.8,18.8,40,14,19,10.0,29.920275,1012.4,,,,TRUE,,,,,,FEW,4300,,,,,,,VFR,,,,,,,,,,,,METAR,210.0
KFTK 052155Z COR 29007KT 10SM -RA BKN009 OVC017 13/13 A2985 RMK RAE14RAB41 SLP111 $ COR 2228,KFTK,2020-05-05T21:55:00Z,37.88,-85.97,13.0,13.0,290,7,,10.0,29.84941,1011.1,TRUE,,,TRUE,,,,,-RA,BKN,900,OVC,1700,,,,,IFR,,,,,,,,,,,,METAR,230.0
KSUN 052155Z 18005KT 10SM SKC 19/M04 A3024,KSUN,2020-05-05T21:55:00Z,43.5,-114.28,19.0,-4.0,180,5,,10.0,30.239174,,,,,,,,,,,SKC,,,,,,,,VFR,,,,,,,,,,,,METAR,1620.0
LIPC 052155Z 33002KT CAVOK 16/13 Q1012 RMK BKN FEW100 SCT200 VIS MIN 9999 WIND THR11 33002KT WIND THR29 34002KT BLU,LIPC,2020-05-05T21:55:00Z,44.22,12.3,16.0,13.0,330,2,,6.21,29.88189,,,,,,,,,,,CAVOK,,,,,,,,VFR,,,,,,,,,,,,METAR,10.0
LIVP 052155Z 00000KT 0000 FG VV/// 05/05 Q1016 RMK MON INVIS VAL INVIS VIS MIN 0000,LIVP,2020-05-05T21:55:00Z,46.15,11.03,5.0,5.0,0,0,,0.0,30.0,,,,,,,,,,FG,OVX,0,,,,,,,LIFR,,,,,,,,,,,,METAR,2129.0
LIRS 052155Z 13004KT 9999 FEW020 16/13 Q1015 RMK BKN SCT090 VIS MIN 9999 WIND THR03 14005KT WIND THR21 16003KT BLU,LIRS,2020-05-05T21:55:00Z,42.75,11.07,16.0,13.0,130,4,,6.21,29.970472,,,,,,,,,,,FEW,2000,,,,,,,VFR,,,,,,,,,,,,METAR,7.0
LIRM 052155Z 09002KT 9999 FEW070 14/13 Q1017 RMK BKN BKN200 VIS MIN 9999 WIND THR06 10002KT BLU,LIRM,2020-05-05T21:55:00Z,41.03,14.07,14.0,13.0,90,2,,6.21,30.029528,,,,,,,,,,,FEW,7000,,,,,,,VFR,,0.2,,,,,,,,,,METAR,10.0
LICT 052155Z 16008KT CAVOK 17/15 Q1016 RMK SCT SCT200 VIS MIN 9999 WIND THR13 13006KT BLU,LICT,2020-05-05T21:55:00Z,37.92,12.5,17.0,15.0,160,8,,6.21,30.0,,,,,,,,,,,CAVOK,,,,,,,,VFR,,,,,,,,,,,,METAR,7.0
KADM 052155Z 01008KT 10SM CLR 24/08 A3010,KADM,2020-05-05T21:55:00Z,34.28,-97.02,24.0,8.0,10,8,,10.0,30.100393,,,,,,,,,,,CLR,,,,,,,,VFR,,,,,,,,,,,,METAR,232.0
KMJQ 052155Z AUTO 34007KT 10SM SCT018 SCT023 OVC065 10/06 A3007 RMK AO2 PWINO,KMJQ,2020-05-05T21:55:00Z,43.63,-94.97,10.0,6.0,340,7,,10.0,30.070866,,,TRUE,TRUE,,,,,TRUE,,SCT,1800,SCT,2300,OVC,6500,,,VFR,,,,,,,,,,,,METAR,441.0
LIVT 052155Z /////KT CAVOK 16/10 Q1013 RMK SCT SCT080 QUK / QUL / VIS MAR 20 KM VIS MIN 9999,LIVT,2020-05-05T21:55:00Z,45.68,13.75,16.0,10.0,,,,6.21,29.911417,,,,,,,,,,,CAVOK,,,,,,,,VFR,,,,,,,,,,,,METAR,20.0
KNFG 052155Z 19011KT 10SM CLR 27/13 A2992 RMK AO2 SLP129 T02670133 $,KNFG,2020-05-05T21:55:00Z,33.28,-117.33,26.7,13.3,190,11,,10.0,29.920275,1012.9,,,TRUE,TRUE,,,,,,CLR,,,,,,,,VFR,,,,,,,,,,,,METAR,24.0
LIVE 052155Z 03006KT 7000 -RA SCT015 BKN025 08/08 Q1015 RMK OVC VIS MIN 7000,LIVE,2020-05-05T21:55:00Z,46.85,10.5,8.0,8.0,30,6,,4.35,29.970472,,,,,,,,,,-RA,SCT,1500,BKN,2500,,,,,MVFR,,,,,,,,,,,,METAR,1800.0
LIVC 052155Z AUTO 26022KT 230V320 //// 06/03 Q1019,LIVC,2020-05-05T21:55:00Z,44.2,10.68,6.0,3.0,260,22,,,30.088583,,,TRUE,,,,,,,,,,,,,,,,,,,,,,,,,,,,METAR,2173.0
LIRK 052155Z AUTO 28014KT //// 08/07 Q1020,LIRK,2020-05-05T21:55:00Z,42.47,12.97,8.0,7.0,280,14,,,30.11811,,,TRUE,,,,,,,,,,,,,,,,,,,,,,,,,,,,METAR,1875.0
LIRE 052155Z 12004KT CAVOK 15/13 Q1016 RMK BKN BKN200 VIS MIN 9999 WIND THR13 14005KT WIND THR31 15005KT BLU,LIRE,2020-05-05T21:55:00Z,41.63,12.42,15.0,13.0,120,4,,6.21,30.0,,,,,,,,,,,CAVOK,,,,,,,,VFR,,,,,,,,,,,,METAR,12.0
PALU 052155Z AUTO 08010KT 10SM -SN OVC006 M11/M12 A3018 RMK AO2 SNB1956 SLP220 P0000 T11151124,PALU,2020-05-05T21:55:00Z,68.88,-166.1,-11.5,-12.4,80,10,,10.0,30.180119,1022.0,,TRUE,TRUE,,,,,,-SN,OVC,600,,,,,,,IFR,,,,,,0.005,,,,,,METAR,3.0
PATC 052155Z AUTO 02027KT 10SM OVC003 M07/M07 A3008 RMK AO2 PK WND 02030/2121 SLP193 T10671073,PATC,2020-05-05T21:55:00Z,65.57,-167.92,-6.7,-7.3,20,27,,10.0,30.079725,1019.3,,TRUE,TRUE,,,,,,,OVC,300,,,,,,,LIFR,,,,,,,,,,,,METAR,83.0
RJOI 052155Z 00000KT 9000 BR SCT045 BKN060 OVC140 20/17 A2984 RMK SLP103 T02000167,RJOI,2020-05-05T21:55:00Z,34.13,132.22,20.0,16.7,0,0,,5.59,29.840551,1010.3,,,,,,,,,BR,SCT,4500,BKN,6000,OVC,14000,,,VFR,,,,,,,,,,,,METAR,2.0
PAIM 052155Z AUTO 33007KT 290V020 10SM CLR 08/00 A3003 RMK AO2 SLP178 T00811005,PAIM,2020-05-05T21:55:00Z,66.0,-153.7,8.1,-0.5,330,7,,10.0,30.029528,1017.8,,TRUE,TRUE,,,,,,,CLR,,,,,,,,VFR,,,,,,,,,,,,METAR,389.0
PATL 052155Z AUTO VRB06KT 10SM BKN050 11/M01 A3006 RMK AO2 SLP183 T01131013,PATL,2020-05-05T21:55:00Z,62.9,-155.97,11.3,-1.3,0,6,,10.0,30.059055,1018.3,,TRUE,TRUE,,,,,,,BKN,5000,,,,,,,VFR,,,,,,,,,,,,METAR,294.0
LIMU 052155Z 10007KT 9999 BKN006 15/15 Q1016 RMK BKN QUK / QUL / VIS MAR 20 KM VIS MIN 9999,LIMU,2020-05-05T21:55:00Z,43.95,8.17,15.0,15.0,100,7,,6.21,30.0,,,,,,,,,,,BKN,600,,,,,,,IFR,,,,,,,,,,,,METAR,221.0
LIMK 052155Z 33003KT CAVOK 16/16 Q1014 RMK SCT SCT200 VAL NIL VIS MIN 9999,LIMK,2020-05-05T21:55:00Z,45.02,7.72,16.0,16.0,330,3,,6.21,29.940945,,,,,,,,,,,CAVOK,,,,,,,,VFR,,,,,,,,,,,,METAR,710.0
LIVF 052155Z 21012KT 9999 FEW034 17/11 Q1013 RMK BKN BKN200 MON LIB VAL NIL VIS MIN 9999,LIVF,2020-05-05T21:55:00Z,43.52,12.72,17.0,11.0,210,12,,6.21,29.911417,,,,,,,,,,,FEW,3400,,,,,,,VFR,,,,,,,,,,,,METAR,574.0
LIBV 052155Z 20004KT CAVOK 12/10 Q1015 RMK SKC VIS MIN 9999 WIND THR32 20006KT WIND THR14 21003KT BLU,LIBV,2020-05-05T21:55:00Z,40.77,16.92,12.0,10.0,200,4,,6.21,29.970472,,,,,,,,,,,CAVOK,,,,,,,,VFR,,,0.6,,,,,,,,,METAR,350.0
LIBQ 052155Z 24011KT 210V270 CAVOK 10/M02 Q1020 RMK SKC MON LIB VAL NIL VIS MIN 9999,LIBQ,2020-05-05T21:55:00Z,39.32,16.38,10.0,-2.0,240,11,,6.21,30.11811,,,,,,,,,,,CAVOK,,,,,,,,VFR,,,,,,,,,,,,METAR,1720.0
LIBA 052155Z 26004KT CAVOK 15/12 Q1014 RMK FEW FEW200 VIS MIN 9999 WIND THR11 30002KT WIND THR29 /////KT BLU,LIBA,2020-05-05T21:55:00Z,41.52,15.72,15.0,12.0,260,4,,6.21,29.940945,,,,,,,,,,,CAVOK,,,,,,,,VFR,,,,,,,,,,,,METAR,60.0
PASV 052155Z AUTO 07006KT 10SM BKN055 10/M03 A3000 RMK AO2 SLP164 T00981028 $,PASV,2020-05-05T21:55:00Z,61.1,-155.57,9.8,-2.8,70,6,,10.0,30.0,1016.4,,TRUE,TRUE,TRUE,,,,,,BKN,5500,,,,,,,VFR,,,,,,,,,,,,METAR,484.0
LIED 052155Z 11005KT 1500 BR VCFG SCT002 SCT003 18/15 Q1015 RMK BKN VIS MIN 1500 WIND THR35 11005KT WIND THR17 /////KT AMB,LIED,2020-05-05T21:55:00Z,39.35,8.97,18.0,15.0,110,5,,0.93,29.970472,,,,,,,,,,BR VCFG,SCT,200,SCT,300,,,,,LIFR,,-0.5,,,,,,,,,,METAR,28.0
KPHP 052155Z AUTO 35021G28KT 10SM CLR 17/M01 A3015 RMK AO2 PK WND 34036/2116 SLP213 T01671006,KPHP,2020-05-05T21:55:00Z,44.05,-101.6,16.7,-0.6,350,21,28,10.0,30.15059,1021.3,,TRUE,TRUE,,,,,,,CLR,,,,,,,,VFR,,,,,,,,,,,,METAR,672.0
NZFX 052155Z 02007KT 9999 SCT035 SCT050 M29/M33 A2921 RMK SLP888 LSR13 GRID19007KT SDN/HDN,NZFX,2020-05-05T21:55:00Z,-77.95,166.77,-29.0,-33.0,20,7,,6.21,29.208662,988.8,,,,,,,,,,SCT,3500,SCT,5000,,,,,VFR,,,,,,,,,,,,METAR,8.0
KDLH 052155Z 13008KT 10SM FEW030 BKN095 09/M04 A3007 RMK AO2 SLP196 T00891039,KDLH,2020-05-05T21:55:00Z,46.85,-92.2,8.9,-3.9,130,8,,10.0,30.070866,1019.6,,,TRUE,,,,,,,FEW,3000,BKN,9500,,,,,VFR,,,,,,,,,,,,METAR,435.0
KCNK 052155Z AUTO 33018G29KT 10SM FEW095 22/01 A3008 RMK AO2 PK WND 33032/2114 SLP181 T02220011,KCNK,2020-05-05T21:55:00Z,39.55,-97.65,22.2,1.1,330,18,29,10.0,30.079725,1018.1,,TRUE,TRUE,,,,,,,FEW,9500,,,,,,,VFR,,,,,,,,,,,,METAR,447.0
KCMA 052155Z 26009KT 10SM CLR 28/07 A2993 RMK AO2 SLP144 T02830072,KCMA,2020-05-05T21:55:00Z,34.22,-119.1,28.3,7.2,260,9,,10.0,29.929134,1014.4,,,TRUE,,,,,,,CLR,,,,,,,,VFR,,,,,,,,,,,,METAR,23.0
KCAO 052155Z AUTO 18017G24KT 10SM CLR 21/M03 A3019 RMK AO2 SLP181 T02111028,KCAO,2020-05-05T21:55:00Z,36.45,-103.15,21.1,-2.8,180,17,24,10.0,30.188976,1018.1,,TRUE,TRUE,,,,,,,CLR,,,,,,,,VFR,,,,,,,,,,,,METAR,1514.0
KEAT 052155Z AUTO 12008KT 10SM CLR 22/M01 A3006 RMK AO2 SLP174 T02221006,KEAT,2020-05-05T21:55:00Z,47.4,-120.2,22.2,-0.6,120,8,,10.0,30.059055,1017.4,,TRUE,TRUE,,,,,,,CLR,,,,,,,,VFR,,,,,,,,,,,,METAR,377.0
LIPL 052155Z 31006KT CAVOK 19/15 Q1011 RMK BKN BKN200 VIS MIN 9999 WIND THR31 31007KT WIND THR13 30006KT BLU,LIPL,2020-05-05T21:55:00Z,45.42,10.27,19.0,15.0,310,6,,6.21,29.852362,,,,,,,,,,,CAVOK,,,,,,,,VFR,,,,,,,,,,,,METAR,92.0
KA08 052155Z AUTO 28006KT 10SM SCT036 25/20 A2986 RMK AO2 T02540196,KA08,2020-05-05T21:55:00Z,32.52,-87.38,25.4,19.6,280,6,,10.0,29.861221,,,TRUE,TRUE,,,,,,,SCT,3600,,,,,,,VFR,,,,,,,,,,,,METAR,69.0
KFMH 052155Z 17008KT 10SM OVC075 12/M00 A2984,KFMH,2020-05-05T21:55:00Z,41.63,-70.52,12.0,0.0,170,8,,10.0,29.840551,,,,,,,,,,,OVC,7500,,,,,,,VFR,,,,,,,,,,,,METAR,40.0
KAAT 052155Z AUTO 28016G22KT 10SM CLR 21/M02 A3010 RMK AO2 SLP173 T02111022,KAAT,2020-05-05T21:55:00Z,41.48,-120.57,21.1,-2.2,280,16,22,10.0,30.100393,1017.3,,TRUE,TRUE,,,,,,,CLR,,,,,,,,VFR,,,,,,,,,,,,METAR,1331.0
KANJ 052155Z AUTO 30011KT 10SM CLR 09/M11 A3004 RMK AO2 SLP178 T00891106,KANJ,2020-05-05T21:55:00Z,46.47,-84.37,8.9,-10.6,300,11,,10.0,30.041338,1017.8,,TRUE,TRUE,,,,,,,CLR,,,,,,,,VFR,,,,,,,,,,,,METAR,218.0
KAST 052155Z AUTO 25007KT 10SM FEW080 16/10 A3006 RMK AO2 SLP180 T01610100,KAST,2020-05-05T21:55:00Z,46.15,-123.88,16.1,10.0,250,7,,10.0,30.059055,1018.0,,TRUE,TRUE,,,,,,,FEW,8000,,,,,,,VFR,,,,,,,,,,,,METAR,3.0
KUGN 052155Z 03008KT 10SM BKN110 08/M02 A2999 RMK AO2 SLP161 T00831017,KUGN,2020-05-05T21:55:00Z,42.42,-87.87,8.3,-1.7,30,8,,10.0,29.991142,1016.1,,,TRUE,,,,,,,BKN,11000,,,,,,,VFR,,,,,,,,,,,,METAR,222.0
KHON 052155Z AUTO 34012G17KT 10SM FEW031 BKN049 13/05 A3012 RMK AO2 SLP205 T01280050,KHON,2020-05-05T21:55:00Z,44.38,-98.23,12.8,5.0,340,12,17,10.0,30.121063,1020.5,,TRUE,TRUE,,,,,,,FEW,3100,BKN,4900,,,,,VFR,,,,,,,,,,,,METAR,390.0
KIRK 052155Z AUTO 30010KT 10SM BKN060 OVC070 14/06 A2993 RMK AO2 SLP138 T01390061,KIRK,2020-05-05T21:55:00Z,40.1,-92.55,13.9,6.1,300,10,,10.0,29.929134,1013.8,,TRUE,TRUE,,,,,,,BKN,6000,OVC,7000,,,,,VFR,,,,,,,,,,,,METAR,293.0
KINL 052155Z AUTO 00000KT 10SM FEW080 16/M06 A3005 RMK AO2 SLP186 T01561056,KINL,2020-05-05T21:55:00Z,48.57,-93.4,15.6,-5.6,0,0,,10.0,30.050198,1018.6,,TRUE,TRUE,,,,,,,FEW,8000,,,,,,,VFR,,,,,,,,,,,,METAR,360.0
LIVM 052155Z AUTO VRB02KT //// 18/16 Q1012,LIVM,2020-05-05T21:55:00Z,44.45,12.3,18.0,16.0,0,2,,,29.88189,,,TRUE,,,,,,,,,,,,,,,,,,,,,,,,,,,,METAR,6.0
KLCK 052155Z AUTO 10006KT 10SM OVC036 09/02 A2981 RMK AO2 T00940015,KLCK,2020-05-05T21:55:00Z,39.82,-82.92,9.4,1.5,100,6,,10.0,29.811024,,,TRUE,TRUE,,,,,,,OVC,3600,,,,,,,VFR,,,,,,,,,,,,METAR,227.0
KLIC 052155Z AUTO 01009KT 10SM CLR 20/M08 A3018 RMK AO2 SLP188 T02001083,KLIC,2020-05-05T21:55:00Z,39.27,-103.67,20.0,-8.3,10,9,,10.0,30.180119,1018.8,,TRUE,TRUE,,,,,,,CLR,,,,,,,,VFR,,,,,,,,,,,,METAR,1630.0
KMKG 052155Z VRB06KT 10SM BKN150 14/M05 A2997 RMK AO2 SLP150 T01391050,KMKG,2020-05-05T21:55:00Z,43.17,-86.23,13.9,-5.0,0,6,,10.0,29.970472,1015.0,,,TRUE,,,,,,,BKN,15000,,,,,,,VFR,,,,,,,,,,,,METAR,191.0
KGPI 052155Z 16006KT 10SM CLR 19/M02 A3018 RMK AO2 SLP230 T01891017,KGPI,2020-05-05T21:55:00Z,48.32,-114.25,18.9,-1.7,160,6,,10.0,30.180119,1023.0,,,TRUE,,,,,,,CLR,,,,,,,,VFR,,,,,,,,,,,,METAR,908.0
KPRC 052155Z 33005KT 10SM CLR 28/M03 A3013 RMK AO2 T02831033,KPRC,2020-05-05T21:55:00Z,34.65,-112.42,28.3,-3.3,330,5,,10.0,30.129921,,,,TRUE,,,,,,,CLR,,,,,,,,VFR,,,,,,,,,,,,SPECI,1524.0
KSCK 052155Z 30009G15KT 10SM CLR 31/03 A3006 RMK AO2 SLP178 T03060028,KSCK,2020-05-05T21:55:00Z,37.88,-121.22,30.6,2.8,300,9,15,10.0,30.059055,1017.8,,,TRUE,,,,,,,CLR,,,,,,,,VFR,,,,,,,,,,,,METAR,10.0
KRNO 052155Z 18018G27KT 10SM FEW160 FEW200 BKN250 26/M13 A3011 RMK AO2 PK WND 19027/2150 WSHFT 2043 SLP155 T02561133,KRNO,2020-05-05T21:55:00Z,39.5,-119.77,25.6,-13.3,180,18,27,10.0,30.109253,1015.5,,,TRUE,,,,,,,FEW,16000,FEW,20000,BKN,25000,,,VFR,,,,,,,,,,,,METAR,1342.0
KCQM 052155Z AUTO 36004KT 10SM CLR 15/M08 A3004 RMK AO2,KCQM,2020-05-05T21:55:00Z,47.82,-92.68,15.0,-8.0,360,4,,10.0,30.041338,,,TRUE,TRUE,,,,,,,CLR,,,,,,,,VFR,,,,,,,,,,,,METAR,404.0
KCNW 052155Z 03010G16KT 10SM BKN095 25/10 A3004,KCNW,2020-05-05T21:55:00Z,31.63,-97.07,25.0,10.0,30,10,16,10.0,30.041338,,,,,,,,,,,BKN,9500,,,,,,,VFR,,,,,,,,,,,,METAR,156.0
KMFV 052155Z AUTO 15005KT 10SM OVC070 13/08 A2989 RMK AO2 T01320075,KMFV,2020-05-05T21:55:00Z,37.63,-75.77,13.2,7.5,150,5,,10.0,29.890747,,,TRUE,TRUE,,,,,,,OVC,7000,,,,,,,VFR,,,,,,,,,,,,METAR,15.0
KHZX 052155Z AUTO 05004KT 10SM OVC070 13/00 A3007 RMK AO1,KHZX,2020-05-05T21:55:00Z,46.62,-93.32,13.0,0.0,50,4,,10.0,30.070866,,,TRUE,TRUE,,,,,,,OVC,7000,,,,,,,VFR,,,,,,,,,,,,METAR,374.0
KMTC 052155Z 04012KT 10SM BKN120 OVC230 09/M03 A2994 RMK AO2A SLP150 SLP ESTMD T00911028 $,KMTC,2020-05-05T21:55:00Z,42.62,-82.82,9.1,-2.8,40,12,,10.0,29.940945,1015.0,,,TRUE,TRUE,,,,,,BKN,12000,OVC,23000,,,,,VFR,,,,,,,,,,,,METAR,177.0
KLWB 052155Z 00000KT 10SM OVC014 10/07 A2980,KLWB,2020-05-05T21:55:00Z,37.87,-80.4,10.0,7.0,0,0,,10.0,29.799213,,,,,,,,,,,OVC,1400,,,,,,,MVFR,,,,,,,,,,,,METAR,702.0
MUHA 052155Z 03010KT 360V060 9000 FEW030 30/20 Q1013,MUHA,2020-05-05T21:55:00Z,22.97,-82.42,30.0,20.0,30,10,,5.59,29.911417,,,,,,,,,,,FEW,3000,,,,,,,VFR,,,,,,,,,,,,METAR,64.0
KWHP 052155Z 14005KT 10SM SKC 34/03 A2996,KWHP,2020-05-05T21:55:00Z,34.25,-118.42,34.0,3.0,140,5,,10.0,29.958662,,,,,,,,,,,SKC,,,,,,,,VFR,,,,,,,,,,,,METAR,306.0
KQBR 052155Z AUTO VRB03KT 10SM CLR 23/M09 A3023 RMK AO2 SLP168 WND DATA ESTMD T02311086 $,KQBR,2020-05-05T21:55:00Z,,,23.1,-8.6,0,3,,10.0,30.230314,1016.8,,TRUE,TRUE,TRUE,,,,,,CLR,,,,,,,,VFR,,,,,,,,,,,,METAR,
TXKF 052155Z 28012KT 9999 FEW300 22/14 Q1015 ,TXKF,2020-05-05T21:55:00Z,32.37,-64.68,22.0,14.0,280,12,,6.21,29.970472,,,,,,,,,,,FEW,30000,,,,,,,VFR,,,,,,,,,,,,METAR,6.0
PTYA 052155Z VRB05KT 12SM SCT016 SCT130 BKN300 28/26 A2983 RMK SLP101 T02800259,PTYA,2020-05-05T21:55:00Z,9.48,138.08,28.0,25.9,0,5,,12.0,29.828741,1010.1,,,,,,,,,,SCT,1600,SCT,13000,BKN,30000,,,VFR,,,,,,,,,,,,SPECI,17.0
FJDG 052155Z 07011KT 9999 FEW020 BKN220 28/25 A2983 RMK SLP098 T02810249,FJDG,2020-05-05T21:55:00Z,-7.32,72.42,28.1,24.9,70,11,,6.21,29.828741,1009.8,,,,,,,,,,FEW,2000,BKN,22000,,,,,VFR,,,,,,,,,,,,METAR,3.0
KPTW 052154Z AUTO 24005KT 9SM FEW120 12/M03 A2989 RMK AO2 SLP120 T01221033,KPTW,2020-05-05T21:54:00Z,40.23,-75.55,12.2,-3.3,240,5,,9.0,29.890747,1012.0,,TRUE,TRUE,,,,,,,FEW,12000,,,,,,,VFR,,,,,,,,,,,,METAR,92.0
KPSF 052154Z AUTO VRB05KT 10SM CLR 12/M06 A2985 RMK AO2 SLP104 T01171056,KPSF,2020-05-05T21:54:00Z,42.43,-73.28,11.7,-5.6,0,5,,10.0,29.84941,1010.4,,TRUE,TRUE,,,,,,,CLR,,,,,,,,VFR,,,,,,,,,,,,METAR,355.0
KMTP 052154Z AUTO 27011KT 14/M02 A2986 RMK AO1 SLP110 T01441022,KMTP,2020-05-05T21:54:00Z,41.07,-71.92,14.4,-2.2,270,11,,,29.861221,1011.0,,TRUE,TRUE,,,,,,,,,,,,,,,,,,,,,,,,,,,METAR,2.0
KRBL 052154Z AUTO 19011G18KT 10SM CLR 29/00 A3003 RMK AO2 SLP165 T02890000,KRBL,2020-05-05T21:54:00Z,40.15,-122.25,28.9,0.0,190,11,18,10.0,30.029528,1016.5,,TRUE,TRUE,,,,,,,CLR,,,,,,,,VFR,,,,,,,,,,,,METAR,104.0
PAHN 052154Z AUTO 11006KT 10SM CLR 13/02 A3008 RMK AO2 SLP187 T01280022 TSNO,PAHN,2020-05-05T21:54:00Z,59.25,-135.52,12.8,2.2,110,6,,10.0,30.079725,1018.7,,TRUE,TRUE,,,TRUE,,,,CLR,,,,,,,,VFR,,,,,,,,,,,,METAR,5.0
KLYH 052154Z 12004KT 10SM OVC029 12/08 A2986 RMK AO2 SLP109 T01220083,KLYH,2020-05-05T21:54:00Z,37.32,-79.2,12.2,8.3,120,4,,10.0,29.861221,1010.9,,,TRUE,,,,,,,OVC,2900,,,,,,,MVFR,,,,,,,,,,,,METAR,295.0
KBWI 052154Z 26003KT 10SM OVC090 14/01 A2987 RMK AO2 SLP115 T01440011,KBWI,2020-05-05T21:54:00Z,39.17,-76.68,14.4,1.1,260,3,,10.0,29.870079,1011.5,,,TRUE,,,,,,,OVC,9000,,,,,,,VFR,,,,,,,,,,,,METAR,59.0
KBUY 052154Z AUTO 34007KT 10SM BKN036 OVC048 19/11 A2982 RMK AO2 SLP094 T01940111,KBUY,2020-05-05T21:54:00Z,36.05,-79.47,19.4,11.1,340,7,,10.0,29.819881,1009.4,,TRUE,TRUE,,,,,,,BKN,3600,OVC,4800,,,,,VFR,,,,,,,,,,,,METAR,180.0
KBUF 052154Z 03009KT 10SM SCT180 BKN230 BKN280 09/M11 A2995 RMK AO2 SLP146 T00941106 $,KBUF,2020-05-05T21:54:00Z,42.93,-78.73,9.4,-10.6,30,9,,10.0,29.949802,1014.6,,,TRUE,TRUE,,,,,,SCT,18000,BKN,23000,BKN,28000,,,VFR,,,,,,,,,,,,METAR,211.0
KBTV 052154Z 03013KT 10SM SCT055 11/M03 A2991 RMK AO2 SLP131 T01111033,KBTV,2020-05-05T21:54:00Z,44.47,-73.15,11.1,-3.3,30,13,,10.0,29.911417,1013.1,,,TRUE,,,,,,,SCT,5500,,,,,,,VFR,,,,,,,,,,,,METAR,105.0
PAKN 052154Z 09013G18KT 10SM CLR 14/00 A2994 RMK AO2 SLP138 T01390000,PAKN,2020-05-05T21:54:00Z,58.68,-156.65,13.9,0.0,90,13,18,10.0,29.940945,1013.8,,,TRUE,,,,,,,CLR,,,,,,,,VFR,,,,,,,,,,,,METAR,17.0
KMVL 052154Z AUTO 32007KT 10SM FEW050 08/M02 A2992 RMK AO2 SLP139 T00831017,KMVL,2020-05-05T21:54:00Z,44.53,-72.62,8.3,-1.7,320,7,,10.0,29.920275,1013.9,,TRUE,TRUE,,,,,,,FEW,5000,,,,,,,VFR,,,,,,,,,,,,METAR,234.0
KMRY 052154Z 32008KT 10SM CLR 19/12 A3016 RMK AO2 SLP223 T01890117,KMRY,2020-05-05T21:54:00Z,36.58,-121.85,18.9,11.7,320,8,,10.0,30.159449,1022.3,,,TRUE,,,,,,,CLR,,,,,,,,VFR,,,,,,,,,,,,METAR,66.0
KMOT 052154Z 31011G17KT 10SM OVC055 12/06 A3020 RMK AO2 WSHFT 2113 RAB18E51 SLP239 P0001 T01170061,KMOT,2020-05-05T21:54:00Z,48.25,-101.27,11.7,6.1,310,11,17,10.0,30.200787,1023.9,,,TRUE,,,,,,,OVC,5500,,,,,,,VFR,,,,,,0.01,,,,,,METAR,519.0
KMKC 052154Z 30020G32KT 10SM FEW095 22/00 A2996 RMK AO2 PK WND 28036/2106 SLP143 T02170000,KMKC,2020-05-05T21:54:00Z,39.12,-94.6,21.7,0.0,300,20,32,10.0,29.958662,1014.3,,,TRUE,,,,,,,FEW,9500,,,,,,,VFR,,,,,,,,,,,,METAR,227.0
KMIV 052154Z AUTO 32003KT 10SM BKN110 14/00 A2989 RMK AO2 SLP118 T01440000,KMIV,2020-05-05T21:54:00Z,39.37,-75.08,14.4,0.0,320,3,,10.0,29.890747,1011.8,,TRUE,TRUE,,,,,,,BKN,11000,,,,,,,VFR,,,,,,,,,,,,METAR,23.0
KMGJ 052154Z AUTO VRB06KT 10SM CLR 16/M07 A2983 RMK AO2 SLP102 T01611072,KMGJ,2020-05-05T21:54:00Z,41.52,-74.27,16.1,-7.2,0,6,,10.0,29.828741,1010.2,,TRUE,TRUE,,,,,,,CLR,,,,,,,,VFR,,,,,,,,,,,,METAR,108.0
KMFI 052154Z AUTO 24003KT 10SM FEW055 13/M01 A3000 RMK AO2 SLP169 T01281006,KMFI,2020-05-05T21:54:00Z,44.63,-90.18,12.8,-0.6,240,3,,10.0,30.0,1016.9,,TRUE,TRUE,,,,,,,FEW,5500,,,,,,,VFR,,,,,,,,,,,,METAR,389.0
KMEM 052154Z 32009KT 10SM FEW035 FEW210 23/12 A2993 RMK AO2 SLP131 T02280117 $,KMEM,2020-05-05T21:54:00Z,35.07,-89.98,22.8,11.7,320,9,,10.0,29.929134,1013.1,,,TRUE,TRUE,,,,,,FEW,3500,FEW,21000,,,,,VFR,,,,,,,,,,,,METAR,86.0
KRST 052154Z 07008KT 10SM SCT050 OVC070 09/02 A3004 RMK AO2 SLP180 T00940017,KRST,2020-05-05T21:54:00Z,43.9,-92.5,9.4,1.7,70,8,,10.0,30.041338,1018.0,,,TRUE,,,,,,,SCT,5000,OVC,7000,,,,,VFR,,,,,,,,,,,,METAR,403.0
KCEU 052154Z AUTO 26013G20KT 10SM FEW060 SCT080 26/18 A2977 RMK AO2 LTG DSNT N AND NW SLP073 T02610183,KCEU,2020-05-05T21:54:00Z,34.67,-82.88,26.1,18.3,260,13,20,10.0,29.769686,1007.3,,TRUE,TRUE,,,,,,,FEW,6000,SCT,8000,,,,,VFR,,,,,,,,,,,,METAR,268.0
KHWD 052154Z 29013KT 10SM CLR 21/12 A3014 RMK AO2 SLP216 T02060117,KHWD,2020-05-05T21:54:00Z,37.67,-122.12,20.6,11.7,290,13,,10.0,30.138779,1021.6,,,TRUE,,,,,,,CLR,,,,,,,,VFR,,,,,,,,,,,,METAR,21.0
KSYR 052154Z 29009KT 10SM SCT150 SCT210 09/M07 A2997 RMK AO2 SLP147 T00891072,KSYR,2020-05-05T21:54:00Z,43.12,-76.1,8.9,-7.2,290,9,,10.0,29.970472,1014.7,,,TRUE,,,,,,,SCT,15000,SCT,21000,,,,,VFR,,,,,,,,,,,,METAR,127.0
KTAD 052154Z AUTO 10SM FEW110 22/01 A3014 RMK AO2 SLP151 T02170006,KTAD,2020-05-05T21:54:00Z,37.27,-104.33,21.7,0.6,,,,10.0,30.138779,1015.1,,TRUE,TRUE,,,,,,,FEW,11000,,,,,,,VFR,,,,,,,,,,,,METAR,1756.0
KEWN 052154Z 14007KT 10SM BKN035 21/15 A2984 RMK AO2 SLP103 T02060150,KEWN,2020-05-05T21:54:00Z,35.07,-77.05,20.6,15.0,140,7,,10.0,29.840551,1010.3,,,TRUE,,,,,,,BKN,3500,,,,,,,VFR,,,,,,,,,,,,METAR,3.0
KEVV 052154Z 29015G26KT 10SM SCT022 SCT030 OVC050 14/08 A2991 RMK AO2 PK WND 29026/2154 RAE2056 SLP126 P0000 T01390083,KEVV,2020-05-05T21:54:00Z,38.05,-87.52,13.9,8.3,290,15,26,10.0,29.911417,1012.6,,,TRUE,,,,,,,SCT,2200,SCT,3000,OVC,5000,,,VFR,,,,,,0.005,,,,,,METAR,117.0
KEUG 052154Z 28007KT 10SM BKN060 BKN075 22/11 A3006 RMK AO2 SLP177 T02220106,KEUG,2020-05-05T21:54:00Z,44.13,-123.22,22.2,10.6,280,7,,10.0,30.059055,1017.7,,,TRUE,,,,,,,BKN,6000,BKN,7500,,,,,VFR,,,,,,,,,,,,METAR,114.0
KWAL 052154Z AUTO 16004KT 10SM OVC065 12/07 A2989 RMK AO2 SLP119 T01220072,KWAL,2020-05-05T21:54:00Z,37.93,-75.47,12.2,7.2,160,4,,10.0,29.890747,1011.9,,TRUE,TRUE,,,,,,,OVC,6500,,,,,,,VFR,,,,,,,,,,,,METAR,14.0
KVTA 052154Z AUTO 02007KT 10SM OVC048 11/00 A2980 RMK AO2 SLP093 T01110000,KVTA,2020-05-05T21:54:00Z,40.02,-82.47,11.1,0.0,20,7,,10.0,29.799213,1009.3,,TRUE,TRUE,,,,,,,OVC,4800,,,,,,,VFR,,,,,,,,,,,,METAR,268.0
KVSF 052154Z AUTO 34005KT 10SM BKN070 12/M04 A2986 RMK AO2 SLP114 T01171039,KVSF,2020-05-05T21:54:00Z,43.35,-72.52,11.7,-3.9,340,5,,10.0,29.861221,1011.4,,TRUE,TRUE,,,,,,,BKN,7000,,,,,,,VFR,,,,,,,,,,,,METAR,175.0
KVAY 052154Z AUTO 29003KT 10SM BKN100 14/M03 A2987 RMK AO2 SLP116 T01391028,KVAY,2020-05-05T21:54:00Z,39.93,-74.83,13.9,-2.8,290,3,,10.0,29.870079,1011.6,,TRUE,TRUE,,,,,,,BKN,10000,,,,,,,VFR,,,,,,,,,,,,METAR,15.0
KUIN 052154Z AUTO 01008KT 10SM FEW027 FEW035 OVC060 12/09 A2991 RMK AO2 RAB33E44 SLP131 P0000 T01170089,KUIN,2020-05-05T21:54:00Z,39.95,-91.2,11.7,8.9,10,8,,10.0,29.911417,1013.1,,TRUE,TRUE,,,,,,,FEW,2700,FEW,3500,OVC,6000,,,VFR,,,,,,0.005,,,,,,METAR,234.0
KTQE 052154Z AUTO 36019G29KT 10SM FEW028 BKN044 14/06 A3009 RMK AO2 PK WND 35034/2055 SLP187 T01390056,KTQE,2020-05-05T21:54:00Z,41.77,-96.18,13.9,5.6,360,19,29,10.0,30.088583,1018.7,,TRUE,TRUE,,,,,,,FEW,2800,BKN,4400,,,,,VFR,,,,,,,,,,,,METAR,312.0
KJST 052154Z AUTO 09005KT 9SM -RA BKN055 OVC070 05/02 A2983 RMK AO2 SLP116 P0003 T00500017,KJST,2020-05-05T21:54:00Z,40.32,-78.83,5.0,1.7,90,5,,9.0,29.828741,1011.6,,TRUE,TRUE,,,,,,-RA,BKN,5500,OVC,7000,,,,,VFR,,,,,,0.03,,,,,,METAR,694.0
KJAN 052154Z 32006KT 10SM OVC070 27/17 A2992 RMK AO2 SLP128 T02670172,KJAN,2020-05-05T21:54:00Z,32.32,-90.08,26.7,17.2,320,6,,10.0,29.920275,1012.8,,,TRUE,,,,,,,OVC,7000,,,,,,,VFR,,,,,,,,,,,,METAR,91.0
KIZG 052154Z AUTO 36012G18KT 330V030 10SM CLR 09/M03 A2986 RMK AO2 SLP116 T00891028,KIZG,2020-05-05T21:54:00Z,43.98,-70.95,8.9,-2.8,360,12,18,10.0,29.861221,1011.6,,TRUE,TRUE,,,,,,,CLR,,,,,,,,VFR,,,,,,,,,,,,METAR,135.0
KISW 052154Z AUTO 06007G14KT 10SM SCT060 13/M01 A3002 RMK AO2 SLP169 T01331006,KISW,2020-05-05T21:54:00Z,44.37,-89.83,13.3,-0.6,60,7,14,10.0,30.02067,1016.9,,TRUE,TRUE,,,,,,,SCT,6000,,,,,,,VFR,,,,,,,,,,,,METAR,307.0
KIPT 052154Z 16003KT 10SM CLR 16/M08 A2984 RMK AO2 SLP106 T01561083,KIPT,2020-05-05T21:54:00Z,41.25,-76.92,15.6,-8.3,160,3,,10.0,29.840551,1010.6,,,TRUE,,,,,,,CLR,,,,,,,,VFR,,,,,,,,,,,,METAR,164.0
KINT 052154Z 04006KT 10SM OVC027 14/12 A2983 RMK AO2 SLP097 T01390117,KINT,2020-05-05T21:54:00Z,36.13,-80.22,13.9,11.7,40,6,,10.0,29.828741,1009.7,,,TRUE,,,,,,,OVC,2700,,,,,,,MVFR,,,,,,,,,,,,METAR,291.0
KIND 052154Z 05016G20KT 10SM OVC042 08/02 A2988 RMK AO2 SLP121 T00780017,KIND,2020-05-05T21:54:00Z,39.72,-86.3,7.8,1.7,50,16,20,10.0,29.878937,1012.1,,,TRUE,,,,,,,OVC,4200,,,,,,,VFR,,,,,,,,,,,,METAR,241.0
KILN 052154Z AUTO 11005KT 10SM OVC033 08/03 A2981 RMK AO2 SLP108 T00780033,KILN,2020-05-05T21:54:00Z,39.43,-83.8,7.8,3.3,110,5,,10.0,29.811024,1010.8,,TRUE,TRUE,,,,,,,OVC,3300,,,,,,,VFR,,,,,,,,,,,,METAR,322.0
KRKS 052154Z AUTO 30009G16KT 10SM CLR 18/M11 A3028 RMK AO2 PK WND 28027/2114 SLP212 T01781111,KRKS,2020-05-05T21:54:00Z,41.6,-109.07,17.8,-11.1,300,9,16,10.0,30.280512,1021.2,,TRUE,TRUE,,,,,,,CLR,,,,,,,,VFR,,,,,,,,,,,,METAR,2060.0
KRFD 052154Z 10007KT 7SM -RA BKN037 OVC046 08/04 A3001 RMK AO2 SLP168 P0002 T00780044,KRFD,2020-05-05T21:54:00Z,42.2,-89.1,7.8,4.4,100,7,,7.0,30.008858,1016.8,,,TRUE,,,,,,-RA,BKN,3700,OVC,4600,,,,,VFR,,,,,,0.02,,,,,,METAR,221.0
KRDG 052154Z AUTO 27007KT 10SM CLR 14/M02 A2987 RMK AO2 SLP119 T01441017,KRDG,2020-05-05T21:54:00Z,40.37,-75.97,14.4,-1.7,270,7,,10.0,29.870079,1011.9,,TRUE,TRUE,,,,,,,CLR,,,,,,,,VFR,,,,,,,,,,,,METAR,109.0
KROC 052154Z 03007KT 10SM BKN200 08/M10 A2998 RMK AO2 SLP159 T00831100 $,KROC,2020-05-05T21:54:00Z,43.12,-77.68,8.3,-10.0,30,7,,10.0,29.97933,1015.9,,,TRUE,TRUE,,,,,,BKN,20000,,,,,,,VFR,,,,,,,,,,,,METAR,178.0
KAAO 052154Z AUTO 32012KT 10SM CLR 23/02 A3009 RMK AO2 SLP183 T02330017,KAAO,2020-05-05T21:54:00Z,37.75,-97.22,23.3,1.7,320,12,,10.0,30.088583,1018.3,,TRUE,TRUE,,,,,,,CLR,,,,,,,,VFR,,,,,,,,,,,,METAR,434.0
KGSO 052154Z 03007KT 350V060 10SM FEW015 OVC029 15/11 A2981 RMK AO2 SLP091 T01500111,KGSO,2020-05-05T21:54:00Z,36.1,-79.95,15.0,11.1,30,7,,10.0,29.811024,1009.1,,,TRUE,,,,,,,FEW,1500,OVC,2900,,,,,MVFR,,,,,,,,,,,,METAR,275.0
KGED 052154Z AUTO 26004KT 10SM OVC090 15/03 A2989 RMK AO2 SLP119 T01500028,KGED,2020-05-05T21:54:00Z,38.68,-75.37,15.0,2.8,260,4,,10.0,29.890747,1011.9,,TRUE,TRUE,,,,,,,OVC,9000,,,,,,,VFR,,,,,,,,,,,,METAR,19.0
KGCN 052154Z 20011G17KT 10SM CLR 24/M06 A3026 RMK AO2 SLP184 T02391061,KGCN,2020-05-05T21:54:00Z,35.95,-112.15,23.9,-6.1,200,11,17,10.0,30.259842,1018.4,,,TRUE,,,,,,,CLR,,,,,,,,VFR,,,,,,,,,,,,METAR,2016.0
KGCK 052154Z 32008G16KT 270V360 10SM CLR 23/M06 A3014 RMK AO2 SLP187 T02331056,KGCK,2020-05-05T21:54:00Z,37.92,-100.72,23.3,-5.6,320,8,16,10.0,30.138779,1018.7,,,TRUE,,,,,,,CLR,,,,,,,,VFR,,,,,,,,,,,,METAR,877.0
KFZY 052154Z AUTO 34009KT 10SM CLR 08/M06 A2997 RMK AO2 SLP153 T00831056 $,KFZY,2020-05-05T21:54:00Z,43.35,-76.38,8.3,-5.6,340,9,,10.0,29.970472,1015.3,,TRUE,TRUE,TRUE,,,,,,CLR,,,,,,,,VFR,,,,,,,,,,,,METAR,138.0
KFWA 052154Z 04015G22KT 10SM -RA OVC041 07/01 A2992 RMK AO2 SLP136 P0003 T00670006,KFWA,2020-05-05T21:54:00Z,40.98,-85.18,6.7,0.6,40,15,22,10.0,29.920275,1013.6,,,TRUE,,,,,,-RA,OVC,4100,,,,,,,VFR,,,,,,0.03,,,,,,METAR,248.0
KPIA 052154Z 06010KT 10SM SCT009 OVC015 07/05 A2995 RMK AO2 RAE01 SLP144 P0000 T00720050,KPIA,2020-05-05T21:54:00Z,40.67,-89.68,7.2,5.0,60,10,,10.0,29.949802,1014.4,,,TRUE,,,,,,,SCT,900,OVC,1500,,,,,MVFR,,,,,,0.005,,,,,,METAR,205.0
KPHL 052154Z 28007KT 10SM SCT085 OVC120 14/M06 A2989 RMK AO2 SLP120 T01441056,KPHL,2020-05-05T21:54:00Z,39.87,-75.23,14.4,-5.6,280,7,,10.0,29.890747,1012.0,,,TRUE,,,,,,,SCT,8500,OVC,12000,,,,,VFR,,,,,,,,,,,,METAR,18.0
KPHF 052154Z 08004KT 10SM BKN042 OVC100 14/08 A2990 RMK AO2 SLP124 T01440083,KPHF,2020-05-05T21:54:00Z,37.13,-76.5,14.4,8.3,80,4,,10.0,29.899607,1012.4,,,TRUE,,,,,,,BKN,4200,OVC,10000,,,,,VFR,,,,,,,,,,,,METAR,12.0
KSBY 052154Z 30003KT 10SM OVC075 14/03 A2989 RMK AO2 SLP122 T01440033,KSBY,2020-05-05T21:54:00Z,38.33,-75.5,14.4,3.3,300,3,,10.0,29.890747,1012.2,,,TRUE,,,,,,,OVC,7500,,,,,,,VFR,,,,,,,,,,,,METAR,19.0
KSBN 052154Z 03008KT 10SM OVC080 09/M02 A2996 RMK AO2 SLP147 T00891017,KSBN,2020-05-05T21:54:00Z,41.7,-86.32,8.9,-1.7,30,8,,10.0,29.958662,1014.7,,,TRUE,,,,,,,OVC,8000,,,,,,,VFR,,,,,,,,,,,,METAR,237.0
KAKR 052154Z AUTO 07007KT 10SM SCT070 OVC095 14/M04 A2981 RMK AO2 SLP097 T01391039,KAKR,2020-05-05T21:54:00Z,41.03,-81.47,13.9,-3.9,70,7,,10.0,29.811024,1009.7,,TRUE,TRUE,,,,,,,SCT,7000,OVC,9500,,,,,VFR,,,,,,,,,,,,METAR,363.0
KAKQ 052154Z AUTO 08004KT 10SM SCT041 BKN060 14/08 A2990 RMK AO2 SLP126 T01440083 TSNO,KAKQ,2020-05-05T21:54:00Z,36.98,-77.0,14.4,8.3,80,4,,10.0,29.899607,1012.6,,TRUE,TRUE,,,TRUE,,,,SCT,4100,BKN,6000,,,,,VFR,,,,,,,,,,,,METAR,34.0
KSET 052154Z AUTO 31007KT 10SM FEW055 FEW090 18/09 A2990 RMK AO2 SLP123 T01780094,KSET,2020-05-05T21:54:00Z,38.93,-90.43,17.8,9.4,310,7,,10.0,29.899607,1012.3,,TRUE,TRUE,,,,,,,FEW,5500,FEW,9000,,,,,VFR,,,,,,,,,,,,METAR,134.0
KSLC 052154Z 00000KT 10SM FEW090 FEW150 BKN250 23/M07 A3020 RMK AO2 SLP193 T02331067,KSLC,2020-05-05T21:54:00Z,40.77,-111.97,23.3,-6.7,0,0,,10.0,30.200787,1019.3,,,TRUE,,,,,,,FEW,9000,FEW,15000,BKN,25000,,,VFR,,,,,,,,,,,,METAR,1286.0
KSJN 052154Z AUTO 29013G22KT 10SM CLR 29/M06 A3015 RMK AO2 SLP132 T02891056,KSJN,2020-05-05T21:54:00Z,34.52,-109.38,28.9,-5.6,290,13,22,10.0,30.15059,1013.2,,TRUE,TRUE,,,,,,,CLR,,,,,,,,VFR,,,,,,,,,,,,METAR,1745.0
KORH 052154Z 34011G16KT 10SM FEW070 13/M03 A2982 RMK AO2 SLP104 T01281033,KORH,2020-05-05T21:54:00Z,42.27,-71.87,12.8,-3.3,340,11,16,10.0,29.819881,1010.4,,,TRUE,,,,,,,FEW,7000,,,,,,,VFR,,,,,,,,,,,,METAR,304.0
KOLS 052154Z AUTO 27008G15KT 10SM CLR 35/M02 A3002 RMK AO2 SLP101 T03501022,KOLS,2020-05-05T21:54:00Z,31.42,-110.85,35.0,-2.2,270,8,15,10.0,30.02067,1010.1,,TRUE,TRUE,,,,,,,CLR,,,,,,,,VFR,,,,,,,,,,,,METAR,1184.0
KOLM 052154Z 00000KT 10SM FEW050 FEW080 19/07 A3006 RMK AO2 SLP178 T01940072,KOLM,2020-05-05T21:54:00Z,46.97,-122.9,19.4,7.2,0,0,,10.0,30.059055,1017.8,,,TRUE,,,,,,,FEW,5000,FEW,8000,,,,,VFR,,,,,,,,,,,,METAR,58.0
KOFP 052154Z AUTO 07004KT 10SM FEW055 BKN080 BKN095 14/08 A2990 RMK AO2 SLP123 T01390078,KOFP,2020-05-05T21:54:00Z,37.7,-77.43,13.9,7.8,70,4,,10.0,29.899607,1012.3,,TRUE,TRUE,,,,,,,FEW,5500,BKN,8000,BKN,9500,,,VFR,,,,,,,,,,,,METAR,62.0
KBOS 052154Z 34014G18KT 10SM SCT065 BKN250 14/M03 A2983 RMK AO2 SLP100 T01391028,KBOS,2020-05-05T21:54:00Z,42.37,-71.02,13.9,-2.8,340,14,18,10.0,29.828741,1010.0,,,TRUE,,,,,,,SCT,6500,BKN,25000,,,,,VFR,,,,,,,,,,,,METAR,6.0
KBFL 052154Z 28010KT 10SM CLR 29/04 A3003 RMK AO2 SLP162 T02940039,KBFL,2020-05-05T21:54:00Z,35.43,-119.05,29.4,3.9,280,10,,10.0,30.029528,1016.2,,,TRUE,,,,,,,CLR,,,,,,,,VFR,,,,,,,,,,,,METAR,151.0
KAVP 052154Z VRB05KT 10SM CLR 16/M08 A2986 RMK AO2 SLP112 T01561078,KAVP,2020-05-05T21:54:00Z,41.33,-75.72,15.6,-7.8,0,5,,10.0,29.861221,1011.2,,,TRUE,,,,,,,CLR,,,,,,,,VFR,,,,,,,,,,,,METAR,291.0
KAVL 052154Z 22005KT 10SM VCTS BKN090 19/17 A2982 RMK AO2 LTG DSNT S AND W RAE2059 SLP079 P0001 T01940167,KAVL,2020-05-05T21:54:00Z,35.43,-82.53,19.4,16.7,220,5,,10.0,29.819881,1007.9,,,TRUE,,,,,,VCTS,BKN,9000,,,,,,,VFR,,,,,,0.01,,,,,,METAR,670.0
KAUW 052154Z AUTO 00000KT 10SM CLR 13/M06 A3000 RMK AO2 SLP169 T01281061,KAUW,2020-05-05T21:54:00Z,44.93,-89.62,12.8,-6.1,0,0,,10.0,30.0,1016.9,,TRUE,TRUE,,,,,,,CLR,,,,,,,,VFR,,,,,,,,,,,,METAR,362.0
KAPN 052154Z 05007KT 10SM CLR 08/M13 A3005 RMK AO2 SLP182 T00781133,KAPN,2020-05-05T21:54:00Z,45.07,-83.57,7.8,-13.3,50,7,,10.0,30.050198,1018.2,,,TRUE,,,,,,,CLR,,,,,,,,VFR,,,,,,,,,,,,METAR,210.0
KALO 052154Z 06013G22KT 8SM -RA FEW012 BKN031 OVC038 09/07 A2999 RMK AO2 SLP161 P0002 T00940067,KALO,2020-05-05T21:54:00Z,42.55,-92.4,9.4,6.7,60,13,22,8.0,29.991142,1016.1,,,TRUE,,,,,,-RA,FEW,1200,BKN,3100,OVC,3800,,,VFR,,,,,,0.02,,,,,,METAR,264.0
KCRW 052154Z VRB03KT 1SM -RA BR BKN004 OVC012 12/11 A2972 RMK AO2 SLP062 P0004 T01220111 RVRNO,KCRW,2020-05-05T21:54:00Z,38.38,-81.58,12.2,11.1,0,3,,1.0,29.719488,1006.2,,,TRUE,,,,,,-RA BR,BKN,400,OVC,1200,,,,,LIFR,,,,,,0.04,,,,,,METAR,309.0
KCOU 052154Z 27019G31KT 10SM SCT085 21/03 A2992 RMK AO2 PK WND 30032/2125 SLP127 T02110033,KCOU,2020-05-05T21:54:00Z,38.82,-92.22,21.1,3.3,270,19,31,10.0,29.920275,1012.7,,,TRUE,,,,,,,SCT,8500,,,,,,,VFR,,,,,,,,,,,,METAR,271.0
KCOS 052154Z 06006KT 10SM FEW100 BKN140 BKN220 18/M04 A3021 RMK AO2 SLP201 T01831044,KCOS,2020-05-05T21:54:00Z,38.82,-104.68,18.3,-4.4,60,6,,10.0,30.209646,1020.1,,,TRUE,,,,,,,FEW,10000,BKN,14000,BKN,22000,,,VFR,,,,,,,,,,,,METAR,1856.0
KECG 052154Z 06006KT 10SM OVC029 14/08 A2989 RMK AO2 PRESRR SLP123 T01440083,KECG,2020-05-05T21:54:00Z,36.27,-76.18,14.4,8.3,60,6,,10.0,29.890747,1012.3,,,TRUE,,,,,,,OVC,2900,,,,,,,MVFR,,,,,,,,,,,,METAR,11.0
KDYL 052154Z AUTO 34004KT 10SM CLR 16/M05 A2986 RMK AO2 SLP111 T01611050,KDYL,2020-05-05T21:54:00Z,40.33,-75.12,16.1,-5.0,340,4,,10.0,29.861221,1011.1,,TRUE,TRUE,,,,,,,CLR,,,,,,,,VFR,,,,,,,,,,,,METAR,117.0
KDSV 052154Z AUTO 31013KT 10SM CLR 12/M02 A2993 RMK AO2 SLP147 T01171017,KDSV,2020-05-05T21:54:00Z,42.57,-77.72,11.7,-1.7,310,13,,10.0,29.929134,1014.7,,TRUE,TRUE,,,,,,,CLR,,,,,,,,VFR,,,,,,,,,,,,METAR,198.0
KDDH 052154Z AUTO 31004KT 10SM BKN070 13/M03 A2985 RMK AO2 SLP111 T01281033,KDDH,2020-05-05T21:54:00Z,42.9,-73.25,12.8,-3.3,310,4,,10.0,29.84941,1011.1,,TRUE,TRUE,,,,,,,BKN,7000,,,,,,,VFR,,,,,,,,,,,,METAR,244.0
KPLN 052154Z AUTO 10004KT 10SM CLR 09/M15 A3005 RMK AO2 SLP184 T00891150,KPLN,2020-05-05T21:54:00Z,45.57,-84.8,8.9,-15.0,100,4,,10.0,30.050198,1018.4,,TRUE,TRUE,,,,,,,CLR,,,,,,,,VFR,,,,,,,,,,,,METAR,217.0
KPNE 052154Z AUTO 27005KT 10SM SCT120 15/M02 A2989 RMK AO2 SLP121 T01501022,KPNE,2020-05-05T21:54:00Z,40.08,-75.02,15.0,-2.2,270,5,,10.0,29.890747,1012.1,,TRUE,TRUE,,,,,,,SCT,12000,,,,,,,VFR,,,,,,,,,,,,METAR,28.0
PHOG 052154Z 07018G28KT 10SM FEW040 29/16 A3004 RMK AO2 PK WND 04028/2104 SLP176 T02940156,PHOG,2020-05-05T21:54:00Z,20.9,-156.43,29.4,15.6,70,18,28,10.0,30.041338,1017.6,,,TRUE,,,,,,,FEW,4000,,,,,,,VFR,,,,,,,,,,,,METAR,12.0
PHMK 052154Z 04013G23KT 10SM CLR 28/17 A3007 RMK AO2 SLP183 T02780172,PHMK,2020-05-05T21:54:00Z,21.15,-157.1,27.8,17.2,40,13,23,10.0,30.070866,1018.3,,,TRUE,,,,,,,CLR,,,,,,,,VFR,,,,,,,,,,,,SPECI,141.0
KBKB 052154Z AUTO VRB04KT 10SM BKN080 28/21 A2989 RMK AO2 SLP148 T02830211,KBKB,2020-05-05T21:54:00Z,31.0,-92.92,28.3,21.1,0,4,,10.0,29.890747,1014.8,,TRUE,TRUE,,,,,,,BKN,8000,,,,,,,VFR,,,,,,,,,,,,METAR,94.0
MMCB 052154Z 20003KT 8SM SCT030 SCT080 24/10 A2993 RMK 8/170 HZY,MMCB,2020-05-05T21:54:00Z,18.83,-99.27,24.0,10.0,200,3,,8.0,29.929134,,,,,,,,,,,SCT,3000,SCT,8000,,,,,VFR,,,,,,,,,,,,METAR,1560.0
MMQT 052154Z 07018KT 8SM BKN020CB BKN110 OVC240 25/09 A3016 RMK 8/363,MMQT,2020-05-05T21:54:00Z,20.62,-100.18,25.0,9.0,70,18,,8.0,30.159449,,,,,,,,,,,BKN,2000,BKN,11000,OVC,24000,,,MVFR,,,,,,,,,,,,METAR,1919.0
KIMT 052154Z AUTO 07006KT 10SM CLR 12/M07 A3003 RMK AO2 SLP178 T01171072,KIMT,2020-05-05T21:54:00Z,45.82,-88.12,11.7,-7.2,70,6,,10.0,30.029528,1017.8,,TRUE,TRUE,,,,,,,CLR,,,,,,,,VFR,,,,,,,,,,,,METAR,349.0
PGSN 052154Z 10012KT 10SM SCT016 30/23 A2993 RMK AO2 SLP155 T03000233,PGSN,2020-05-05T21:54:00Z,15.12,145.72,30.0,23.3,100,12,,10.0,29.929134,1015.5,,,TRUE,,,,,,,SCT,1600,,,,,,,VFR,,,,,,,,,,,,SPECI,65.0
KACY 052154Z 25005KT 10SM OVC110 16/M01 A2987 RMK AO2 SLP115 T01561011,KACY,2020-05-05T21:54:00Z,39.45,-74.57,15.6,-1.1,250,5,,10.0,29.870079,1011.5,,,TRUE,,,,,,,OVC,11000,,,,,,,VFR,,,,,,,,,,,,METAR,23.0
K1V4 052154Z AUTO 08/M02 A2989 RMK AO1 SLP127 T00781022,K1V4,2020-05-05T21:54:00Z,44.42,-72.02,7.8,-2.2,,,,,29.890747,1012.7,,TRUE,TRUE,,,,,,,,,,,,,,,,,,,,,,,,,,,METAR,210.0
K12N 052154Z AUTO VRB04KT 17/M08 A2984 RMK AO1 SLP106 T01671078,K12N,2020-05-05T21:54:00Z,41.02,-74.73,16.7,-7.8,0,4,,,29.840551,1010.6,,TRUE,TRUE,,,,,,,,,,,,,,,,,,,,,,,,,,,METAR,177.0
KDMH 052154Z AUTO 15/00 A2988 RMK AO1 SLP117 T01500000,KDMH,2020-05-05T21:54:00Z,39.28,-76.62,15.0,0.0,,,,,29.878937,1011.7,,TRUE,TRUE,,,,,,,,,,,,,,,,,,,,,,,,,,,METAR,5.0
KNAK 052154Z AUTO 14007KT 10SM OVC095 13/06 A2988 RMK AO2 SLP120 T01330056 $,KNAK,2020-05-05T21:54:00Z,38.98,-76.48,13.3,5.6,140,7,,10.0,29.878937,1012.0,,TRUE,TRUE,TRUE,,,,,,OVC,9500,,,,,,,VFR,,,,,,,,,,,,METAR,2.0
KNKT 052154Z AUTO 06009KT 10SM SCT020 BKN030 20/14 A2985 RMK AO2 SLP103 T02000144,KNKT,2020-05-05T21:54:00Z,34.9,-76.88,20.0,14.4,60,9,,10.0,29.84941,1010.3,,TRUE,TRUE,,,,,,,SCT,2000,BKN,3000,,,,,MVFR,,,,,,,,,,,,METAR,9.0
KLWT 052154Z AUTO 31008KT 270V350 10SM CLR 13/M03 A3028 RMK AO2 SLP260 T01281028,KLWT,2020-05-05T21:54:00Z,47.03,-109.47,12.8,-2.8,310,8,,10.0,30.280512,1026.0,,TRUE,TRUE,,,,,,,CLR,,,,,,,,VFR,,,,,,,,,,,,METAR,1270.0
KLWM 052154Z 32009G18KT 10SM FEW065 13/M01 A2985 RMK AO2 SLP107 T01331011,KLWM,2020-05-05T21:54:00Z,42.72,-71.13,13.3,-1.1,320,9,18,10.0,29.84941,1010.7,,,TRUE,,,,,,,FEW,6500,,,,,,,VFR,,,,,,,,,,,,METAR,54.0
KWLD 052154Z AUTO 34014G21KT 10SM CLR 24/02 A3010 RMK AO2 SLP187 T02440022,KWLD,2020-05-05T21:54:00Z,37.17,-97.03,24.4,2.2,340,14,21,10.0,30.100393,1018.7,,TRUE,TRUE,,,,,,,CLR,,,,,,,,VFR,,,,,,,,,,,,METAR,350.0
KLNK 052154Z 33028G37KT 10SM FEW080 20/01 A3008 RMK AO2 PK WND 34040/2101 SLP181 T02000006,KLNK,2020-05-05T21:54:00Z,40.85,-96.77,20.0,0.6,330,28,37,10.0,30.079725,1018.1,,,TRUE,,,,,,,FEW,8000,,,,,,,VFR,,,,,,,,,,,,METAR,364.0
KFFZ 052154Z 24005KT 10SM CLR 37/M01 A2987 RMK AO2 SLP088 T03721011,KFFZ,2020-05-05T21:54:00Z,33.47,-111.72,37.2,-1.1,240,5,,10.0,29.870079,1008.8,,,TRUE,,,,,,,CLR,,,,,,,,VFR,,,,,,,,,,,,METAR,424.0
KFIG 052154Z AUTO 00000KT 10SM CLR 14/M08 A2984 RMK AO2 SLP109 T01391078,KFIG,2020-05-05T21:54:00Z,41.05,-78.42,13.9,-7.8,0,0,,10.0,29.840551,1010.9,,TRUE,TRUE,,,,,,,CLR,,,,,,,,VFR,,,,,,,,,,,,METAR,462.0
KSUS 052154Z AUTO 30016G21KT 10SM FEW065 BKN085 20/07 A2990 RMK AO2 PK WND 30026/2132 SLP122 T02000072,KSUS,2020-05-05T21:54:00Z,38.65,-90.65,20.0,7.2,300,16,21,10.0,29.899607,1012.2,,TRUE,TRUE,,,,,,,FEW,6500,BKN,8500,,,,,VFR,,,,,,,,,,,,METAR,141.0
PTKK 052154Z 00000KT 15SM SCT013CB BKN120 OVC280 28/28 A2985 RMK CB ALQDS SLP110 T02820275,PTKK,2020-05-05T21:54:00Z,7.47,151.85,28.2,27.5,0,0,,15.0,29.84941,1011.0,,,,,,,,,,SCT,1300,BKN,12000,OVC,28000,,,VFR,,,,,,,,,,,,SPECI,2.0
KGRI 052153Z 35019G30KT 10SM FEW100 19/M02 A3011 RMK AO2 PK WND 36030/2151 SLP199 T01891022,KGRI,2020-05-05T21:53:00Z,40.97,-98.32,18.9,-2.2,350,19,30,10.0,30.109253,1019.9,,,TRUE,,,,,,,FEW,10000,,,,,,,VFR,,,,,,,,,,,,METAR,561.0
KMAF 052153Z 08014G19KT 10SM CLR 28/04 A3013 RMK AO2 SLP158 T02780044,KMAF,2020-05-05T21:53:00Z,31.95,-102.2,27.8,4.4,80,14,19,10.0,30.129921,1015.8,,,TRUE,,,,,,,CLR,,,,,,,,VFR,,,,,,,,,,,,METAR,874.0
KMAE 052153Z AUTO 31011KT 10SM CLR 31/01 A3005 RMK AO2 SLP173 T03060006,KMAE,2020-05-05T21:53:00Z,36.98,-120.12,30.6,0.6,310,11,,10.0,30.050198,1017.3,,TRUE,TRUE,,,,,,,CLR,,,,,,,,VFR,,,,,,,,,,,,METAR,77.0
KLXV 052153Z AUTO VRB06G20KT 10SM CLR 11/M15 A3037 RMK AO2 PK WND 34028/2114 SLP189 T01111150,KLXV,2020-05-05T21:53:00Z,39.23,-106.32,11.1,-15.0,0,6,20,10.0,30.369095,1018.9,,TRUE,TRUE,,,,,,,CLR,,,,,,,,VFR,,,,,,,,,,,,METAR,3028.0
KMTJ 052153Z AUTO 34011G18KT 310V010 10SM CLR 22/M14 A3023 RMK AO2 SLP185 T02171139,KMTJ,2020-05-05T21:53:00Z,38.5,-107.9,21.7,-13.9,340,11,18,10.0,30.230314,1018.5,,TRUE,TRUE,,,,,,,CLR,,,,,,,,VFR,,,,,,,,,,,,METAR,1750.0
KLND 052153Z AUTO 30008G17KT 10SM FEW110 19/M09 A3019 RMK AO2 SLP192 T01891094,KLND,2020-05-05T21:53:00Z,42.82,-108.73,18.9,-9.4,300,8,17,10.0,30.188976,1019.2,,TRUE,TRUE,,,,,,,FEW,11000,,,,,,,VFR,,,,,,,,,,,,METAR,1694.0
KMYV 052153Z AUTO 21010KT 10SM CLR 30/00 A3005 RMK AO2 SLP178 T03000000,KMYV,2020-05-05T21:53:00Z,39.1,-121.57,30.0,0.0,210,10,,10.0,30.050198,1017.8,,TRUE,TRUE,,,,,,,CLR,,,,,,,,VFR,,,,,,,,,,,,METAR,21.0
KAIA 052153Z AUTO 32007KT 10SM SCT085 16/01 A3015 RMK AO2 SLP210 T01560006,KAIA,2020-05-05T21:53:00Z,42.05,-102.8,15.6,0.6,320,7,,10.0,30.15059,1021.0,,TRUE,TRUE,,,,,,,SCT,8500,,,,,,,VFR,,,,,,,,,,,,METAR,1196.0
PAGY 052153Z AUTO 21025KT 10SM CLR 12/03 A3004 RMK PK WND 21030/2147 SLP171 T01170028 TSNO VIA AUTODIAL,PAGY,2020-05-05T21:53:00Z,59.47,-135.3,11.7,2.8,210,25,,10.0,30.041338,1017.1,,TRUE,,,,TRUE,,,,CLR,,,,,,,,VFR,,,,,,,,,,,,METAR,5.0
PAKT 052153Z 12009KT 10SM SCT037 BKN050 11/06 A3013 RMK RAB03E53 SLP205 HARBOR WND 13014KT P0000 T01060056 VIA AUTODIAL,PAKT,2020-05-05T21:53:00Z,55.35,-131.7,10.6,5.6,120,9,,10.0,30.129921,1020.5,,,,,,,,,,SCT,3700,BKN,5000,,,,,VFR,,,,,,0.005,,,,,,METAR,28.0
PAWI 052153Z AUTO 07008KT OVC003 M09/M12 A3019 RMK SLP225 I1004 T10941117 TSNO $ VIA AUTODIAL,PAWI,2020-05-05T21:53:00Z,70.63,-160.02,-9.4,-11.7,70,8,,,30.188976,1022.5,,TRUE,,TRUE,,TRUE,,,,OVC,300,,,,,,,,,,,,,,,,,,,METAR,12.0
PASN 052153Z AUTO 06008KT 7SM OVC016 02/M03 A3004 RMK SLP173 T00171028 PWINO FZRANO TSNO $ VIA AUTODIAL,PASN,2020-05-05T21:53:00Z,57.15,-170.22,1.7,-2.8,60,8,,7.0,30.041338,1017.3,,TRUE,,TRUE,,TRUE,TRUE,TRUE,,OVC,1600,,,,,,,MVFR,,,,,,,,,,,,METAR,29.0
PAQT 052153Z AUTO 32005KT 8SM UP OVC005 M11/M12 A3018 RMK SLP220 P0000 T11111122 TSNO VIA AUTODIAL,PAQT,2020-05-05T21:53:00Z,70.22,-151.0,-11.1,-12.2,320,5,,8.0,30.180119,1022.0,,TRUE,,,,TRUE,,,UP,OVC,500,,,,,,,IFR,,,,,,0.005,,,,,,METAR,12.0
PAKW 052153Z AUTO 17009G18KT 140V200 10SM FEW048 BKN065 14/04 A3006 RMK SLP179 T01390039 TSNO VIA AUTODIAL,PAKW,2020-05-05T21:53:00Z,55.58,-133.07,13.9,3.9,170,9,18,10.0,30.059055,1017.9,,TRUE,,,,TRUE,,,,FEW,4800,BKN,6500,,,,,VFR,,,,,,,,,,,,METAR,15.0
KMYF 052153Z 29008KT 10SM CLR 29/12 A2994 RMK AO2 SLP133 T02940122,KMYF,2020-05-05T21:53:00Z,32.82,-117.13,29.4,12.2,290,8,,10.0,29.940945,1013.3,,,TRUE,,,,,,,CLR,,,,,,,,VFR,,,,,,,,,,,,METAR,136.0
KMWL 052153Z AUTO 36008G18KT 10SM CLR 26/07 A3008 RMK AO2 PK WND 03026/2135 SLP173 T02560067,KMWL,2020-05-05T21:53:00Z,32.78,-98.07,25.6,6.7,360,8,18,10.0,30.079725,1017.3,,TRUE,TRUE,,,,,,,CLR,,,,,,,,VFR,,,,,,,,,,,,METAR,284.0
KMVY 052153Z AUTO 03007KT 10SM SCT075 12/01 A2983 RMK AO2 SLP103 T01220011,KMVY,2020-05-05T21:53:00Z,41.4,-70.62,12.2,1.1,30,7,,10.0,29.828741,1010.3,,TRUE,TRUE,,,,,,,SCT,7500,,,,,,,VFR,,,,,,,,,,,,METAR,16.0
KNEW 052153Z 26005KT 10SM CLR 29/19 A2990 RMK AO2 SLP119 T02940194,KNEW,2020-05-05T21:53:00Z,30.05,-90.03,29.4,19.4,260,5,,10.0,29.899607,1011.9,,,TRUE,,,,,,,CLR,,,,,,,,VFR,,,,,,,,,,,,METAR,3.0
KAGS 052153Z AUTO 23008KT 10SM CLR 31/17 A2976 RMK AO2 SLP077 T03110167,KAGS,2020-05-05T21:53:00Z,33.37,-81.97,31.1,16.7,230,8,,10.0,29.760826,1007.7,,TRUE,TRUE,,,,,,,CLR,,,,,,,,VFR,,,,,,,,,,,,METAR,44.0
KAGC 052153Z 12003KT 8SM -RA OVC070 08/03 A2981 RMK AO2 RAB2054 SLP107 P0004 T00830028,KAGC,2020-05-05T21:53:00Z,40.35,-79.92,8.3,2.8,120,3,,8.0,29.811024,1010.7,,,TRUE,,,,,,-RA,OVC,7000,,,,,,,VFR,,,,,,0.04,,,,,,METAR,389.0
KAMA 052153Z 09006KT 10SM CLR 22/M03 A3019 RMK AO2 SLP189 T02171028,KAMA,2020-05-05T21:53:00Z,35.22,-101.72,21.7,-2.8,90,6,,10.0,30.188976,1018.9,,,TRUE,,,,,,,CLR,,,,,,,,VFR,,,,,,,,,,,,METAR,1093.0
KALW 052153Z 26005KT 10SM CLR 24/03 A3000 RMK AO2 SLP157 T02440028,KALW,2020-05-05T21:53:00Z,46.1,-118.28,24.4,2.8,260,5,,10.0,30.0,1015.7,,,TRUE,,,,,,,CLR,,,,,,,,VFR,,,,,,,,,,,,METAR,363.0
KALI 052153Z AUTO 13009KT 10SM FEW044 34/22 A2986 RMK AO2 SLP110 T03390222 $,KALI,2020-05-05T21:53:00Z,27.73,-98.02,33.9,22.2,130,9,,10.0,29.861221,1011.0,,TRUE,TRUE,TRUE,,,,,,FEW,4400,,,,,,,VFR,,,,,,,,,,,,METAR,53.0
KAKO 052153Z AUTO 26011G22KT 10SM CLR 19/M05 A3016 RMK AO2 SLP191 T01941050,KAKO,2020-05-05T21:53:00Z,40.17,-103.22,19.4,-5.0,260,11,22,10.0,30.159449,1019.1,,TRUE,TRUE,,,,,,,CLR,,,,,,,,VFR,,,,,,,,,,,,METAR,1421.0
KOVS 052153Z AUTO 02007KT 10SM BKN075 BKN090 11/03 A3001 RMK AO2 RAE22 SLP168 P0000 T01110033,KOVS,2020-05-05T21:53:00Z,43.15,-90.68,11.1,3.3,20,7,,10.0,30.008858,1016.8,,TRUE,TRUE,,,,,,,BKN,7500,BKN,9000,,,,,VFR,,,,,,0.005,,,,,,METAR,202.0
KSTS 052153Z 24014G18KT 10SM CLR 24/11 A3009 RMK AO2 SLP184 T02440111,KSTS,2020-05-05T21:53:00Z,38.5,-122.82,24.4,11.1,240,14,18,10.0,30.088583,1018.4,,,TRUE,,,,,,,CLR,,,,,,,,VFR,,,,,,,,,,,,METAR,39.0
KSTP 052153Z AUTO 00000KT 10SM CLR 16/M07 A3004 RMK AO2 SLP172 T01561072,KSTP,2020-05-05T21:53:00Z,44.93,-93.05,15.6,-7.2,0,0,,10.0,30.041338,1017.2,,TRUE,TRUE,,,,,,,CLR,,,,,,,,VFR,,,,,,,,,,,,METAR,219.0
KPAH 052153Z VRB05KT 10SM SCT044 SCT060 19/11 A2990 RMK AO2 RAB02E13 SLP123 P0000 T01940106,KPAH,2020-05-05T21:53:00Z,37.07,-88.77,19.4,10.6,0,5,,10.0,29.899607,1012.3,,,TRUE,,,,,,,SCT,4400,SCT,6000,,,,,VFR,,,,,,0.005,,,,,,METAR,119.0
KPAE 052153Z 36004KT 10SM BKN085 19/08 A3007 RMK AO2 SLP181 T01890083,KPAE,2020-05-05T21:53:00Z,47.92,-122.28,18.9,8.3,360,4,,10.0,30.070866,1018.1,,,TRUE,,,,,,,BKN,8500,,,,,,,VFR,,,,,,,,,,,,METAR,180.0
KOXB 052153Z AUTO VRB05KT 10SM OVC085 13/07 A2990 RMK AO2 SLP123 T01280067,KOXB,2020-05-05T21:53:00Z,38.32,-75.12,12.8,6.7,0,5,,10.0,29.899607,1012.3,,TRUE,TRUE,,,,,,,OVC,8500,,,,,,,VFR,,,,,,,,,,,,METAR,3.0
KOWD 052153Z 34008KT 10SM CLR 15/M03 A2982 RMK AO2 SLP098 T01501028,KOWD,2020-05-05T21:53:00Z,42.18,-71.17,15.0,-2.8,340,8,,10.0,29.819881,1009.8,,,TRUE,,,,,,,CLR,,,,,,,,VFR,,,,,,,,,,,,METAR,19.0
KPBF 052153Z AUTO 33009KT 10SM CLR 24/08 A2998 RMK AO2 SLP148 T02390083,KPBF,2020-05-05T21:53:00Z,34.18,-91.93,23.9,8.3,330,9,,10.0,29.97933,1014.8,,TRUE,TRUE,,,,,,,CLR,,,,,,,,VFR,,,,,,,,,,,,METAR,62.0
KMSS 052153Z AUTO 35008KT 10SM FEW060 12/M03 A2994 RMK AO2 SLP144 T01171028,KMSS,2020-05-05T21:53:00Z,44.93,-74.85,11.7,-2.8,350,8,,10.0,29.940945,1014.4,,TRUE,TRUE,,,,,,,FEW,6000,,,,,,,VFR,,,,,,,,,,,,METAR,66.0
KPBG 052153Z AUTO 36010KT 10SM OVC060 11/M03 A2991 RMK AO2 SLP130 T01061028,KPBG,2020-05-05T21:53:00Z,44.65,-73.47,10.6,-2.8,360,10,,10.0,29.911417,1013.0,,TRUE,TRUE,,,,,,,OVC,6000,,,,,,,VFR,,,,,,,,,,,,METAR,72.0
KPBI 052153Z 15013KT 10SM FEW044 FEW250 29/20 A2992 RMK AO2 SLP132 T02940200 $,KPBI,2020-05-05T21:53:00Z,26.68,-80.1,29.4,20.0,150,13,,10.0,29.920275,1013.2,,,TRUE,TRUE,,,,,,FEW,4400,FEW,25000,,,,,VFR,,,,,,,,,,,,METAR,6.0
KPDK 052153Z 23013G20KT 10SM FEW040 26/18 A2982 RMK AO2 SLP085 T02610178,KPDK,2020-05-05T21:53:00Z,33.88,-84.3,26.1,17.8,230,13,20,10.0,29.819881,1008.5,,,TRUE,,,,,,,FEW,4000,,,,,,,VFR,,,,,,,,,,,,METAR,302.0
KPDT 052153Z 10SM CLR 26/01 A3001 RMK AO2 SLP153 T02560011,KPDT,2020-05-05T21:53:00Z,45.7,-118.83,25.6,1.1,,,,10.0,30.008858,1015.3,,,TRUE,,,,,,,CLR,,,,,,,,VFR,,,,,,,,,,,,METAR,462.0
KPEO 052153Z AUTO 05007G14KT 10SM CLR 09/M03 A2995 RMK AO2 SLP147 T00891028,KPEO,2020-05-05T21:53:00Z,42.65,-77.05,8.9,-2.8,50,7,14,10.0,29.949802,1014.7,,TRUE,TRUE,,,,,,,CLR,,,,,,,,VFR,,,,,,,,,,,,METAR,256.0
KPDX 052153Z 33004KT 10SM FEW080 FEW100 22/08 A3004 RMK AO2 SLP170 T02220078,KPDX,2020-05-05T21:53:00Z,45.6,-122.62,22.2,7.8,330,4,,10.0,30.041338,1017.0,,,TRUE,,,,,,,FEW,8000,FEW,10000,,,,,VFR,,,,,,,,,,,,METAR,7.0
KPGA 052153Z AUTO 03006KT 10SM CLR 27/M14 A3014 RMK AO2 SLP152 T02721139 TSNO,KPGA,2020-05-05T21:53:00Z,36.92,-111.45,27.2,-13.9,30,6,,10.0,30.138779,1015.2,,TRUE,TRUE,,,TRUE,,,,CLR,,,,,,,,VFR,,,,,,,,,,,,METAR,1307.0
MMUN 052153Z 11013KT 7SM SCT015 BKN250 30/24 A2989 RMK 8/108,MMUN,2020-05-05T21:53:00Z,21.02,-86.85,30.0,24.0,110,13,,7.0,29.890747,,,,,,,,,,,SCT,1500,BKN,25000,,,,,VFR,,,,,,,,,,,,METAR,10.0
KOVE 052153Z AUTO 16007G14KT 130V210 10SM CLR 31/M03 A3006 RMK AO2 SLP178 T03061028,KOVE,2020-05-05T21:53:00Z,39.5,-121.62,30.6,-2.8,160,7,14,10.0,30.059055,1017.8,,TRUE,TRUE,,,,,,,CLR,,,,,,,,VFR,,,,,,,,,,,,METAR,58.0
KOSU 052153Z 02011KT 10SM -RA OVC045 09/01 A2982 RMK AO2 RAB19 SLP102 P0000 T00890006,KOSU,2020-05-05T21:53:00Z,40.08,-83.08,8.9,0.6,20,11,,10.0,29.819881,1010.2,,,TRUE,,,,,,-RA,OVC,4500,,,,,,,VFR,,,,,,0.005,,,,,,METAR,280.0
KOSH 052153Z 01006KT 10SM CLR 11/M02 A3002 RMK AO2 SLP170 T01111017,KOSH,2020-05-05T21:53:00Z,43.97,-88.55,11.1,-1.7,10,6,,10.0,30.02067,1017.0,,,TRUE,,,,,,,CLR,,,,,,,,VFR,,,,,,,,,,,,METAR,248.0
KORL 052153Z AUTO 32007KT 10SM SCT060 32/17 A2991 RMK AO2 SLP130 T03220167,KORL,2020-05-05T21:53:00Z,28.55,-81.33,32.2,16.7,320,7,,10.0,29.911417,1013.0,,TRUE,TRUE,,,,,,,SCT,6000,,,,,,,VFR,,,,,,,,,,,,METAR,37.0
KOPF 052153Z 16010KT 10SM CLR 30/20 A2993 RMK AO2 SLP135 T03000200,KOPF,2020-05-05T21:53:00Z,25.92,-80.28,30.0,20.0,160,10,,10.0,29.929134,1013.5,,,TRUE,,,,,,,CLR,,,,,,,,VFR,,,,,,,,,,,,METAR,16.0
KONT 052153Z 25008KT 210V290 10SM CLR 35/04 A2993 RMK AO2 SLP116 HAZY T03500039 $,KONT,2020-05-05T21:53:00Z,34.05,-117.58,35.0,3.9,250,8,,10.0,29.929134,1011.6,,,TRUE,TRUE,,,,,,CLR,,,,,,,,VFR,,,,,,,,,,,,METAR,274.0
KONO 052153Z AUTO VRB03KT 10SM CLR 28/02 A3004 RMK AO2 SLP168 T02780017,KONO,2020-05-05T21:53:00Z,44.02,-117.02,27.8,1.7,0,3,,10.0,30.041338,1016.8,,TRUE,TRUE,,,,,,,CLR,,,,,,,,VFR,,,,,,,,,,,,METAR,667.0
KOMK 052153Z AUTO VRB06KT 10SM FEW100 22/01 A3009 RMK AO2 SLP188 T02220006,KOMK,2020-05-05T21:53:00Z,48.47,-119.52,22.2,0.6,0,6,,10.0,30.088583,1018.8,,TRUE,TRUE,,,,,,,FEW,10000,,,,,,,VFR,,,,,,,,,,,,METAR,395.0
KOLF 052153Z AUTO 00000KT 10SM SCT070 BKN100 16/00 A3023 RMK AO2 SLP246 T01610000,KOLF,2020-05-05T21:53:00Z,48.1,-105.58,16.1,0.0,0,0,,10.0,30.230314,1024.6,,TRUE,TRUE,,,,,,,SCT,7000,BKN,10000,,,,,VFR,,,,,,,,,,,,METAR,604.0
KOJC 052153Z COR 31020G33KT 10SM FEW095 21/00 A3000 RMK AO2 PK WND 32034/2143 SLP153 T02110000,KOJC,2020-05-05T21:53:00Z,38.85,-94.73,21.1,0.0,310,20,33,10.0,30.0,1015.3,TRUE,,TRUE,,,,,,,FEW,9500,,,,,,,VFR,,,,,,,,,,,,METAR,326.0
KOGD 052153Z 00000KT 10SM CLR 23/M11 A3022 RMK AO2 SLP198 T02281111 $,KOGD,2020-05-05T21:53:00Z,41.2,-112.02,22.8,-11.1,0,0,,10.0,30.221457,1019.8,,,TRUE,TRUE,,,,,,CLR,,,,,,,,VFR,,,,,,,,,,,,METAR,1353.0
KOGB 052153Z AUTO 25010KT 10SM CLR 31/15 A2977 RMK AO2 SLP076 T03060150,KOGB,2020-05-05T21:53:00Z,33.47,-80.85,30.6,15.0,250,10,,10.0,29.769686,1007.6,,TRUE,TRUE,,,,,,,CLR,,,,,,,,VFR,,,,,,,,,,,,METAR,59.0
KODO 052153Z AUTO 08013G16KT 070V130 10SM CLR 27/03 A3014 RMK AO2 SLP164 T02670028,KODO,2020-05-05T21:53:00Z,31.92,-102.4,26.7,2.8,80,13,16,10.0,30.138779,1016.4,,TRUE,TRUE,,,,,,,CLR,,,,,,,,VFR,,,,,,,,,,,,METAR,902.0
KOAK 052153Z 27012KT 10SM FEW010 FEW200 21/13 A3014 RMK AO2 SLP207 T02110128,KOAK,2020-05-05T21:53:00Z,37.72,-122.23,21.1,12.8,270,12,,10.0,30.138779,1020.7,,,TRUE,,,,,,,FEW,1000,FEW,20000,,,,,VFR,,,,,,,,,,,,METAR,26.0
KP68 052153Z AUTO 24008G15KT 24/M12 A3014 RMK AO1 PK WND 16028/2134 WSHFT 2135 SLP159 T02441117,KP68,2020-05-05T21:53:00Z,39.6,-116.0,24.4,-11.7,240,8,15,,30.138779,1015.9,,TRUE,TRUE,,,,,,,,,,,,,,,,,,,,,,,,,,,METAR,1809.0
KNSI 052153Z 31019KT 10SM FEW270 21/09 A2998 RMK AO2 SLP145 T02110094 $,KNSI,2020-05-05T21:53:00Z,33.22,-119.45,21.1,9.4,310,19,,10.0,29.97933,1014.5,,,TRUE,TRUE,,,,,,FEW,27000,,,,,,,VFR,,,,,,,,,,,,METAR,154.0
KCDS 052153Z AUTO 08007G15KT 10SM CLR 25/M02 A3015 RMK AO2 SLP190 T02501017,KCDS,2020-05-05T21:53:00Z,34.43,-100.28,25.0,-1.7,80,7,15,10.0,30.15059,1019.0,,TRUE,TRUE,,,,,,,CLR,,,,,,,,VFR,,,,,,,,,,,,METAR,594.0
KCDR 052153Z AUTO 01014KT 10SM OVC100 17/M03 A3016 RMK AO2 SLP224 T01721028,KCDR,2020-05-05T21:53:00Z,42.83,-103.1,17.2,-2.8,10,14,,10.0,30.159449,1022.4,,TRUE,TRUE,,,,,,,OVC,10000,,,,,,,VFR,,,,,,,,,,,,METAR,1010.0
KCDC 052153Z AUTO 32007KT 10SM CLR 24/M08 A3019 RMK AO2 SLP171 T02441083,KCDC,2020-05-05T21:53:00Z,37.7,-113.1,24.4,-8.3,320,7,,10.0,30.188976,1017.1,,TRUE,TRUE,,,,,,,CLR,,,,,,,,VFR,,,,,,,,,,,,METAR,1714.0
KCCR 052153Z 25010KT 10SM CLR 27/08 A3009 RMK AO2 SLP176 T02720078,KCCR,2020-05-05T21:53:00Z,38.0,-122.05,27.2,7.8,250,10,,10.0,30.088583,1017.6,,,TRUE,,,,,,,CLR,,,,,,,,VFR,,,,,,,,,,,,METAR,11.0
KCAG 052153Z AUTO 25011G17KT 10SM CLR 18/M08 A3028 RMK AO2 SLP238 T01781078,KCAG,2020-05-05T21:53:00Z,40.5,-107.52,17.8,-7.8,250,11,17,10.0,30.280512,1023.8,,TRUE,TRUE,,,,,,,CLR,,,,,,,,VFR,,,,,,,,,,,,METAR,1887.0
KBYG 052153Z AUTO 34020G31KT 10SM CLR 14/M04 A3024 RMK AO2 PK WND 34034/2139 SLP230 T01441044,KBYG,2020-05-05T21:53:00Z,44.38,-106.72,14.4,-4.4,340,20,31,10.0,30.239174,1023.0,,TRUE,TRUE,,,,,,,CLR,,,,,,,,VFR,,,,,,,,,,,,METAR,1497.0
KBVY 052153Z 01011G17KT 10SM SCT065 13/M01 A2983 RMK AO2 SLP097 T01331011,KBVY,2020-05-05T21:53:00Z,42.58,-70.92,13.3,-1.1,10,11,17,10.0,29.828741,1009.7,,,TRUE,,,,,,,SCT,6500,,,,,,,VFR,,,,,,,,,,,,METAR,28.0
KBUR 052153Z 17010KT 10SM CLR 34/06 A2992 RMK AO2 SLP116 T03390056,KBUR,2020-05-05T21:53:00Z,34.2,-118.37,33.9,5.6,170,10,,10.0,29.920275,1011.6,,,TRUE,,,,,,,CLR,,,,,,,,VFR,,,,,,,,,,,,METAR,217.0
KBTR 052153Z 27007KT 10SM FEW049 31/19 A2989 RMK AO2 SLP122 T03060189,KBTR,2020-05-05T21:53:00Z,30.53,-91.15,30.6,18.9,270,7,,10.0,29.890747,1012.2,,,TRUE,,,,,,,FEW,4900,,,,,,,VFR,,,,,,,,,,,,METAR,21.0
KBTM 052153Z AUTO VRB06KT 10SM SCT110 17/M06 A3025 RMK AO2 SLP232 T01721056,KBTM,2020-05-05T21:53:00Z,45.97,-112.5,17.2,-5.6,0,6,,10.0,30.250984,1023.2,,TRUE,TRUE,,,,,,,SCT,11000,,,,,,,VFR,,,,,,,,,,,,METAR,1688.0
KBTL 052153Z 06005KT 10SM OVC080 10/M03 A2995 RMK AO2 SLP146 T01001028,KBTL,2020-05-05T21:53:00Z,42.32,-85.23,10.0,-2.8,60,5,,10.0,29.949802,1014.6,,,TRUE,,,,,,,OVC,8000,,,,,,,VFR,,,,,,,,,,,,METAR,290.0
KBRO 052153Z 13012KT 10SM CLR 33/23 A2984 RMK AO2 SLP104 T03280233,KBRO,2020-05-05T21:53:00Z,25.92,-97.42,32.8,23.3,130,12,,10.0,29.840551,1010.4,,,TRUE,,,,,,,CLR,,,,,,,,VFR,,,,,,,,,,,,METAR,7.0
KBRD 052153Z AUTO VRB03KT 10SM FEW060 BKN110 16/00 A3006 RMK AO2 SLP186 T01560000,KBRD,2020-05-05T21:53:00Z,46.4,-94.13,15.6,0.0,0,3,,10.0,30.059055,1018.6,,TRUE,TRUE,,,,,,,FEW,6000,BKN,11000,,,,,VFR,,,,,,,,,,,,METAR,372.0
KBPT 052153Z 19008KT 10SM BKN045 28/24 A2989 RMK AO2 SLP123 T02830239,KBPT,2020-05-05T21:53:00Z,29.95,-94.03,28.3,23.9,190,8,,10.0,29.890747,1012.3,,,TRUE,,,,,,,BKN,4500,,,,,,,VFR,,,,,,,,,,,,METAR,5.0
KBPK 052153Z AUTO 01006G15KT 10SM CLR 23/05 A2998 RMK AO2 SLP143 T02280050,KBPK,2020-05-05T21:53:00Z,36.37,-92.47,22.8,5.0,10,6,15,10.0,29.97933,1014.3,,TRUE,TRUE,,,,,,,CLR,,,,,,,,VFR,,,,,,,,,,,,METAR,280.0
KBPI 052153Z AUTO 35012G21KT 280V030 10SM CLR 16/M09 A3031 RMK AO2 PK WND 32029/2104 SLP230 T01611089,KBPI,2020-05-05T21:53:00Z,42.58,-110.1,16.1,-8.9,350,12,21,10.0,30.31004,1023.0,,TRUE,TRUE,,,,,,,CLR,,,,,,,,VFR,,,,,,,,,,,,METAR,2117.0
PHLI 052153Z 04013KT 10SM FEW024 BKN033 BKN046 26/21 A3011 RMK AO2 SLP192 T02610206,PHLI,2020-05-05T21:53:00Z,21.97,-159.33,26.1,20.6,40,13,,10.0,30.109253,1019.2,,,TRUE,,,,,,,FEW,2400,BKN,3300,BKN,4600,,,VFR,,,,,,,,,,,,METAR,45.0
PHKO 052153Z 17010KT 10SM SCT050 BKN065 27/19 A3003 RMK AO2 SLP166 T02670189,PHKO,2020-05-05T21:53:00Z,19.73,-156.05,26.7,18.9,170,10,,10.0,30.029528,1016.6,,,TRUE,,,,,,,SCT,5000,BKN,6500,,,,,VFR,,,,,,,,,,,,METAR,27.0
PHTO 052153Z 00000KT 10SM OVC046 27/16 A3008 RMK AO2 SLP185 T02670156,PHTO,2020-05-05T21:53:00Z,19.72,-155.05,26.7,15.6,0,0,,10.0,30.079725,1018.5,,,TRUE,,,,,,,OVC,4600,,,,,,,VFR,,,,,,,,,,,,METAR,12.0
TIST 052153Z 12012KT 10SM CLR 29/22 A2994 RMK AO2 SLP139 T02890222 $,TIST,2020-05-05T21:53:00Z,18.33,-64.98,28.9,22.2,120,12,,10.0,29.940945,1013.9,,,TRUE,TRUE,,,,,,CLR,,,,,,,,VFR,,,,,,,,,,,,METAR,7.0
KCMX 052153Z AUTO 10009KT 10SM CLR 09/M06 A3006 RMK AO2 SLP191 T00891061,KCMX,2020-05-05T21:53:00Z,47.17,-88.48,8.9,-6.1,100,9,,10.0,30.059055,1019.1,,TRUE,TRUE,,,,,,,CLR,,,,,,,,VFR,,,,,,,,,,,,METAR,326.0
KCLM 052153Z AUTO 09006KT 10SM FEW080 14/07 A3008 RMK AO2 SLP186 T01440072,KCLM,2020-05-05T21:53:00Z,48.12,-123.5,14.4,7.2,90,6,,10.0,30.079725,1018.6,,TRUE,TRUE,,,,,,,FEW,8000,,,,,,,VFR,,,,,,,,,,,,METAR,85.0
KCLL 052153Z AUTO 36013KT 10SM OVC040 24/17 A2999 RMK AO2 RAB16E25 SLP150 P0000 T02390172,KCLL,2020-05-05T21:53:00Z,30.58,-96.37,23.9,17.2,360,13,,10.0,29.991142,1015.0,,TRUE,TRUE,,,,,,,OVC,4000,,,,,,,VFR,,,,,,0.005,,,,,,METAR,96.0
KCHO 052153Z 00000KT 10SM OVC049 12/06 A2987 RMK AO2 SLP114 T01170061,KCHO,2020-05-05T21:53:00Z,38.13,-78.45,11.7,6.1,0,0,,10.0,29.870079,1011.4,,,TRUE,,,,,,,OVC,4900,,,,,,,VFR,,,,,,,,,,,,METAR,192.0
KCHA 052153Z 19010KT 10SM SCT015 SCT060 SCT150 BKN250 22/20 A2982 RMK AO2 SLP091 LTG DSNT SE-S CB DSNT SE-S T02220200 $,KCHA,2020-05-05T21:53:00Z,35.03,-85.2,22.2,20.0,190,10,,10.0,29.819881,1009.1,,,TRUE,TRUE,,,,,,SCT,1500,SCT,6000,SCT,15000,BKN,25000,VFR,,,,,,,,,,,,METAR,210.0
KCGI 052153Z 35007KT 10SM CLR 22/08 A2989 RMK AO2 SLP120 T02170083,KCGI,2020-05-05T21:53:00Z,37.23,-89.58,21.7,8.3,350,7,,10.0,29.890747,1012.0,,,TRUE,,,,,,,CLR,,,,,,,,VFR,,,,,,,,,,,,METAR,102.0
KCEZ 052153Z AUTO 29016KT 10SM CLR 24/M12 A3022 RMK AO2 SLP186 T02441122,KCEZ,2020-05-05T21:53:00Z,37.3,-108.63,24.4,-12.2,290,16,,10.0,30.221457,1018.6,,TRUE,TRUE,,,,,,,CLR,,,,,,,,VFR,,,,,,,,,,,,METAR,1797.0
KCEW 052153Z AUTO 22008KT 10SM CLR 31/18 A2989 RMK AO2 SLP117 T03060178,KCEW,2020-05-05T21:53:00Z,30.78,-86.52,30.6,17.8,220,8,,10.0,29.890747,1011.7,,TRUE,TRUE,,,,,,,CLR,,,,,,,,VFR,,,,,,,,,,,,METAR,55.0
KCDW 052153Z VRB06KT 10SM CLR 18/M10 A2984 RMK AO2 SLP111 T01781100,KCDW,2020-05-05T21:53:00Z,40.88,-74.28,17.8,-10.0,0,6,,10.0,29.840551,1011.1,,,TRUE,,,,,,,CLR,,,,,,,,VFR,,,,,,,,,,,,METAR,64.0
KGGW 052153Z AUTO 29008KT 10SM BKN070 OVC085 15/00 A3024 RMK AO2 SLP250 T01500000,KGGW,2020-05-05T21:53:00Z,48.22,-106.62,15.0,0.0,290,8,,10.0,30.239174,1025.0,,TRUE,TRUE,,,,,,,BKN,7000,OVC,8500,,,,,VFR,,,,,,,,,,,,METAR,694.0
KPGD 052153Z 28012KT 10SM CLR 29/19 A2994 RMK AO2 SLP138 T02890189,KPGD,2020-05-05T21:53:00Z,26.92,-82.0,28.9,18.9,280,12,,10.0,29.940945,1013.8,,,TRUE,,,,,,,CLR,,,,,,,,VFR,,,,,,,,,,,,METAR,7.0
KPIE 052153Z 28008KT 10SM CLR 28/18 A2995 RMK AO2 SLP143 T02780183,KPIE,2020-05-05T21:53:00Z,27.92,-82.68,27.8,18.3,280,8,,10.0,29.949802,1014.3,,,TRUE,,,,,,,CLR,,,,,,,,VFR,,,,,,,,,,,,METAR,4.0
KPHD 052153Z AUTO VRB04KT 10SM OVC070 11/M03 A2981 RMK AO2 SLP098 T01061033,KPHD,2020-05-05T21:53:00Z,40.47,-81.42,10.6,-3.3,0,4,,10.0,29.811024,1009.8,,TRUE,TRUE,,,,,,,OVC,7000,,,,,,,VFR,,,,,,,,,,,,METAR,272.0
KPIH 052153Z VRB05KT 10SM FEW080 22/M07 A3022 RMK AO2 SLP216 T02171067,KPIH,2020-05-05T21:53:00Z,42.92,-112.57,21.7,-6.7,0,5,,10.0,30.221457,1021.6,,,TRUE,,,,,,,FEW,8000,,,,,,,VFR,,,,,,,,,,,,METAR,1359.0
KPIL 052153Z AUTO 11015G23KT 10SM CLR 31/24 A2985 RMK AO2 SLP108 T03060239,KPIL,2020-05-05T21:53:00Z,26.17,-97.33,30.6,23.9,110,15,23,10.0,29.84941,1010.8,,TRUE,TRUE,,,,,,,CLR,,,,,,,,VFR,,,,,,,,,,,,METAR,5.0
KPKD 052153Z AUTO 33009KT 10SM OVC075 13/M01 A3006 RMK AO2 SLP189 T01331011,KPKD,2020-05-05T21:53:00Z,46.9,-95.07,13.3,-1.1,330,9,,10.0,30.059055,1018.9,,TRUE,TRUE,,,,,,,OVC,7500,,,,,,,VFR,,,,,,,,,,,,METAR,442.0
KPIR 052153Z AUTO 30010KT 10SM BKN037 BKN049 OVC080 13/06 A3015 RMK AO2 LTG DSNT SW AND NW SLP215 T01280061,KPIR,2020-05-05T21:53:00Z,44.38,-100.28,12.8,6.1,300,10,,10.0,30.15059,1021.5,,TRUE,TRUE,,,,,,,BKN,3700,BKN,4900,OVC,8000,,,VFR,,,,,,,,,,,,METAR,526.0
KPNS 052153Z 19010KT 10SM CLR 28/18 A2988 RMK AO2 SLP119 T02830183,KPNS,2020-05-05T21:53:00Z,30.48,-87.18,28.3,18.3,190,10,,10.0,29.878937,1011.9,,,TRUE,,,,,,,CLR,,,,,,,,VFR,,,,,,,,,,,,METAR,38.0
KPMP 052153Z 14011KT 10SM CLR 28/21 A2992 RMK AO2 SLP134 T02830211,KPMP,2020-05-05T21:53:00Z,26.25,-80.12,28.3,21.1,140,11,,10.0,29.920275,1013.4,,,TRUE,,,,,,,CLR,,,,,,,,VFR,,,,,,,,,,,,METAR,6.0
KGUY 052153Z AUTO 19005KT 10SM CLR 23/M02 A3017 RMK AO2 SLP184 T02331022,KGUY,2020-05-05T21:53:00Z,36.68,-101.5,23.3,-2.2,190,5,,10.0,30.171259,1018.4,,TRUE,TRUE,,,,,,,CLR,,,,,,,,VFR,,,,,,,,,,,,METAR,948.0
KGUP 052153Z AUTO 21013G16KT 10SM CLR 27/M10 A3021 RMK AO2 SLP115 T02721100 PWINO,KGUP,2020-05-05T21:53:00Z,35.52,-108.8,27.2,-10.0,210,13,16,10.0,30.209646,1011.5,,TRUE,TRUE,,,,,TRUE,,CLR,,,,,,,,VFR,,,,,,,,,,,,METAR,1971.0
KGTF 052153Z 08006KT 10SM CLR 16/M06 A3024 RMK AO2 SLP254 T01611056 $,KGTF,2020-05-05T21:53:00Z,47.47,-111.38,16.1,-5.6,80,6,,10.0,30.239174,1025.4,,,TRUE,TRUE,,,,,,CLR,,,,,,,,VFR,,,,,,,,,,,,METAR,1119.0
KGWO 052153Z AUTO 35008KT 10SM CLR 27/15 A2994 RMK AO2 SLP136 T02670150,KGWO,2020-05-05T21:53:00Z,33.5,-90.08,26.7,15.0,350,8,,10.0,29.940945,1013.6,,TRUE,TRUE,,,,,,,CLR,,,,,,,,VFR,,,,,,,,,,,,METAR,44.0
KGVL 052153Z AUTO 26013KT 10SM FEW049 SCT060 26/17 A2983 RMK AO2 SLP087 T02560172,KGVL,2020-05-05T21:53:00Z,34.27,-83.83,25.6,17.2,260,13,,10.0,29.828741,1008.7,,TRUE,TRUE,,,,,,,FEW,4900,SCT,6000,,,,,VFR,,,,,,,,,,,,METAR,386.0
KPOF 052153Z AUTO 33013G21KT 10SM CLR 23/08 A2989 RMK AO2 SLP119 T02330083,KPOF,2020-05-05T21:53:00Z,36.77,-90.32,23.3,8.3,330,13,21,10.0,29.890747,1011.9,,TRUE,TRUE,,,,,,,CLR,,,,,,,,VFR,,,,,,,,,,,,METAR,99.0
KPOU 052153Z AUTO 01010KT 10SM CLR 16/M04 A2983 RMK AO2 SLP099 T01561044,KPOU,2020-05-05T21:53:00Z,41.63,-73.88,15.6,-4.4,10,10,,10.0,29.828741,1009.9,,TRUE,TRUE,,,,,,,CLR,,,,,,,,VFR,,,,,,,,,,,,METAR,46.0
KPRB 052153Z AUTO 32009KT 10SM CLR 31/00 A3004 RMK AO2 SLP165 T03060000,KPRB,2020-05-05T21:53:00Z,35.67,-120.63,30.6,0.0,320,9,,10.0,30.041338,1016.5,,TRUE,TRUE,,,,,,,CLR,,,,,,,,VFR,,,,,,,,,,,,METAR,245.0
KPQL 052153Z 20007KT 10SM FEW050 29/20 A2988 RMK AO2 SLP119 T02940200,KPQL,2020-05-05T21:53:00Z,30.47,-88.53,29.4,20.0,200,7,,10.0,29.878937,1011.9,,,TRUE,,,,,,,FEW,5000,,,,,,,VFR,,,,,,,,,,,,METAR,6.0
KPSC 052153Z 31007KT 10SM CLR 27/05 A3002 RMK AO2 SLP164 T02670050,KPSC,2020-05-05T21:53:00Z,46.27,-119.12,26.7,5.0,310,7,,10.0,30.02067,1016.4,,,TRUE,,,,,,,CLR,,,,,,,,VFR,,,,,,,,,,,,METAR,121.0
KMCE 052153Z AUTO 30009KT 10SM CLR 30/M04 A3005 RMK AO2 SLP173 T03001044,KMCE,2020-05-05T21:53:00Z,37.28,-120.5,30.0,-4.4,300,9,,10.0,30.050198,1017.3,,TRUE,TRUE,,,,,,,CLR,,,,,,,,VFR,,,,,,,,,,,,METAR,47.0
KMCI 052153Z 32024G34KT 10SM FEW090 FEW120 21/01 A2997 RMK AO2 PK WND 33037/2140 SLP146 T02060006,KMCI,2020-05-05T21:53:00Z,39.3,-94.73,20.6,0.6,320,24,34,10.0,29.970472,1014.6,,,TRUE,,,,,,,FEW,9000,FEW,12000,,,,,VFR,,,,,,,,,,,,METAR,320.0
KMFE 052153Z 13016KT 10SM FEW060 36/21 A2981 RMK AO2 SLP094 T03610211,KMFE,2020-05-05T21:53:00Z,26.18,-98.25,36.1,21.1,130,16,,10.0,29.811024,1009.4,,,TRUE,,,,,,,FEW,6000,,,,,,,VFR,,,,,,,,,,,,METAR,38.0
KMDW 052153Z 03008KT 10SM OVC050 08/00 A2998 RMK AO2 RAE49 SLP155 P0000 T00830000,KMDW,2020-05-05T21:53:00Z,41.78,-87.75,8.3,0.0,30,8,,10.0,29.97933,1015.5,,,TRUE,,,,,,,OVC,5000,,,,,,,VFR,,,,,,0.005,,,,,,METAR,188.0
KMCO 052153Z 28006KT 10SM SCT055 31/17 A2991 RMK AO2 SLP126 T03110172,KMCO,2020-05-05T21:53:00Z,28.42,-81.33,31.1,17.2,280,6,,10.0,29.911417,1012.6,,,TRUE,,,,,,,SCT,5500,,,,,,,VFR,,,,,,,,,,,,METAR,29.0
KMCN 052153Z 24011KT 10SM FEW060 30/16 A2982 RMK AO2 SLP093 T03000161,KMCN,2020-05-05T21:53:00Z,32.68,-83.65,30.0,16.1,240,11,,10.0,29.819881,1009.3,,,TRUE,,,,,,,FEW,6000,,,,,,,VFR,,,,,,,,,,,,METAR,109.0
KMCK 052153Z AUTO 32012G17KT 10SM FEW095 22/02 A3012 RMK AO2 SLP195 T02170022,KMCK,2020-05-05T21:53:00Z,40.2,-100.58,21.7,2.2,320,12,17,10.0,30.121063,1019.5,,TRUE,TRUE,,,,,,,FEW,9500,,,,,,,VFR,,,,,,,,,,,,METAR,782.0
KMHE 052153Z AUTO 34016G22KT 10SM FEW037 14/04 A3013 RMK AO2 PK WND 02027/2124 SLP206 T01390044,KMHE,2020-05-05T21:53:00Z,43.77,-98.02,13.9,4.4,340,16,22,10.0,30.129921,1020.6,,TRUE,TRUE,,,,,,,FEW,3700,,,,,,,VFR,,,,,,,,,,,,METAR,397.0
KMGY 052153Z AUTO 02009KT 10SM OVC044 11/02 A2981 RMK AO2 SLP097 T01060017,KMGY,2020-05-05T21:53:00Z,39.6,-84.23,10.6,1.7,20,9,,10.0,29.811024,1009.7,,TRUE,TRUE,,,,,,,OVC,4400,,,,,,,VFR,,,,,,,,,,,,METAR,289.0
KMGW 052153Z 03005KT 10SM OVC060 13/05 A2979 RMK AO2 RAB32E42 SLP089 P0000 T01280050,KMGW,2020-05-05T21:53:00Z,39.65,-79.92,12.8,5.0,30,5,,10.0,29.790354,1008.9,,,TRUE,,,,,,,OVC,6000,,,,,,,VFR,,,,,,0.005,,,,,,METAR,378.0
KMGM 052153Z 25008KT 10SM CLR 29/17 A2987 RMK AO2 SLP111 T02890172,KMGM,2020-05-05T21:53:00Z,32.3,-86.4,28.9,17.2,250,8,,10.0,29.870079,1011.1,,,TRUE,,,,,,,CLR,,,,,,,,VFR,,,,,,,,,,,,METAR,63.0
KMFR 052153Z 03007KT 10SM CLR 26/04 A3001 RMK AO2 SLP156 T02560044,KMFR,2020-05-05T21:53:00Z,42.38,-122.87,25.6,4.4,30,7,,10.0,30.008858,1015.6,,,TRUE,,,,,,,CLR,,,,,,,,VFR,,,,,,,,,,,,METAR,396.0
KMHT 052153Z 36012KT 10SM FEW065 SCT250 13/M03 A2983 RMK AO2 SLP116 T01331033,KMHT,2020-05-05T21:53:00Z,42.93,-71.43,13.3,-3.3,360,12,,10.0,29.828741,1011.6,,,TRUE,,,,,,,FEW,6500,SCT,25000,,,,,VFR,,,,,,,,,,,,METAR,81.0
KSNS 052153Z 30013KT 10SM CLR 21/11 A3013 RMK AO2 SLP210 T02110111,KSNS,2020-05-05T21:53:00Z,36.67,-121.6,21.1,11.1,300,13,,10.0,30.129921,1021.0,,,TRUE,,,,,,,CLR,,,,,,,,VFR,,,,,,,,,,,,METAR,30.0
KSNA 052153Z 25008G16KT 10SM CLR 29/12 A2993 RMK AO2 SLP133 T02890117,KSNA,2020-05-05T21:53:00Z,33.67,-117.87,28.9,11.7,250,8,16,10.0,29.929134,1013.3,,,TRUE,,,,,,,CLR,,,,,,,,VFR,,,,,,,,,,,,METAR,16.0
KSMQ 052153Z AUTO VRB04KT 10SM CLR 17/M06 A2983 RMK AO2 SLP103 T01671061,KSMQ,2020-05-05T21:53:00Z,40.62,-74.67,16.7,-6.1,0,4,,10.0,29.828741,1010.3,,TRUE,TRUE,,,,,,,CLR,,,,,,,,VFR,,,,,,,,,,,,METAR,30.0
KSMF 052153Z 17008KT 10SM SCT250 29/01 A3004 RMK AO2 SLP173 T02890006,KSMF,2020-05-05T21:53:00Z,38.7,-121.6,28.9,0.6,170,8,,10.0,30.041338,1017.3,,,TRUE,,,,,,,SCT,25000,,,,,,,VFR,,,,,,,,,,,,METAR,6.0
KSLN 052153Z 34018G26KT 10SM FEW090 24/02 A3009 RMK AO2 PK WND 32026/2105 SLP185 T02390022,KSLN,2020-05-05T21:53:00Z,38.78,-97.65,23.9,2.2,340,18,26,10.0,30.088583,1018.5,,,TRUE,,,,,,,FEW,9000,,,,,,,VFR,,,,,,,,,,,,METAR,385.0
KSJC 052153Z 32015G19KT 10SM FEW055 FEW120 24/10 A3012 RMK AO2 SLP198 T02390100,KSJC,2020-05-05T21:53:00Z,37.37,-121.92,23.9,10.0,320,15,19,10.0,30.121063,1019.8,,,TRUE,,,,,,,FEW,5500,FEW,12000,,,,,VFR,,,,,,,,,,,,METAR,24.0
KSIY 052153Z AUTO 10SM CLR 25/M01 A3004 RMK AO2 SLP167 T02501006 $,KSIY,2020-05-05T21:53:00Z,41.77,-122.47,25.0,-0.6,,,,10.0,30.041338,1016.7,,TRUE,TRUE,TRUE,,,,,,CLR,,,,,,,,VFR,,,,,,,,,,,,METAR,807.0
KSHR 052153Z AUTO 34019G32KT 10SM CLR 17/M05 A3024 RMK AO2 PK WND 33036/2121 SLP244 T01671050,KSHR,2020-05-05T21:53:00Z,44.77,-106.97,16.7,-5.0,340,19,32,10.0,30.239174,1024.4,,TRUE,TRUE,,,,,,,CLR,,,,,,,,VFR,,,,,,,,,,,,METAR,1202.0
KSHN 052153Z AUTO 00000KT 10SM SCT055 19/08 A3004 RMK AO2 SLP171 T01940078,KSHN,2020-05-05T21:53:00Z,47.23,-123.13,19.4,7.8,0,0,,10.0,30.041338,1017.1,,TRUE,TRUE,,,,,,,SCT,5500,,,,,,,VFR,,,,,,,,,,,,METAR,82.0
KMIA 052153Z 12010KT 10SM FEW032 SCT250 29/21 A2993 RMK AO2 SLP135 T02890211,KMIA,2020-05-05T21:53:00Z,25.8,-80.28,28.9,21.1,120,10,,10.0,29.929134,1013.5,,,TRUE,,,,,,,FEW,3200,SCT,25000,,,,,VFR,,,,,,,,,,,,METAR,3.0
KMLS 052153Z AUTO 32017KT 10SM SCT050 BKN065 14/02 A3025 RMK AO2 PK WND 31029/2059 SLP254 T01440017,KMLS,2020-05-05T21:53:00Z,46.43,-105.88,14.4,1.7,320,17,,10.0,30.250984,1025.4,,TRUE,TRUE,,,,,,,SCT,5000,BKN,6500,,,,,VFR,,,,,,,,,,,,METAR,801.0
KMLP 052153Z AUTO 15004KT 10SM FEW070 SCT095 12/M04 A3022 RMK AO2 RAB09E21 SLP175 P0000 T01171039 $,KMLP,2020-05-05T21:53:00Z,47.45,-115.67,11.7,-3.9,150,4,,10.0,30.221457,1017.5,,TRUE,TRUE,TRUE,,,,,,FEW,7000,SCT,9500,,,,,VFR,,,,,,0.005,,,,,,METAR,1837.0
KMLC 052153Z AUTO 33008KT 10SM CLR 24/06 A3009 RMK AO2 SLP182 T02440061,KMLC,2020-05-05T21:53:00Z,34.88,-95.78,24.4,6.1,330,8,,10.0,30.088583,1018.2,,TRUE,TRUE,,,,,,,CLR,,,,,,,,VFR,,,,,,,,,,,,METAR,232.0
KMLB 052153Z 12010KT 10SM CLR 28/22 A2990 RMK AO2 SLP123 T02830222,KMLB,2020-05-05T21:53:00Z,28.1,-80.65,28.3,22.2,120,10,,10.0,29.899607,1012.3,,,TRUE,,,,,,,CLR,,,,,,,,VFR,,,,,,,,,,,,METAR,11.0
KMKO 052153Z AUTO 01011KT 10SM CLR 23/05 A3008 RMK AO2 SLP182 T02280050,KMKO,2020-05-05T21:53:00Z,35.65,-95.37,22.8,5.0,10,11,,10.0,30.079725,1018.2,,TRUE,TRUE,,,,,,,CLR,,,,,,,,VFR,,,,,,,,,,,,METAR,185.0
KMKL 052153Z 32011G18KT 10SM CLR 22/12 A2991 RMK AO2 SLP124 T02170117,KMKL,2020-05-05T21:53:00Z,35.6,-88.92,21.7,11.7,320,11,18,10.0,29.911417,1012.4,,,TRUE,,,,,,,CLR,,,,,,,,VFR,,,,,,,,,,,,METAR,128.0
KMIE 052153Z 05010G19KT 10SM -RA FEW026 OVC055 08/03 A2987 RMK AO2 SLP114 P0000 T00830033,KMIE,2020-05-05T21:53:00Z,40.23,-85.4,8.3,3.3,50,10,19,10.0,29.870079,1011.4,,,TRUE,,,,,,-RA,FEW,2600,OVC,5500,,,,,VFR,,,,,,0.005,,,,,,METAR,285.0
KMLT 052153Z AUTO 33014G20KT 10SM SCT029 BKN042 OVC065 07/01 A2979 RMK AO2 RAB02E18 SLP094 P0000 T00720006,KMLT,2020-05-05T21:53:00Z,45.65,-68.7,7.2,0.6,330,14,20,10.0,29.790354,1009.4,,TRUE,TRUE,,,,,,,SCT,2900,BKN,4200,OVC,6500,,,VFR,,,,,,0.005,,,,,,METAR,123.0
KMMK 052153Z AUTO 33010KT 10SM CLR 16/M09 A2985 RMK AO2 SLP106 T01561089,KMMK,2020-05-05T21:53:00Z,41.52,-72.83,15.6,-8.9,330,10,,10.0,29.84941,1010.6,,TRUE,TRUE,,,,,,,CLR,,,,,,,,VFR,,,,,,,,,,,,METAR,31.0
KMNN 052153Z AUTO 02018G25KT 10SM OVC070 06/02 A2986 RMK AO2 RAB07E50 SLP116 P0001 T00610017,KMNN,2020-05-05T21:53:00Z,40.62,-83.07,6.1,1.7,20,18,25,10.0,29.861221,1011.6,,TRUE,TRUE,,,,,,,OVC,7000,,,,,,,VFR,,,,,,0.01,,,,,,METAR,301.0
KMMV 052153Z AUTO 18003KT 10SM CLR 21/12 A3005 RMK AO2 SLP174 T02060117,KMMV,2020-05-05T21:53:00Z,45.2,-123.13,20.6,11.7,180,3,,10.0,30.050198,1017.4,,TRUE,TRUE,,,,,,,CLR,,,,,,,,VFR,,,,,,,,,,,,METAR,48.0
KMPO 052153Z AUTO 32009KT 10SM CLR 11/M08 A2985 RMK AO2 SLP117 T01111083,KMPO,2020-05-05T21:53:00Z,41.13,-75.38,11.1,-8.3,320,9,,10.0,29.84941,1011.7,,TRUE,TRUE,,,,,,,CLR,,,,,,,,VFR,,,,,,,,,,,,METAR,577.0
KMOD 052153Z 31008G14KT 10SM CLR 30/M03 A3005 RMK AO2 SLP174 T03001033,KMOD,2020-05-05T21:53:00Z,37.62,-120.95,30.0,-3.3,310,8,14,10.0,30.050198,1017.4,,,TRUE,,,,,,,CLR,,,,,,,,VFR,,,,,,,,,,,,METAR,29.0
KSBA 052153Z 14007KT 10SM CLR 23/12 A2994 RMK AO2 SLP137 T02280117,KSBA,2020-05-05T21:53:00Z,34.43,-119.85,22.8,11.7,140,7,,10.0,29.940945,1013.7,,,TRUE,,,,,,,CLR,,,,,,,,VFR,,,,,,,,,,,,METAR,3.0
KSAV 052153Z 25012KT 10SM BKN250 32/16 A2981 RMK AO2 SLP095 T03220161,KSAV,2020-05-05T21:53:00Z,32.12,-81.2,32.2,16.1,250,12,,10.0,29.811024,1009.5,,,TRUE,,,,,,,BKN,25000,,,,,,,VFR,,,,,,,,,,,,METAR,14.0
KSAF 052153Z VRB06KT 10SM CLR 22/M03 A3023 RMK AO2 SLP154 T02221028,KSAF,2020-05-05T21:53:00Z,35.62,-106.1,22.2,-2.8,0,6,,10.0,30.230314,1015.4,,,TRUE,,,,,,,CLR,,,,,,,,VFR,,,,,,,,,,,,METAR,1930.0
KSAC 052153Z 20009KT 10SM CLR 29/02 A3005 RMK AO2 SLP176 T02940017,KSAC,2020-05-05T21:53:00Z,38.5,-121.5,29.4,1.7,200,9,,10.0,30.050198,1017.6,,,TRUE,,,,,,,CLR,,,,,,,,VFR,,,,,,,,,,,,METAR,11.0
KRXE 052153Z AUTO 17008KT 10SM CLR 18/M06 A3025 RMK AO2 SLP226 T01831056,KRXE,2020-05-05T21:53:00Z,43.83,-111.8,18.3,-5.6,170,8,,10.0,30.250984,1022.6,,TRUE,TRUE,,,,,,,CLR,,,,,,,,VFR,,,,,,,,,,,,METAR,1480.0
KGZH 052153Z AUTO VRB03KT 10SM CLR 29/17 A2989 RMK AO2 SLP118 T02890167 $,KGZH,2020-05-05T21:53:00Z,31.42,-87.05,28.9,16.7,0,3,,10.0,29.890747,1011.8,,TRUE,TRUE,TRUE,,,,,,CLR,,,,,,,,VFR,,,,,,,,,,,,METAR,78.0
KSNY 052153Z AUTO 34015G22KT 10SM CLR 19/M03 A3015 RMK AO2 SLP197 T01891033,KSNY,2020-05-05T21:53:00Z,41.1,-102.98,18.9,-3.3,340,15,22,10.0,30.15059,1019.7,,TRUE,TRUE,,,,,,,CLR,,,,,,,,VFR,,,,,,,,,,,,METAR,1307.0
KSPB 052153Z AUTO 14007KT 10SM CLR 22/11 A3003 RMK AO2 SLP167 T02170106,KSPB,2020-05-05T21:53:00Z,45.77,-122.87,21.7,10.6,140,7,,10.0,30.029528,1016.7,,TRUE,TRUE,,,,,,,CLR,,,,,,,,VFR,,,,,,,,,,,,METAR,14.0
KSDM 052153Z 28008G14KT 10SM CLR 28/16 A2994 RMK AO2 SLP132 T02830161,KSDM,2020-05-05T21:53:00Z,32.58,-117.0,28.3,16.1,280,8,14,10.0,29.940945,1013.2,,,TRUE,,,,,,,CLR,,,,,,,,VFR,,,,,,,,,,,,METAR,159.0
KSDL 052153Z VRB03KT 10SM CLR 38/M02 A2988 RMK AO2 SLP092 T03831022,KSDL,2020-05-05T21:53:00Z,33.62,-111.92,38.3,-2.2,0,3,,10.0,29.878937,1009.2,,,TRUE,,,,,,,CLR,,,,,,,,VFR,,,,,,,,,,,,METAR,447.0
KSRQ 052153Z 29011KT 10SM CLR 27/19 A2994 RMK AO2 SLP139 T02720194,KSRQ,2020-05-05T21:53:00Z,27.4,-82.57,27.2,19.4,290,11,,10.0,29.940945,1013.9,,,TRUE,,,,,,,CLR,,,,,,,,VFR,,,,,,,,,,,,METAR,18.0
KSPW 052153Z AUTO 36011KT 10SM 11/06 A3007 RMK AO2 SLPNO T01110056 PWINO $,KSPW,2020-05-05T21:53:00Z,43.17,-95.22,11.1,5.6,360,11,,10.0,30.070866,,,TRUE,TRUE,TRUE,,,,TRUE,,,,,,,,,,,,,,,,,,,,,,METAR,403.0
KSPG 052153Z 27009KT 10SM CLR 27/18 A2993 RMK AO2 SLP136 T02670183,KSPG,2020-05-05T21:53:00Z,27.77,-82.63,26.7,18.3,270,9,,10.0,29.929134,1013.6,,,TRUE,,,,,,,CLR,,,,,,,,VFR,,,,,,,,,,,,METAR,2.0
KSEG 052153Z AUTO 17004KT 10SM CLR 13/M01 A2987 RMK AO2 SLP117 T01331011,KSEG,2020-05-05T21:53:00Z,40.82,-76.87,13.3,-1.1,170,4,,10.0,29.870079,1011.7,,TRUE,TRUE,,,,,,,CLR,,,,,,,,VFR,,,,,,,,,,,,METAR,134.0
KSEA 052153Z 28008KT 10SM FEW040 FEW095 SCT250 19/08 A3006 RMK AO2 SLP184 T01940078,KSEA,2020-05-05T21:53:00Z,47.45,-122.32,19.4,7.8,280,8,,10.0,30.059055,1018.4,,,TRUE,,,,,,,FEW,4000,FEW,9500,SCT,25000,,,VFR,,,,,,,,,,,,METAR,136.0
KHZY 052153Z AUTO VRB05G15KT 10SM CLR 08/M06 A2989 RMK AO2 SLP127 T00781056 $,KHZY,2020-05-05T21:53:00Z,41.78,-80.7,7.8,-5.6,0,5,15,10.0,29.890747,1012.7,,TRUE,TRUE,TRUE,,,,,,CLR,,,,,,,,VFR,,,,,,,,,,,,METAR,276.0
KHYR 052153Z AUTO 01007KT 10SM CLR 14/M08 A3004 RMK AO2 SLP180 T01391078,KHYR,2020-05-05T21:53:00Z,46.02,-91.45,13.9,-7.8,10,7,,10.0,30.041338,1018.0,,TRUE,TRUE,,,,,,,CLR,,,,,,,,VFR,,,,,,,,,,,,METAR,370.0
KIAG 052153Z 05007KT 10SM CLR 10/M11 A2995 RMK AO2 SLP153 T01001106,KIAG,2020-05-05T21:53:00Z,43.12,-78.93,10.0,-10.6,50,7,,10.0,29.949802,1015.3,,,TRUE,,,,,,,CLR,,,,,,,,VFR,,,,,,,,,,,,METAR,182.0
KGSH 052153Z AUTO 03008KT 10SM OVC049 08/01 A2994 RMK AO2 RAE01 SLP143 P0000 T00780006 $,KGSH,2020-05-05T21:53:00Z,41.53,-85.78,7.8,0.6,30,8,,10.0,29.940945,1014.3,,TRUE,TRUE,TRUE,,,,,,OVC,4900,,,,,,,VFR,,,,,,0.005,,,,,,METAR,252.0
KGRR 052153Z 05011KT 10SM BKN120 OVC250 12/M03 A2996 RMK AO2 SLP147 T01171033,KGRR,2020-05-05T21:53:00Z,42.88,-85.52,11.7,-3.3,50,11,,10.0,29.958662,1014.7,,,TRUE,,,,,,,BKN,12000,OVC,25000,,,,,VFR,,,,,,,,,,,,METAR,237.0
KIAH 052153Z 34009KT 10SM SCT050 SCT085 BKN250 33/22 A2990 RMK AO2 SLP123 T03280217,KIAH,2020-05-05T21:53:00Z,30.0,-95.37,32.8,21.7,340,9,,10.0,29.899607,1012.3,,,TRUE,,,,,,,SCT,5000,SCT,8500,BKN,25000,,,VFR,,,,,,,,,,,,METAR,36.0
KICT 052153Z 34012KT 10SM FEW065 FEW190 24/01 A3009 RMK AO2 SLP183 T02390011,KICT,2020-05-05T21:53:00Z,37.65,-97.43,23.9,1.1,340,12,,10.0,30.088583,1018.3,,,TRUE,,,,,,,FEW,6500,FEW,19000,,,,,VFR,,,,,,,,,,,,METAR,407.0
KICR 052153Z AUTO 34015G21KT 10SM CLR 15/03 A3015 RMK AO2 PK WND 01033/2100 SLP214 T01500033,KICR,2020-05-05T21:53:00Z,43.38,-99.85,15.0,3.3,340,15,21,10.0,30.15059,1021.4,,TRUE,TRUE,,,,,,,CLR,,,,,,,,VFR,,,,,,,,,,,,METAR,621.0
KILM 052153Z 15008KT 10SM CLR 22/17 A2981 RMK AO2 SLP096 T02170172,KILM,2020-05-05T21:53:00Z,34.27,-77.9,21.7,17.2,150,8,,10.0,29.811024,1009.6,,,TRUE,,,,,,,CLR,,,,,,,,VFR,,,,,,,,,,,,METAR,9.0
KIDA 052153Z AUTO 07005KT 10SM CLR 20/M08 A3025 RMK AO2 SLP226 T02001083,KIDA,2020-05-05T21:53:00Z,43.52,-112.07,20.0,-8.3,70,5,,10.0,30.250984,1022.6,,TRUE,TRUE,,,,,,,CLR,,,,,,,,VFR,,,,,,,,,,,,METAR,1453.0
KUNV 052153Z 00000KT 10SM SKC 12/M04 A2985,KUNV,2020-05-05T21:53:00Z,40.85,-77.83,12.0,-4.0,0,0,,10.0,29.84941,,,,,,,,,,,SKC,,,,,,,,VFR,,,,,,,,,,,,METAR,378.0
KIML 052153Z AUTO 28010KT 10SM CLR 20/01 A3014 RMK AO2 PK WND 32026/2104 SLP199 T02000011,KIML,2020-05-05T21:53:00Z,40.52,-101.62,20.0,1.1,280,10,,10.0,30.138779,1019.9,,TRUE,TRUE,,,,,,,CLR,,,,,,,,VFR,,,,,,,,,,,,METAR,998.0
KSFB 052153Z 30004KT 10SM FEW060 32/17 A2990 RMK AO2 SLP124 T03170172,KSFB,2020-05-05T21:53:00Z,28.77,-81.22,31.7,17.2,300,4,,10.0,29.899607,1012.4,,,TRUE,,,,,,,FEW,6000,,,,,,,VFR,,,,,,,,,,,,METAR,17.0
KSSI 052153Z AUTO 24011G17KT 10SM CLR 32/17 A2983 RMK AO2 SLP104 T03170167,KSSI,2020-05-05T21:53:00Z,31.15,-81.38,31.7,16.7,240,11,17,10.0,29.828741,1010.4,,TRUE,TRUE,,,,,,,CLR,,,,,,,,VFR,,,,,,,,,,,,METAR,6.0
KSSF 052153Z 04013G20KT 10SM FEW085 30/19 A2992 RMK AO2 SLP119 T03000194 $,KSSF,2020-05-05T21:53:00Z,29.33,-98.47,30.0,19.4,40,13,20,10.0,29.920275,1011.9,,,TRUE,TRUE,,,,,,FEW,8500,,,,,,,VFR,,,,,,,,,,,,METAR,176.0
KIWI 052153Z AUTO 31008G20KT 260V050 10SM BKN065 11/M02 A2980 RMK AO2 SLP091 T01111017,KIWI,2020-05-05T21:53:00Z,43.97,-69.72,11.1,-1.7,310,8,20,10.0,29.799213,1009.1,,TRUE,TRUE,,,,,,,BKN,6500,,,,,,,VFR,,,,,,,,,,,,METAR,20.0
KITR 052153Z AUTO 32014G21KT 10SM CLR 24/M09 A3016 RMK AO2 PK WND 32027/2124 SLP184 T02391089,KITR,2020-05-05T21:53:00Z,39.23,-102.28,23.9,-8.9,320,14,21,10.0,30.159449,1018.4,,TRUE,TRUE,,,,,,,CLR,,,,,,,,VFR,,,,,,,,,,,,METAR,1279.0
KIPL 052153Z AUTO 33007KT 10SM CLR 39/M08 A2982 RMK AO2 SLP097 T03891083,KIPL,2020-05-05T21:53:00Z,32.83,-115.58,38.9,-8.3,330,7,,10.0,29.819881,1009.7,,TRUE,TRUE,,,,,,,CLR,,,,,,,,VFR,,,,,,,,,,,,METAR,-17.0
KINK 052153Z AUTO 05008G18KT 10SM CLR 28/03 A3010 RMK AO2 SLP151 T02830033,KINK,2020-05-05T21:53:00Z,31.78,-103.2,28.3,3.3,50,8,18,10.0,30.100393,1015.1,,TRUE,TRUE,,,,,,,CLR,,,,,,,,VFR,,,,,,,,,,,,METAR,855.0
KIXD 052153Z 31016G32KT 10SM CLR 22/02 A3001 RMK AO2 PK WND 33033/2054 SLP156 T02170017,KIXD,2020-05-05T21:53:00Z,38.82,-94.88,21.7,1.7,310,16,32,10.0,30.008858,1015.6,,,TRUE,,,,,,,CLR,,,,,,,,VFR,,,,,,,,,,,,METAR,342.0
KJEF 052153Z 28016G29KT 10SM SCT090 21/03 A2992 RMK AO2 PK WND 28035/2114 SLP121 T02110033,KJEF,2020-05-05T21:53:00Z,38.6,-92.15,21.1,3.3,280,16,29,10.0,29.920275,1012.1,,,TRUE,,,,,,,SCT,9000,,,,,,,VFR,,,,,,,,,,,,METAR,168.0
KJER 052153Z AUTO 10009G15KT 10SM CLR 24/M06 A3015 RMK AO2 SLP185 T02441061,KJER,2020-05-05T21:53:00Z,42.72,-114.45,24.4,-6.1,100,9,15,10.0,30.15059,1018.5,,TRUE,TRUE,,,,,,,CLR,,,,,,,,VFR,,,,,,,,,,,,METAR,1222.0
KJKL 052153Z AUTO 27008G22KT 220V320 10SM OVC009 14/13 A2978 RMK AO2 PK WND 28026/2057 RAE04 CIG 007V014 SLP078 P0000 T01390128,KJKL,2020-05-05T21:53:00Z,37.6,-83.32,13.9,12.8,270,8,22,10.0,29.778543,1007.8,,TRUE,TRUE,,,,,,,OVC,900,,,,,,,IFR,,,,,,0.005,,,,,,METAR,416.0
KSTJ 052153Z 31024G38KT 9SM BKN032 21/01 A2999 RMK AO2 PK WND 33045/2125 SLP154 T02060006,KSTJ,2020-05-05T21:53:00Z,39.77,-94.92,20.6,0.6,310,24,38,9.0,29.991142,1015.4,,,TRUE,,,,,,,BKN,3200,,,,,,,VFR,,,,,,,,,,,,METAR,247.0
KLAR 052153Z AUTO 31019G29KT 10SM BKN110 13/M09 A3025 RMK AO2 PK WND 30031/2130 SLP202 T01331094,KLAR,2020-05-05T21:53:00Z,41.32,-105.67,13.3,-9.4,310,19,29,10.0,30.250984,1020.2,,TRUE,TRUE,,,,,,,BKN,11000,,,,,,,VFR,,,,,,,,,,,,METAR,2216.0
KLAN 052153Z 04010KT 10SM CLR 11/M02 A2996 RMK AO2 SLP151 T01061017,KLAN,2020-05-05T21:53:00Z,42.78,-84.58,10.6,-1.7,40,10,,10.0,29.958662,1015.1,,,TRUE,,,,,,,CLR,,,,,,,,VFR,,,,,,,,,,,,METAR,264.0
KLAW 052153Z 02009KT 10SM CLR 25/03 A3011 RMK AO2 SLP188 T02500033,KLAW,2020-05-05T21:53:00Z,34.55,-98.42,25.0,3.3,20,9,,10.0,30.109253,1018.8,,,TRUE,,,,,,,CLR,,,,,,,,VFR,,,,,,,,,,,,METAR,337.0
KLBB 052153Z 07008G15KT 10SM CLR 24/M02 A3017 RMK AO2 SLP176 T02441017,KLBB,2020-05-05T21:53:00Z,33.67,-101.82,24.4,-1.7,70,8,15,10.0,30.171259,1017.6,,,TRUE,,,,,,,CLR,,,,,,,,VFR,,,,,,,,,,,,METAR,993.0
KLAX 052153Z 26013KT 10SM FEW250 26/09 A2993 RMK AO2 SLP135 T02560094,KLAX,2020-05-05T21:53:00Z,33.93,-118.38,25.6,9.4,260,13,,10.0,29.929134,1013.5,,,TRUE,,,,,,,FEW,25000,,,,,,,VFR,,,,,,,,,,,,METAR,46.0
KLBF 052153Z AUTO 32015G23KT 10SM BKN100 BKN120 21/02 A3012 RMK AO2 SLP197 T02110017,KLBF,2020-05-05T21:53:00Z,41.12,-100.67,21.1,1.7,320,15,23,10.0,30.121063,1019.7,,TRUE,TRUE,,,,,,,BKN,10000,BKN,12000,,,,,VFR,,,,,,,,,,,,METAR,847.0
KLCH 052153Z 22007KT 190V250 10SM CLR 29/23 A2990 RMK AO2 SLP132 T02940233,KLCH,2020-05-05T21:53:00Z,30.13,-93.22,29.4,23.3,220,7,,10.0,29.899607,1013.2,,,TRUE,,,,,,,CLR,,,,,,,,VFR,,,,,,,,,,,,METAR,4.0
KLEB 052153Z 04013KT 10SM FEW055 11/M02 A2987 RMK AO2 SLP117 T01111022,KLEB,2020-05-05T21:53:00Z,43.63,-72.3,11.1,-2.2,40,13,,10.0,29.870079,1011.7,,,TRUE,,,,,,,FEW,5500,,,,,,,VFR,,,,,,,,,,,,METAR,171.0
KASX 052153Z AUTO 02008KT 10SM BKN110 10/M06 A3009 RMK AO2 SLP196 T01001056,KASX,2020-05-05T21:53:00Z,46.55,-90.92,10.0,-5.6,20,8,,10.0,30.088583,1019.6,,TRUE,TRUE,,,,,,,BKN,11000,,,,,,,VFR,,,,,,,,,,,,METAR,251.0
KAUS 052153Z 02011KT 10SM OVC036 25/14 A3001 RMK AO2 PK WND 01026/2106 SLP152 T02500144,KAUS,2020-05-05T21:53:00Z,30.18,-97.68,25.0,14.4,20,11,,10.0,30.008858,1015.2,,,TRUE,,,,,,,OVC,3600,,,,,,,VFR,,,,,,,,,,,,METAR,166.0
KAUG 052153Z AUTO 35011G20KT 10SM SCT049 BKN065 09/00 A2980 RMK AO2 SLP092 T00940000,KAUG,2020-05-05T21:53:00Z,44.32,-69.8,9.4,0.0,350,11,20,10.0,29.799213,1009.2,,TRUE,TRUE,,,,,,,SCT,4900,BKN,6500,,,,,VFR,,,,,,,,,,,,METAR,109.0
KAWM 052153Z AUTO 34008G16KT 310V010 10SM CLR 24/10 A2992 RMK AO2 SLP129 T02390100,KAWM,2020-05-05T21:53:00Z,35.13,-90.23,23.9,10.0,340,8,16,10.0,29.920275,1012.9,,TRUE,TRUE,,,,,,,CLR,,,,,,,,VFR,,,,,,,,,,,,METAR,65.0
KANB 052153Z AUTO 25011G21KT 10SM BKN038 BKN045 26/18 A2986 RMK AO2 SLP103 T02560183 $,KANB,2020-05-05T21:53:00Z,33.58,-85.85,25.6,18.3,250,11,21,10.0,29.861221,1010.3,,TRUE,TRUE,TRUE,,,,,,BKN,3800,BKN,4500,,,,,VFR,,,,,,,,,,,,METAR,187.0
KAMG 052153Z AUTO 25010G16KT 10SM CLR 30/17 A2984 RMK AO2 SLP103 T03000167,KAMG,2020-05-05T21:53:00Z,31.53,-82.5,30.0,16.7,250,10,16,10.0,29.840551,1010.3,,TRUE,TRUE,,,,,,,CLR,,,,,,,,VFR,,,,,,,,,,,,METAR,59.0
KAOH 052153Z AUTO 03011G18KT 9SM -RA BKN048 OVC065 06/01 A2988 RMK AO2 RAB16 SLP124 P0002 T00610011,KAOH,2020-05-05T21:53:00Z,40.7,-84.02,6.1,1.1,30,11,18,9.0,29.878937,1012.4,,TRUE,TRUE,,,,,,-RA,BKN,4800,OVC,6500,,,,,VFR,,,,,,0.02,,,,,,METAR,296.0
KSTC 052153Z 05007KT 10SM BKN120 15/M04 A3004 RMK AO2 SLP185 T01501039,KSTC,2020-05-05T21:53:00Z,45.55,-94.05,15.0,-3.9,50,7,,10.0,30.041338,1018.5,,,TRUE,,,,,,,BKN,12000,,,,,,,VFR,,,,,,,,,,,,METAR,314.0
KAXN 052153Z AUTO 34007KT 10SM FEW038 FEW047 OVC060 11/05 A3009 RMK AO2 SLP199 T01060050,KAXN,2020-05-05T21:53:00Z,45.87,-95.4,10.6,5.0,340,7,,10.0,30.088583,1019.9,,TRUE,TRUE,,,,,,,FEW,3800,FEW,4700,OVC,6000,,,VFR,,,,,,,,,,,,METAR,433.0
KAZO 052153Z 04004KT 10SM OVC070 10/M05 A2996 RMK AO2 SLP150 T01001050,KAZO,2020-05-05T21:53:00Z,42.23,-85.55,10.0,-5.0,40,4,,10.0,29.958662,1015.0,,,TRUE,,,,,,,OVC,7000,,,,,,,VFR,,,,,,,,,,,,METAR,272.0
KBHM 052153Z 21006KT 10SM OVC019 24/19 A2985 RMK AO2 PRESFR SLP100 T02440194,KBHM,2020-05-05T21:53:00Z,33.57,-86.75,24.4,19.4,210,6,,10.0,29.84941,1010.0,,,TRUE,,,,,,,OVC,1900,,,,,,,MVFR,,,,,,,,,,,,METAR,191.0
KBGR 052153Z 01014KT 10SM BKN055 BKN070 BKN080 10/00 A2977 RMK AO2 SLP080 T01000000 $,KBGR,2020-05-05T21:53:00Z,44.8,-68.82,10.0,0.0,10,14,,10.0,29.769686,1008.0,,,TRUE,TRUE,,,,,,BKN,5500,BKN,7000,BKN,8000,,,VFR,,,,,,,,,,,,METAR,57.0
KBGM 052153Z AUTO 34006KT 10SM CLR 10/M07 A2988 RMK AO2 SLP128 T01001072,KBGM,2020-05-05T21:53:00Z,42.22,-75.98,10.0,-7.2,340,6,,10.0,29.878937,1012.8,,TRUE,TRUE,,,,,,,CLR,,,,,,,,VFR,,,,,,,,,,,,METAR,490.0
KBFM 052153Z 16009KT 10SM SCT060 28/21 A2990 RMK AO2 SLP124 T02780206,KBFM,2020-05-05T21:53:00Z,30.62,-88.07,27.8,20.6,160,9,,10.0,29.899607,1012.4,,,TRUE,,,,,,,SCT,6000,,,,,,,VFR,,,,,,,,,,,,METAR,20.0
KBFI 052153Z 33006KT 10SM CLR 20/07 A3005 RMK AO2 SLP175 T02000072,KBFI,2020-05-05T21:53:00Z,47.55,-122.32,20.0,7.2,330,6,,10.0,30.050198,1017.5,,,TRUE,,,,,,,CLR,,,,,,,,VFR,,,,,,,,,,,,METAR,4.0
KBFF 052153Z AUTO 27006KT 10SM FEW090 SCT120 19/00 A3015 RMK AO2 SLP196 T01940000,KBFF,2020-05-05T21:53:00Z,41.87,-103.58,19.4,0.0,270,6,,10.0,30.15059,1019.6,,TRUE,TRUE,,,,,,,FEW,9000,SCT,12000,,,,,VFR,,,,,,,,,,,,METAR,1203.0
KBFD 052153Z AUTO 04010KT 10SM CLR 13/M10 A2984 RMK AO2 SLP112 T01331100,KBFD,2020-05-05T21:53:00Z,41.8,-78.63,13.3,-10.0,40,10,,10.0,29.840551,1011.2,,TRUE,TRUE,,,,,,,CLR,,,,,,,,VFR,,,,,,,,,,,,METAR,647.0
KBEH 052153Z AUTO VRB04KT 10SM OVC070 09/M02 A2996 RMK AO2 SLP149 T00941022,KBEH,2020-05-05T21:53:00Z,42.13,-86.42,9.4,-2.2,0,4,,10.0,29.958662,1014.9,,TRUE,TRUE,,,,,,,OVC,7000,,,,,,,VFR,,,,,,,,,,,,METAR,191.0
KBDE 052153Z AUTO 30010KT 10SM CLR 14/M02 A3010 RMK AO2 SLP200 T01441017,KBDE,2020-05-05T21:53:00Z,48.73,-94.62,14.4,-1.7,300,10,,10.0,30.100393,1020.0,,TRUE,TRUE,,,,,,,CLR,,,,,,,,VFR,,,,,,,,,,,,METAR,329.0
KBCE 052153Z AUTO 13008KT 100V190 10SM CLR 18/M11 A3032 RMK AO2 SLP188 T01831106,KBCE,2020-05-05T21:53:00Z,37.7,-112.15,18.3,-10.6,130,8,,10.0,30.318897,1018.8,,TRUE,TRUE,,,,,,,CLR,,,,,,,,VFR,,,,,,,,,,,,METAR,2312.0
KBBW 052153Z AUTO 33015G26KT 10SM SCT110 19/M01 A3012 RMK AO2 PK WND 30028/2128 SLP193 T01941011,KBBW,2020-05-05T21:53:00Z,41.43,-99.63,19.4,-1.1,330,15,26,10.0,30.121063,1019.3,,TRUE,TRUE,,,,,,,SCT,11000,,,,,,,VFR,,,,,,,,,,,,METAR,776.0
KBAF 052153Z 33010KT 270V360 10SM CLR 16/M04 A2984 RMK AO2 SLP107 T01561044,KBAF,2020-05-05T21:53:00Z,42.17,-72.72,15.6,-4.4,330,10,,10.0,29.840551,1010.7,,,TRUE,,,,,,,CLR,,,,,,,,VFR,,,,,,,,,,,,METAR,83.0
KDXR 052153Z 36005KT 10SM CLR 15/M06 A2985 RMK AO2 SLP107 T01501061,KDXR,2020-05-05T21:53:00Z,41.37,-73.48,15.0,-6.1,360,5,,10.0,29.84941,1010.7,,,TRUE,,,,,,,CLR,,,,,,,,VFR,,,,,,,,,,,,METAR,139.0
KDWH 052153Z AUTO 34008KT 9SM FEW060 31/21 A2991 RMK AO2 SLP127 T03060211,KDWH,2020-05-05T21:53:00Z,30.07,-95.55,30.6,21.1,340,8,,9.0,29.911417,1012.7,,TRUE,TRUE,,,,,,,FEW,6000,,,,,,,VFR,,,,,,,,,,,,METAR,46.0
KDVT 052153Z 23006KT 10SM CLR 37/M01 A2988 RMK AO2 SLP092 T03671006,KDVT,2020-05-05T21:53:00Z,33.68,-112.07,36.7,-0.6,230,6,,10.0,29.878937,1009.2,,,TRUE,,,,,,,CLR,,,,,,,,VFR,,,,,,,,,,,,METAR,443.0
KDUJ 052153Z AUTO VRB03KT 10SM CLR 14/M07 A2982 RMK AO2 SLP103 T01391072,KDUJ,2020-05-05T21:53:00Z,41.17,-78.9,13.9,-7.2,0,3,,10.0,29.819881,1010.3,,TRUE,TRUE,,,,,,,CLR,,,,,,,,VFR,,,,,,,,,,,,METAR,554.0
KDTW 052153Z 02009KT 10SM OVC110 11/M06 A2993 RMK AO2 SLP137 T01061061,KDTW,2020-05-05T21:53:00Z,42.23,-83.33,10.6,-6.1,20,9,,10.0,29.929134,1013.7,,,TRUE,,,,,,,OVC,11000,,,,,,,VFR,,,,,,,,,,,,METAR,195.0
KDTS 052153Z VRB05G15KT 10SM CLR 27/18 A2990 RMK AO2 SLP124 T02670178,KDTS,2020-05-05T21:53:00Z,30.4,-86.47,26.7,17.8,0,5,15,10.0,29.899607,1012.4,,,TRUE,,,,,,,CLR,,,,,,,,VFR,,,,,,,,,,,,METAR,5.0
KDTO 052153Z 01014G20KT 10SM BKN110 26/06 A3008 RMK AO2 SLP180 T02610061,KDTO,2020-05-05T21:53:00Z,33.2,-97.2,26.1,6.1,10,14,20,10.0,30.079725,1018.0,,,TRUE,,,,,,,BKN,11000,,,,,,,VFR,,,,,,,,,,,,METAR,196.0
KDTN 052153Z 35009KT 10SM BKN110 26/14 A2998 RMK AO2 SLP151 T02610144,KDTN,2020-05-05T21:53:00Z,32.55,-93.75,26.1,14.4,350,9,,10.0,29.97933,1015.1,,,TRUE,,,,,,,BKN,11000,,,,,,,VFR,,,,,,,,,,,,METAR,53.0
KDRT 052153Z AUTO 36007G22KT 10SM FEW050 32/17 A2994 RMK AO2 SLP122 T03220172,KDRT,2020-05-05T21:53:00Z,29.37,-100.92,32.2,17.2,360,7,22,10.0,29.940945,1012.2,,TRUE,TRUE,,,,,,,FEW,5000,,,,,,,VFR,,,,,,,,,,,,METAR,313.0
KDRO 052153Z AUTO 23011G26KT 10SM CLR 22/M14 A3021 RMK AO2 PK WND 23026/2150 SLP181 T02221139,KDRO,2020-05-05T21:53:00Z,37.15,-107.77,22.2,-13.9,230,11,26,10.0,30.209646,1018.1,,TRUE,TRUE,,,,,,,CLR,,,,,,,,VFR,,,,,,,,,,,,METAR,2035.0
KDNL 052153Z AUTO 25008KT 220V300 10SM CLR 31/17 A2979 RMK AO2 SLP082 T03060167,KDNL,2020-05-05T21:53:00Z,33.47,-82.03,30.6,16.7,250,8,,10.0,29.790354,1008.2,,TRUE,TRUE,,,,,,,CLR,,,,,,,,VFR,,,,,,,,,,,,METAR,130.0
KDMO 052153Z AUTO 30020G34KT 10SM FEW085 21/03 A2996 RMK AO2 PK WND 29034/2148 SLP141 T02110028 $,KDMO,2020-05-05T21:53:00Z,38.72,-93.17,21.1,2.8,300,20,34,10.0,29.958662,1014.1,,TRUE,TRUE,TRUE,,,,,,FEW,8500,,,,,,,VFR,,,,,,,,,,,,METAR,274.0
KDMN 052153Z AUTO 10005G18KT 10SM CLR 30/02 A3011 RMK AO2 SLP126 T03000017,KDMN,2020-05-05T21:53:00Z,32.27,-107.72,30.0,1.7,100,5,18,10.0,30.109253,1012.6,,TRUE,TRUE,,,,,,,CLR,,,,,,,,VFR,,,,,,,,,,,,METAR,1311.0
KDLS 052153Z AUTO VRB03KT 10SM CLR 26/04 A2999 RMK AO2 SLP155 T02560039,KDLS,2020-05-05T21:53:00Z,45.62,-121.17,25.6,3.9,0,3,,10.0,29.991142,1015.5,,TRUE,TRUE,,,,,,,CLR,,,,,,,,VFR,,,,,,,,,,,,METAR,71.0
KDLN 052153Z AUTO 28007KT 10SM CLR 17/M04 A3021 RMK AO2 SLP211 T01671044,KDLN,2020-05-05T21:53:00Z,45.25,-112.55,16.7,-4.4,280,7,,10.0,30.209646,1021.1,,TRUE,TRUE,,,,,,,CLR,,,,,,,,VFR,,,,,,,,,,,,METAR,1591.0
KDKK 052153Z AUTO 02011KT 10SM CLR 09/M04 A2994 RMK AO2 SLP145 T00891039,KDKK,2020-05-05T21:53:00Z,42.5,-79.28,8.9,-3.9,20,11,,10.0,29.940945,1014.5,,TRUE,TRUE,,,,,,,CLR,,,,,,,,VFR,,,,,,,,,,,,METAR,202.0
KBOI 052153Z AUTO 14009G19KT 10SM CLR 27/M08 A3005 RMK AO2 SLP155 T02721078,KBOI,2020-05-05T21:53:00Z,43.57,-116.23,27.2,-7.8,140,9,19,10.0,30.050198,1015.5,,TRUE,TRUE,,,,,,,CLR,,,,,,,,VFR,,,,,,,,,,,,METAR,875.0
KBNO 052153Z AUTO VRB04KT 10SM CLR 23/M04 A3008 RMK AO2 SLP171 T02281044,KBNO,2020-05-05T21:53:00Z,43.6,-118.95,22.8,-4.4,0,4,,10.0,30.079725,1017.1,,TRUE,TRUE,,,,,,,CLR,,,,,,,,VFR,,,,,,,,,,,,METAR,1264.0
KBNA 052153Z 30014G24KT 10SM SCT033 BKN045 BKN150 BKN250 21/12 A2987 RMK AO2 SLP110 T02060117,KBNA,2020-05-05T21:53:00Z,36.12,-86.68,20.6,11.7,300,14,24,10.0,29.870079,1011.0,,,TRUE,,,,,,,SCT,3300,BKN,4500,BKN,15000,BKN,25000,VFR,,,,,,,,,,,,METAR,210.0
KBMQ 052153Z AUTO 03013G20KT 10SM OVC055 24/09 A3006 RMK AO2 SLP164 T02440089,KBMQ,2020-05-05T21:53:00Z,30.73,-98.23,24.4,8.9,30,13,20,10.0,30.059055,1016.4,,TRUE,TRUE,,,,,,,OVC,5500,,,,,,,VFR,,,,,,,,,,,,METAR,389.0
KBMG 052153Z 07005KT 10SM OVC022 09/04 A2987 RMK AO2 SLP115 T00940044,KBMG,2020-05-05T21:53:00Z,39.15,-86.62,9.4,4.4,70,5,,10.0,29.870079,1011.5,,,TRUE,,,,,,,OVC,2200,,,,,,,MVFR,,,,,,,,,,,,METAR,257.0
KBLI 052153Z 33007KT 10SM CLR 21/08 A3006 RMK AO2 SLP184 T02110078,KBLI,2020-05-05T21:53:00Z,48.8,-122.53,21.1,7.8,330,7,,10.0,30.059055,1018.4,,,TRUE,,,,,,,CLR,,,,,,,,VFR,,,,,,,,,,,,METAR,50.0
KBKV 052153Z 26010G16KT 10SM FEW037 28/17 A2996 RMK AO2 SLP143 T02830172,KBKV,2020-05-05T21:53:00Z,28.47,-82.45,28.3,17.2,260,10,16,10.0,29.958662,1014.3,,,TRUE,,,,,,,FEW,3700,,,,,,,VFR,,,,,,,,,,,,METAR,20.0
KBKL 052153Z 03024G30KT 10SM FEW120 08/M03 A2986 RMK AO2 PK WND 04030/2059 SLP116 T00831028,KBKL,2020-05-05T21:53:00Z,41.53,-81.67,8.3,-2.8,30,24,30,10.0,29.861221,1011.6,,,TRUE,,,,,,,FEW,12000,,,,,,,VFR,,,,,,,,,,,,METAR,184.0
KBKE 052153Z AUTO 11012KT 10SM CLR 22/M03 A3008 RMK AO2 SLP179 T02221028,KBKE,2020-05-05T21:53:00Z,44.85,-117.82,22.2,-2.8,110,12,,10.0,30.079725,1017.9,,TRUE,TRUE,,,,,,,CLR,,,,,,,,VFR,,,,,,,,,,,,METAR,1024.0
KBIV 052153Z AUTO VRB03KT 10SM CLR 12/M04 A2997 RMK AO2 SLP151 T01221044,KBIV,2020-05-05T21:53:00Z,42.75,-86.1,12.2,-4.4,0,3,,10.0,29.970472,1015.1,,TRUE,TRUE,,,,,,,CLR,,,,,,,,VFR,,,,,,,,,,,,METAR,208.0
KECP 052153Z 20014KT 10SM FEW027 28/19 A2989 RMK AO2 SLP134 T02780194,KECP,2020-05-05T21:53:00Z,30.35,-85.8,27.8,19.4,200,14,,10.0,29.890747,1013.4,,,TRUE,,,,,,,FEW,2700,,,,,,,VFR,,,,,,,,,,,,METAR,21.0
KEEO 052153Z AUTO 23012G16KT 10SM CLR 18/M15 A3028 RMK AO2 SLP213 T01831150,KEEO,2020-05-05T21:53:00Z,40.05,-107.88,18.3,-15.0,230,12,16,10.0,30.280512,1021.3,,TRUE,TRUE,,,,,,,CLR,,,,,,,,VFR,,,,,,,,,,,,METAR,1930.0
KELD 052153Z AUTO 35011G17KT 10SM CLR 27/15 A2999 RMK AO2 SLP151 T02670150,KELD,2020-05-05T21:53:00Z,33.22,-92.82,26.7,15.0,350,11,17,10.0,29.991142,1015.1,,TRUE,TRUE,,,,,,,CLR,,,,,,,,VFR,,,,,,,,,,,,METAR,81.0
KELN 052153Z AUTO 11010G21KT 10SM CLR 23/M01 A3006 RMK AO2 SLP173 T02331006,KELN,2020-05-05T21:53:00Z,47.03,-120.53,23.3,-0.6,110,10,21,10.0,30.059055,1017.3,,TRUE,TRUE,,,,,,,CLR,,,,,,,,VFR,,,,,,,,,,,,METAR,519.0
KELY 052153Z AUTO VRB04KT 10SM CLR 23/M13 A3020 RMK AO2 SLP171 T02281133,KELY,2020-05-05T21:53:00Z,39.3,-114.85,22.8,-13.3,0,4,,10.0,30.200787,1017.1,,TRUE,TRUE,,,,,,,CLR,,,,,,,,VFR,,,,,,,,,,,,METAR,1906.0
KELM 052153Z AUTO 04011KT 10SM CLR 12/M04 A2990 RMK AO2 SLP129 T01221044,KELM,2020-05-05T21:53:00Z,42.15,-76.9,12.2,-4.4,40,11,,10.0,29.899607,1012.9,,TRUE,TRUE,,,,,,,CLR,,,,,,,,VFR,,,,,,,,,,,,METAR,302.0
KEVW 052153Z AUTO 26011G20KT 10SM CLR 16/M13 A3031 RMK AO2 SLP219 T01611133 $,KEVW,2020-05-05T21:53:00Z,41.27,-111.03,16.1,-13.3,260,11,20,10.0,30.31004,1021.9,,TRUE,TRUE,TRUE,,,,,,CLR,,,,,,,,VFR,,,,,,,,,,,,METAR,2177.0
KESF 052153Z AUTO VRB03KT 9SM BKN060 OVC075 27/22 A2992 RMK AO2 SLP130 T02720217,KESF,2020-05-05T21:53:00Z,31.4,-92.28,27.2,21.7,0,3,,9.0,29.920275,1013.0,,TRUE,TRUE,,,,,,,BKN,6000,OVC,7500,,,,,VFR,,,,,,,,,,,,METAR,28.0
KEQY 052153Z AUTO 00000KT 10SM BKN030 23/19 A2977 RMK AO2 LTG DSNT W AND NW SLP085 T02280189,KEQY,2020-05-05T21:53:00Z,35.02,-80.62,22.8,18.9,0,0,,10.0,29.769686,1008.5,,TRUE,TRUE,,,,,,,BKN,3000,,,,,,,MVFR,,,,,,,,,,,,METAR,212.0
KEPH 052153Z AUTO 10006KT 10SM OVC100 24/00 A3005 RMK AO2 SLP173 T02390000,KEPH,2020-05-05T21:53:00Z,47.3,-119.52,23.9,0.0,100,6,,10.0,30.050198,1017.3,,TRUE,TRUE,,,,,,,OVC,10000,,,,,,,VFR,,,,,,,,,,,,METAR,383.0
KENW 052153Z 06010KT 10SM OVC070 09/M04 A3000 RMK AO2 SLP164 T00891044,KENW,2020-05-05T21:53:00Z,42.6,-87.93,8.9,-4.4,60,10,,10.0,30.0,1016.4,,,TRUE,,,,,,,OVC,7000,,,,,,,VFR,,,,,,,,,,,,METAR,219.0
KEMP 052153Z AUTO 32015G26KT 10SM CLR 23/02 A3006 RMK AO2 PK WND 30028/2140 SLP175 T02280022,KEMP,2020-05-05T21:53:00Z,38.33,-96.2,22.8,2.2,320,15,26,10.0,30.059055,1017.5,,TRUE,TRUE,,,,,,,CLR,,,,,,,,VFR,,,,,,,,,,,,METAR,367.0
KEYE 052153Z AUTO 04007KT 10SM OVC041 08/02 A2989 RMK AO2 SLP122 T00780017,KEYE,2020-05-05T21:53:00Z,39.83,-86.3,7.8,1.7,40,7,,10.0,29.890747,1012.2,,TRUE,TRUE,,,,,,,OVC,4100,,,,,,,VFR,,,,,,,,,,,,METAR,248.0
KEWB 052153Z 34007KT 10SM BKN075 16/M02 A2980 RMK AO2 SLP091 T01561017,KEWB,2020-05-05T21:53:00Z,41.68,-70.95,15.6,-1.7,340,7,,10.0,29.799213,1009.1,,,TRUE,,,,,,,BKN,7500,,,,,,,VFR,,,,,,,,,,,,METAR,23.0
KEYW 052153Z AUTO 15008KT 10SM CLR 28/20 A2993 RMK AO2 SLP136 T02830200,KEYW,2020-05-05T21:53:00Z,24.55,-81.75,28.3,20.0,150,8,,10.0,29.929134,1013.6,,TRUE,TRUE,,,,,,,CLR,,,,,,,,VFR,,,,,,,,,,,,METAR,5.0
KUUU 052153Z AUTO 30006KT 10SM CLR 15/M02 A2982 RMK AO2 SLP095 T01501017,KUUU,2020-05-05T21:53:00Z,41.53,-71.28,15.0,-1.7,300,6,,10.0,29.819881,1009.5,,TRUE,TRUE,,,,,,,CLR,,,,,,,,VFR,,,,,,,,,,,,METAR,51.0
KUTS 052153Z AUTO VRB06KT 10SM OVC065 26/19 A2997 RMK AO2 SLP144 T02560194,KUTS,2020-05-05T21:53:00Z,30.75,-95.58,25.6,19.4,0,6,,10.0,29.970472,1014.4,,TRUE,TRUE,,,,,,,OVC,6500,,,,,,,VFR,,,,,,,,,,,,METAR,104.0
KUNO 052153Z AUTO 30015KT 10SM CLR 22/04 A2998 RMK AO2 PK WND 30026/2107 SLP143 T02170039,KUNO,2020-05-05T21:53:00Z,36.88,-91.9,21.7,3.9,300,15,,10.0,29.97933,1014.3,,TRUE,TRUE,,,,,,,CLR,,,,,,,,VFR,,,,,,,,,,,,METAR,372.0
PABT 052153Z 14005KT 10SM FEW036 08/M04 A3003 RMK AO2 SLP179 T00831039,PABT,2020-05-05T21:53:00Z,66.92,-151.52,8.3,-3.9,140,5,,10.0,30.029528,1017.9,,,TRUE,,,,,,,FEW,3600,,,,,,,VFR,,,,,,,,,,,,METAR,195.0
PABR 052153Z 02007KT 10SM CLR M08/M12 A3021 RMK AO2 SLP230 T10831117,PABR,2020-05-05T21:53:00Z,71.28,-156.78,-8.3,-11.7,20,7,,10.0,30.209646,1023.0,,,TRUE,,,,,,,CLR,,,,,,,,VFR,,,,,,,,,,,,METAR,7.0
PAGK 052153Z AUTO VRB03KT 10SM CLR 13/M06 A2999 RMK AO2 SLP172 T01281056 TSNO,PAGK,2020-05-05T21:53:00Z,62.15,-145.45,12.8,-5.6,0,3,,10.0,29.991142,1017.2,,TRUE,TRUE,,,TRUE,,,,CLR,,,,,,,,VFR,,,,,,,,,,,,METAR,481.0
PAHO 052153Z 25007KT 10SM CLR 12/00 A3000 RMK AO2 SLP159 T01220000,PAHO,2020-05-05T21:53:00Z,59.63,-151.47,12.2,0.0,250,7,,10.0,30.0,1015.9,,,TRUE,,,,,,,CLR,,,,,,,,VFR,,,,,,,,,,,,METAR,28.0
PAIL 052153Z 12007KT 10SM BKN065 BKN085 BKN100 11/01 A3002 RMK AO2 SLP167 T01110011,PAIL,2020-05-05T21:53:00Z,59.75,-154.92,11.1,1.1,120,7,,10.0,30.02067,1016.7,,,TRUE,,,,,,,BKN,6500,BKN,8500,BKN,10000,,,VFR,,,,,,,,,,,,METAR,49.0
PAJN 052153Z 13014KT 10SM OVC060 11/03 A3011 RMK AO2 SLP195 T01110033,PAJN,2020-05-05T21:53:00Z,58.35,-134.58,11.1,3.3,130,14,,10.0,30.109253,1019.5,,,TRUE,,,,,,,OVC,6000,,,,,,,VFR,,,,,,,,,,,,METAR,5.0
PALH 052153Z 05009KT 10SM CLR 14/M01 A3001 RMK AO2 SLP161 T01391006,PALH,2020-05-05T21:53:00Z,61.18,-149.97,13.9,-0.6,50,9,,10.0,30.008858,1016.1,,,TRUE,,,,,,,CLR,,,,,,,,VFR,,,,,,,,,,,,METAR,26.0
PAMC 052153Z AUTO 00000KT 10SM CLR 13/M01 A3004 RMK AO2 SLP177 T01281006 TSNO,PAMC,2020-05-05T21:53:00Z,62.97,-155.62,12.8,-0.6,0,0,,10.0,30.041338,1017.7,,TRUE,TRUE,,,TRUE,,,,CLR,,,,,,,,VFR,,,,,,,,,,,,METAR,103.0
PANC 052153Z 06009KT 10SM FEW040 BKN200 14/M01 A2999 RMK AO2 SLP158 T01391011,PANC,2020-05-05T21:53:00Z,61.17,-150.02,13.9,-1.1,60,9,,10.0,29.991142,1015.8,,,TRUE,,,,,,,FEW,4000,BKN,20000,,,,,VFR,,,,,,,,,,,,METAR,38.0
PAOM 052153Z 20004KT 10SM CLR 06/M02 A3003 RMK AO2 SLP169 T00561017,PAOM,2020-05-05T21:53:00Z,64.5,-165.43,5.6,-1.7,200,4,,10.0,30.029528,1016.9,,,TRUE,,,,,,,CLR,,,,,,,,VFR,,,,,,,,,,,,METAR,11.0
PANN 052153Z AUTO VRB03KT 10SM CLR 14/M02 A2998 RMK AO2 SLP160 T01391017 TSNO,PANN,2020-05-05T21:53:00Z,64.55,-149.08,13.9,-1.7,0,3,,10.0,29.97933,1016.0,,TRUE,TRUE,,,TRUE,,,,CLR,,,,,,,,VFR,,,,,,,,,,,,METAR,110.0
PAOR 052153Z AUTO 17005KT 10SM FEW060 14/M03 A2994 RMK AO2 SLP153 T01441028 TSNO,PAOR,2020-05-05T21:53:00Z,62.97,-141.93,14.4,-2.8,170,5,,10.0,29.940945,1015.3,,TRUE,TRUE,,,TRUE,,,,FEW,6000,,,,,,,VFR,,,,,,,,,,,,METAR,523.0
PAOT 052153Z 28008KT 10SM CLR M04/M06 A3010 RMK AO2 SLP192 T10391061,PAOT,2020-05-05T21:53:00Z,66.87,-162.58,-3.9,-6.1,280,8,,10.0,30.100393,1019.2,,,TRUE,,,,,,,CLR,,,,,,,,VFR,,,,,,,,,,,,METAR,3.0
PAFA 052153Z 19005KT 10SM FEW075 14/M02 A2999 RMK AO2 SLP162 T01391022,PAFA,2020-05-05T21:53:00Z,64.8,-147.83,13.9,-2.2,190,5,,10.0,29.991142,1016.2,,,TRUE,,,,,,,FEW,7500,,,,,,,VFR,,,,,,,,,,,,METAR,132.0
PAEN 052153Z 36014KT 10SM CLR 14/M01 A3000 RMK AO2 SLP162 T01391006,PAEN,2020-05-05T21:53:00Z,60.57,-151.25,13.9,-0.6,360,14,,10.0,30.0,1016.2,,,TRUE,,,,,,,CLR,,,,,,,,VFR,,,,,,,,,,,,METAR,27.0
PACV 052153Z 23008KT 10SM CLR 13/M02 A3003 RMK AO2 SLP168 T01331022,PACV,2020-05-05T21:53:00Z,60.5,-145.47,13.3,-2.2,230,8,,10.0,30.029528,1016.8,,,TRUE,,,,,,,CLR,,,,,,,,VFR,,,,,,,,,,,,METAR,12.0
PACD 052153Z 36020G23KT 10SM FEW025 07/M01 A2993 RMK AO2 SLP135 T00671011,PACD,2020-05-05T21:53:00Z,55.22,-162.72,6.7,-1.1,360,20,23,10.0,29.929134,1013.5,,,TRUE,,,,,,,FEW,2500,,,,,,,VFR,,,,,,,,,,,,METAR,23.0
PASC 052153Z 29009KT 9SM OVC005 M10/M12 A3013 RMK AO2 SLP205 T11001122,PASC,2020-05-05T21:53:00Z,70.2,-148.47,-10.0,-12.2,290,9,,9.0,30.129921,1020.5,,,TRUE,,,,,,,OVC,500,,,,,,,IFR,,,,,,,,,,,,METAR,15.0
KLOZ 052153Z AUTO 28016KT 10SM SCT013 BKN028 OVC035 16/14 A2982 RMK AO2 RAB2056E44 PRESRR SLP091 P0000 T01610139,KLOZ,2020-05-05T21:53:00Z,37.08,-84.07,16.1,13.9,280,16,,10.0,29.819881,1009.1,,TRUE,TRUE,,,,,,,SCT,1300,BKN,2800,OVC,3500,,,MVFR,,,,,,0.005,,,,,,METAR,362.0
KLOU 052153Z 33006KT 6SM HZ BKN009 OVC015 11/08 A2986 RMK AO2 CIG 006V011 SLP110 T01110083,KLOU,2020-05-05T21:53:00Z,38.22,-85.67,11.1,8.3,330,6,,6.0,29.861221,1011.0,,,TRUE,,,,,,HZ,BKN,900,OVC,1500,,,,,IFR,,,,,,,,,,,,METAR,164.0
KLOL 052153Z AUTO 17010KT 10SM CLR 27/M15 A3007 RMK AO2 SLP162 T02721150,KLOL,2020-05-05T21:53:00Z,40.07,-118.57,27.2,-15.0,170,10,,10.0,30.070866,1016.2,,TRUE,TRUE,,,,,,,CLR,,,,,,,,VFR,,,,,,,,,,,,METAR,1189.0
KLNS 052153Z 29004KT 10SM SCT065 BKN075 OVC090 12/M01 A2988 RMK AO2 SLP119 T01221011,KLNS,2020-05-05T21:53:00Z,40.12,-76.3,12.2,-1.1,290,4,,10.0,29.878937,1011.9,,,TRUE,,,,,,,SCT,6500,BKN,7500,OVC,9000,,,VFR,,,,,,,,,,,,METAR,125.0
KLPR 052153Z AUTO 05014KT 10SM BKN080 BKN095 OVC110 07/M05 A2988 RMK AO2 SLP123 T00671050 $,KLPR,2020-05-05T21:53:00Z,41.35,-82.18,6.7,-5.0,50,14,,10.0,29.878937,1012.3,,TRUE,TRUE,TRUE,,,,,,BKN,8000,BKN,9500,OVC,11000,,,VFR,,,,,,,,,,,,METAR,241.0
KLSE 052153Z 28004KT 10SM BKN110 12/04 A3002 RMK AO2 SLP167 T01220044,KLSE,2020-05-05T21:53:00Z,43.88,-91.25,12.2,4.4,280,4,,10.0,30.02067,1016.7,,,TRUE,,,,,,,BKN,11000,,,,,,,VFR,,,,,,,,,,,,METAR,199.0
PASI 052153Z VRB04KT 10SM BKN055 12/02 A3006 RMK AO2 SLP181 T01220017,PASI,2020-05-05T21:53:00Z,57.07,-135.35,12.2,1.7,0,4,,10.0,30.059055,1018.1,,,TRUE,,,,,,,BKN,5500,,,,,,,VFR,,,,,,,,,,,,METAR,5.0
PATK 052153Z 29008KT 10SM CLR 13/M02 A3000 RMK AO2 SLP164 T01281022,PATK,2020-05-05T21:53:00Z,62.3,-150.1,12.8,-2.2,290,8,,10.0,30.0,1016.4,,,TRUE,,,,,,,CLR,,,,,,,,VFR,,,,,,,,,,,,METAR,109.0
PASO 052153Z AUTO 01005KT 10SM CLR 11/04 A3000 RMK AO2 SLP160 T01060039 TSNO,PASO,2020-05-05T21:53:00Z,59.45,-151.7,10.6,3.9,10,5,,10.0,30.0,1016.0,,TRUE,TRUE,,,TRUE,,,,CLR,,,,,,,,VFR,,,,,,,,,,,,METAR,9.0
KVGT 052153Z 00000KT 10SM CLR 32/M11 A2999 RMK AO2 SLP152 T03221106,KVGT,2020-05-05T21:53:00Z,36.22,-115.2,32.2,-10.6,0,0,,10.0,29.991142,1015.2,,,TRUE,,,,,,,CLR,,,,,,,,VFR,,,,,,,,,,,,METAR,671.0
KVEL 052153Z AUTO VRB04KT 10SM CLR 19/M08 A3025 RMK AO2 SLP215 T01941078,KVEL,2020-05-05T21:53:00Z,40.45,-109.52,19.4,-7.8,0,4,,10.0,30.250984,1021.5,,TRUE,TRUE,,,,,,,CLR,,,,,,,,VFR,,,,,,,,,,,,METAR,1604.0
KVCB 052153Z AUTO 24013G19KT 10SM CLR 29/07 A3007 RMK AO2 SLP182 T02890067,KVCB,2020-05-05T21:53:00Z,38.38,-121.95,28.9,6.7,240,13,19,10.0,30.070866,1018.2,,TRUE,TRUE,,,,,,,CLR,,,,,,,,VFR,,,,,,,,,,,,METAR,33.0
PAVL 052153Z AUTO 00000KT 10SM CLR A3010 RMK AO2 SLP194 TSNO $,PAVL,2020-05-05T21:53:00Z,67.73,-164.55,,,0,0,,10.0,30.100393,1019.4,,TRUE,TRUE,TRUE,,TRUE,,,,CLR,,,,,,,,VFR,,,,,,,,,,,,METAR,3.0
PAWD 052153Z AUTO 18014G18KT 10SM CLR 10/05 A2999 RMK AO2 SLP155 T01000050 TSNO $,PAWD,2020-05-05T21:53:00Z,60.12,-149.42,10.0,5.0,180,14,18,10.0,29.991142,1015.5,,TRUE,TRUE,TRUE,,TRUE,,,,CLR,,,,,,,,VFR,,,,,,,,,,,,METAR,23.0
PAYA 052153Z AUTO 14006G15KT 10SM BKN080 12/00 A3007 RMK AO2 SLP183 T01170000 TSNO,PAYA,2020-05-05T21:53:00Z,59.52,-139.67,11.7,0.0,140,6,15,10.0,30.070866,1018.3,,TRUE,TRUE,,,TRUE,,,,BKN,8000,,,,,,,VFR,,,,,,,,,,,,METAR,11.0
TJNR 052153Z AUTO 09008KT 8SM CLR 29/23 A2995 RMK AO2 SLP142 T02890233,TJNR,2020-05-05T21:53:00Z,18.25,-65.63,28.9,23.3,90,8,,8.0,29.949802,1014.2,,TRUE,TRUE,,,,,,,CLR,,,,,,,,VFR,,,,,,,,,,,,METAR,12.0
KARA 052153Z 28005KT 10SM CLR 31/21 A2989 RMK AO2 SLP122 T03110206,KARA,2020-05-05T21:53:00Z,30.03,-91.88,31.1,20.6,280,5,,10.0,29.890747,1012.2,,,TRUE,,,,,,,CLR,,,,,,,,VFR,,,,,,,,,,,,METAR,18.0
KAPF 052153Z 25009KT 10SM CLR 28/21 A2992 RMK AO2 SLP132 T02830211,KAPF,2020-05-05T21:53:00Z,26.15,-81.77,28.3,21.1,250,9,,10.0,29.920275,1013.2,,,TRUE,,,,,,,CLR,,,,,,,,VFR,,,,,,,,,,,,METAR,3.0
KAPA 052153Z 35008KT 10SM FEW070 SCT140 BKN220 21/M10 A3018 RMK AO2 SLP195 T02061100,KAPA,2020-05-05T21:53:00Z,39.57,-104.85,20.6,-10.0,350,8,,10.0,30.180119,1019.5,,,TRUE,,,,,,,FEW,7000,SCT,14000,BKN,22000,,,VFR,,,,,,,,,,,,METAR,1775.0
KAOO 052153Z AUTO 17004KT 10SM -RA BKN065 OVC080 08/03 A2986 RMK AO2 SLP121 P0001 T00830028,KAOO,2020-05-05T21:53:00Z,40.3,-78.32,8.3,2.8,170,4,,10.0,29.861221,1012.1,,TRUE,TRUE,,,,,,-RA,BKN,6500,OVC,8000,,,,,VFR,,,,,,0.01,,,,,,METAR,455.0
KLMT 052153Z VRB05KT 10SM CLR 21/M02 A3007 RMK AO2 SLP164 T02111017,KLMT,2020-05-05T21:53:00Z,42.15,-121.72,21.1,-1.7,0,5,,10.0,30.070866,1016.4,,,TRUE,,,,,,,CLR,,,,,,,,VFR,,,,,,,,,,,,METAR,1246.0
KLUK 052153Z 36006KT 10SM OVC036 11/03 A2984 RMK AO2 SLP104 T01110033,KLUK,2020-05-05T21:53:00Z,39.1,-84.42,11.1,3.3,360,6,,10.0,29.840551,1010.4,,,TRUE,,,,,,,OVC,3600,,,,,,,VFR,,,,,,,,,,,,METAR,155.0
KLVK 052153Z 27013KT 10SM CLR 26/07 A3011 RMK AO2 SLP193 T02560067,KLVK,2020-05-05T21:53:00Z,37.7,-121.82,25.6,6.7,270,13,,10.0,30.109253,1019.3,,,TRUE,,,,,,,CLR,,,,,,,,VFR,,,,,,,,,,,,METAR,117.0
KLVJ 052153Z AUTO 17010KT 9SM SCT024 BKN033 31/23 A2991 RMK AO2 SLP128 T03060228,KLVJ,2020-05-05T21:53:00Z,29.52,-95.25,30.6,22.8,170,10,,9.0,29.911417,1012.8,,TRUE,TRUE,,,,,,,SCT,2400,BKN,3300,,,,,VFR,,,,,,,,,,,,METAR,12.0
KLLQ 052153Z AUTO 31008KT 10SM CLR 26/12 A2997 RMK AO2 SLP147 T02560117 $,KLLQ,2020-05-05T21:53:00Z,33.63,-91.75,25.6,11.7,310,8,,10.0,29.970472,1014.7,,TRUE,TRUE,TRUE,,,,,,CLR,,,,,,,,VFR,,,,,,,,,,,,METAR,83.0
KLIT 052153Z 29012KT 10SM SCT120 SCT200 24/09 A2998 RMK AO2 SLP153 T02390089,KLIT,2020-05-05T21:53:00Z,34.73,-92.23,23.9,8.9,290,12,,10.0,29.97933,1015.3,,,TRUE,,,,,,,SCT,12000,SCT,20000,,,,,VFR,,,,,,,,,,,,METAR,79.0
KLHX 052153Z AUTO 11008KT 10SM CLR 24/M05 A3012 RMK AO2 SLP163 T02441050 TSNO,KLHX,2020-05-05T21:53:00Z,38.05,-103.52,24.4,-5.0,110,8,,10.0,30.121063,1016.3,,TRUE,TRUE,,,TRUE,,,,CLR,,,,,,,,VFR,,,,,,,,,,,,METAR,1277.0
KLGB 052153Z 31010KT 10SM CLR 31/07 A2992 RMK AO2 SLP130 T03060067,KLGB,2020-05-05T21:53:00Z,33.82,-118.15,30.6,6.7,310,10,,10.0,29.920275,1013.0,,,TRUE,,,,,,,CLR,,,,,,,,VFR,,,,,,,,,,,,METAR,10.0
KLFT 052153Z 28006KT 10SM CLR 31/17 A2989 RMK AO2 SLP122 T03110172,KLFT,2020-05-05T21:53:00Z,30.2,-92.0,31.1,17.2,280,6,,10.0,29.890747,1012.2,,,TRUE,,,,,,,CLR,,,,,,,,VFR,,,,,,,,,,,,METAR,11.0
KLFK 052153Z AUTO 34006KT 10SM OVC080 27/20 A2996 RMK AO2 SLP140 T02670200,KLFK,2020-05-05T21:53:00Z,31.23,-94.75,26.7,20.0,340,6,,10.0,29.958662,1014.0,,TRUE,TRUE,,,,,,,OVC,8000,,,,,,,VFR,,,,,,,,,,,,METAR,88.0
KLEE 052153Z 27007KT 10SM CLR 30/19 A2993 RMK AO2 SLP134 T03000189,KLEE,2020-05-05T21:53:00Z,28.82,-81.82,30.0,18.9,270,7,,10.0,29.929134,1013.4,,,TRUE,,,,,,,CLR,,,,,,,,VFR,,,,,,,,,,,,METAR,23.0
KASE 052153Z 32013G20KT 10SM CLR 17/M13 A3028 RMK AO2 SLP175 T01721133,KASE,2020-05-05T21:53:00Z,39.23,-106.87,17.2,-13.3,320,13,20,10.0,30.280512,1017.5,,,TRUE,,,,,,,CLR,,,,,,,,VFR,,,,,,,,,,,,METAR,2354.0
KASD 052153Z AUTO VRB06KT 10SM BKN050 30/19 A2987 RMK AO2 SLP116 T03000194,KASD,2020-05-05T21:53:00Z,30.35,-89.82,30.0,19.4,0,6,,10.0,29.870079,1011.6,,TRUE,TRUE,,,,,,,BKN,5000,,,,,,,VFR,,,,,,,,,,,,METAR,9.0
KARB 052153Z AUTO 05009KT 10SM OVC085 10/M06 A2992 RMK AO2 SLP138 T01001061,KARB,2020-05-05T21:53:00Z,42.22,-83.73,10.0,-6.1,50,9,,10.0,29.920275,1013.8,,TRUE,TRUE,,,,,,,OVC,8500,,,,,,,VFR,,,,,,,,,,,,METAR,251.0
KMTN 052153Z 16004KT 10SM OVC100 14/01 A2990,KMTN,2020-05-05T21:53:00Z,39.32,-76.42,14.0,1.0,160,4,,10.0,29.899607,,,,,,,,,,,OVC,10000,,,,,,,VFR,,,,,,,,,,,,METAR,7.0
KVRB 052153Z 14015KT 10SM CLR 30/21 A2990 RMK AO2 SLP124 T03000206,KVRB,2020-05-05T21:53:00Z,27.65,-80.42,30.0,20.6,140,15,,10.0,29.899607,1012.4,,,TRUE,,,,,,,CLR,,,,,,,,VFR,,,,,,,,,,,,METAR,10.0
KVPC 052153Z AUTO VRB03KT 10SM SCT037 BKN048 BKN055 26/19 A2984 RMK AO2 LTG DSNT N SLP095 T02610189,KVPC,2020-05-05T21:53:00Z,34.13,-84.85,26.1,18.9,0,3,,10.0,29.840551,1009.5,,TRUE,TRUE,,,,,,,SCT,3700,BKN,4800,BKN,5500,,,VFR,,,,,,,,,,,,METAR,222.0
KVLD 052153Z VRB06KT 10SM SCT050 SCT060 30/19 A2987 RMK AO2 SLP120 T03000194,KVLD,2020-05-05T21:53:00Z,30.78,-83.27,30.0,19.4,0,6,,10.0,29.870079,1012.0,,,TRUE,,,,,,,SCT,5000,SCT,6000,,,,,VFR,,,,,,,,,,,,METAR,62.0
KVIH 052153Z AUTO 28015G22KT 10SM FEW075 19/06 A2995 RMK AO2 PK WND 28029/2104 SLP136 T01940056 $,KVIH,2020-05-05T21:53:00Z,38.13,-91.77,19.4,5.6,280,15,22,10.0,29.949802,1013.6,,TRUE,TRUE,TRUE,,,,,,FEW,7500,,,,,,,VFR,,,,,,,,,,,,METAR,333.0
KWRL 052153Z AUTO 35007G18KT 10SM CLR 19/M07 A3021 RMK AO2 SLP224 T01941067,KWRL,2020-05-05T21:53:00Z,43.97,-107.95,19.4,-6.7,350,7,18,10.0,30.209646,1022.4,,TRUE,TRUE,,,,,,,CLR,,,,,,,,VFR,,,,,,,,,,,,METAR,1271.0
KVUO 052153Z AUTO VRB05KT 10SM FEW090 22/09 A3003 RMK AO2 SLP170 T02220094,KVUO,2020-05-05T21:53:00Z,45.62,-122.65,22.2,9.4,0,5,,10.0,30.029528,1017.0,,TRUE,TRUE,,,,,,,FEW,9000,,,,,,,VFR,,,,,,,,,,,,METAR,8.0
KXNA 052153Z 32013G22KT 10SM CLR 21/04 A3006 RMK AO2 SLP171 T02110044,KXNA,2020-05-05T21:53:00Z,36.28,-94.3,21.1,4.4,320,13,22,10.0,30.059055,1017.1,,,TRUE,,,,,,,CLR,,,,,,,,VFR,,,,,,,,,,,,METAR,392.0
KYIP 052153Z 03011KT 10SM OVC090 12/M06 A2993 RMK AO2 SLP134 T01171061,KYIP,2020-05-05T21:53:00Z,42.23,-83.53,11.7,-6.1,30,11,,10.0,29.929134,1013.4,,,TRUE,,,,,,,OVC,9000,,,,,,,VFR,,,,,,,,,,,,METAR,215.0
KYKM 052153Z 16004KT 10SM FEW100 23/01 A3004 RMK AO2 SLP170 T02330011,KYKM,2020-05-05T21:53:00Z,46.57,-120.53,23.3,1.1,160,4,,10.0,30.041338,1017.0,,,TRUE,,,,,,,FEW,10000,,,,,,,VFR,,,,,,,,,,,,METAR,324.0
KWVI 052153Z AUTO 18005KT 10SM CLR 23/08 A3012 RMK AO2 SLP199 T02330083,KWVI,2020-05-05T21:53:00Z,36.93,-121.78,23.3,8.3,180,5,,10.0,30.121063,1019.9,,TRUE,TRUE,,,,,,,CLR,,,,,,,,VFR,,,,,,,,,,,,METAR,43.0
KWST 052153Z AUTO 26005KT 10SM CLR 18/M05 A2983 RMK AO2 SLP102 T01781050,KWST,2020-05-05T21:53:00Z,41.35,-71.8,17.8,-5.0,260,5,,10.0,29.828741,1010.2,,TRUE,TRUE,,,,,,,CLR,,,,,,,,VFR,,,,,,,,,,,,METAR,21.0
KHFD 052153Z 29005KT 10SM CLR 16/M03 A2985 RMK AO2 SLP107 T01561033,KHFD,2020-05-05T21:53:00Z,41.73,-72.65,15.6,-3.3,290,5,,10.0,29.84941,1010.7,,,TRUE,,,,,,,CLR,,,,,,,,VFR,,,,,,,,,,,,METAR,4.0
KZZV 052153Z AUTO 08005KT 10SM OVC039 08/03 A2980 RMK AO2 RAE06 SLP093 P0000 T00830028,KZZV,2020-05-05T21:53:00Z,39.95,-81.9,8.3,2.8,80,5,,10.0,29.799213,1009.3,,TRUE,TRUE,,,,,,,OVC,3900,,,,,,,VFR,,,,,,0.005,,,,,,METAR,268.0
PADQ 052153Z 03021G27KT 10SM BKN036 OVC045 08/03 A2994 RMK AO2 PK WND 02030/2112 RAE49 SLP140 P0001 T00780028,PADQ,2020-05-05T21:53:00Z,57.75,-152.5,7.8,2.8,30,21,27,10.0,29.940945,1014.0,,,TRUE,,,,,,,BKN,3600,OVC,4500,,,,,VFR,,,,,,0.01,,,,,,METAR,34.0
PABI 052153Z 33003KT 10SM FEW065 13/M04 A3000 RMK AO2 SLP170 VIRGA DSNT E T01281044,PABI,2020-05-05T21:53:00Z,64.0,-145.72,12.8,-4.4,330,3,,10.0,30.0,1017.0,,,TRUE,,,,,,,FEW,6500,,,,,,,VFR,,,,,,,,,,,,METAR,386.0
PABE 052153Z VRB04KT 10SM OVC100 08/03 A3003 RMK AO2 SLP172 T00830028,PABE,2020-05-05T21:53:00Z,60.78,-161.83,8.3,2.8,0,4,,10.0,30.029528,1017.2,,,TRUE,,,,,,,OVC,10000,,,,,,,VFR,,,,,,,,,,,,METAR,28.0
PAAQ 052153Z VRB03KT 10SM CLR 14/M02 A2998 RMK AO2 SLP155 T01441022,PAAQ,2020-05-05T21:53:00Z,61.6,-149.08,14.4,-2.2,0,3,,10.0,29.97933,1015.5,,,TRUE,,,,,,,CLR,,,,,,,,VFR,,,,,,,,,,,,METAR,73.0
KFAT 052153Z 31009G15KT 10SM FEW250 31/04 A3004 RMK AO2 SLP168 MTNS OBSC HZ DSNT E-S T03060044,KFAT,2020-05-05T21:53:00Z,36.78,-119.72,30.6,4.4,310,9,15,10.0,30.041338,1016.8,,,TRUE,,,,,,,FEW,25000,,,,,,,VFR,,,,,,,,,,,,METAR,104.0
KFAY 052153Z 13005KT 10SM CLR 24/16 A2978 RMK AO2 SLP080 T02390161,KFAY,2020-05-05T21:53:00Z,34.98,-78.88,23.9,16.1,130,5,,10.0,29.778543,1008.0,,,TRUE,,,,,,,CLR,,,,,,,,VFR,,,,,,,,,,,,METAR,55.0
KFCM 052153Z 00000KT 10SM SCT120 16/M08 A3003 RMK AO2 SLP170 T01561083,KFCM,2020-05-05T21:53:00Z,44.83,-93.47,15.6,-8.3,0,0,,10.0,30.029528,1017.0,,,TRUE,,,,,,,SCT,12000,,,,,,,VFR,,,,,,,,,,,,METAR,280.0
KFDR 052153Z AUTO 02006KT 10SM CLR 27/02 A3010 RMK AO2 SLP176 T02720017,KFDR,2020-05-05T21:53:00Z,34.35,-98.98,27.2,1.7,20,6,,10.0,30.100393,1017.6,,TRUE,TRUE,,,,,,,CLR,,,,,,,,VFR,,,,,,,,,,,,METAR,386.0
KFDY 052153Z AUTO 04009KT 10SM -RA OVC055 08/M01 A2989 RMK AO2 SLP121 P0000 T00781011,KFDY,2020-05-05T21:53:00Z,41.02,-83.67,7.8,-1.1,40,9,,10.0,29.890747,1012.1,,TRUE,TRUE,,,,,,-RA,OVC,5500,,,,,,,VFR,,,,,,0.005,,,,,,METAR,247.0
KFFC 052153Z AUTO 24006KT 10SM CLR 28/18 A2985 RMK AO2 SLP101 T02780183,KFFC,2020-05-05T21:53:00Z,33.35,-84.57,27.8,18.3,240,6,,10.0,29.84941,1010.1,,TRUE,TRUE,,,,,,,CLR,,,,,,,,VFR,,,,,,,,,,,,METAR,262.0
KFFT 052153Z AUTO 28006KT 9SM OVC006 11/08 A2984 RMK AO2 CIG 005V009 SLP104 T01060083,KFFT,2020-05-05T21:53:00Z,38.18,-84.9,10.6,8.3,280,6,,9.0,29.840551,1010.4,,TRUE,TRUE,,,,,,,OVC,600,,,,,,,IFR,,,,,,,,,,,,METAR,236.0
KFLD 052153Z AUTO 04007KT 10SM CLR 12/M03 A3002 RMK AO2 SLP169 T01171033,KFLD,2020-05-05T21:53:00Z,43.77,-88.48,11.7,-3.3,40,7,,10.0,30.02067,1016.9,,TRUE,TRUE,,,,,,,CLR,,,,,,,,VFR,,,,,,,,,,,,METAR,240.0
KFHR 052153Z AUTO 02007KT 10SM FEW075 18/09 A3007 RMK AO2 SLP183 T01780094,KFHR,2020-05-05T21:53:00Z,48.52,-123.03,17.8,9.4,20,7,,10.0,30.070866,1018.3,,TRUE,TRUE,,,,,,,FEW,7500,,,,,,,VFR,,,,,,,,,,,,METAR,32.0
PHNL 052153Z 05012G19KT 10SM FEW025 SCT045 29/14 A3006 RMK AO2 SLP180 T02890144,PHNL,2020-05-05T21:53:00Z,21.33,-157.92,28.9,14.4,50,12,19,10.0,30.059055,1018.0,,,TRUE,,,,,,,FEW,2500,SCT,4500,,,,,VFR,,,,,,,,,,,,METAR,4.0
PAPB 052153Z AUTO 01007KT 10SM OVC017 01/M03 A3003 RMK AO2 SLP158 T00061028 TSNO,PAPB,2020-05-05T21:53:00Z,56.58,-169.67,0.6,-2.8,10,7,,10.0,30.029528,1015.8,,TRUE,TRUE,,,TRUE,,,,OVC,1700,,,,,,,MVFR,,,,,,,,,,,,METAR,35.0
KFLL 052153Z 14014KT 10SM FEW043 FEW250 29/21 A2992 RMK AO2 SLP130 T02890211,KFLL,2020-05-05T21:53:00Z,26.07,-80.15,28.9,21.1,140,14,,10.0,29.920275,1013.0,,,TRUE,,,,,,,FEW,4300,FEW,25000,,,,,VFR,,,,,,,,,,,,METAR,3.0
KFLO 052153Z AUTO 18007KT 10SM CLR 29/20 A2976 RMK AO2 SLP076 T02890200,KFLO,2020-05-05T21:53:00Z,34.18,-79.73,28.9,20.0,180,7,,10.0,29.760826,1007.6,,TRUE,TRUE,,,,,,,CLR,,,,,,,,VFR,,,,,,,,,,,,METAR,44.0
KFTY 052153Z 25008G17KT 10SM CLR 27/16 A2982 RMK AO2 SLP090 T02670161,KFTY,2020-05-05T21:53:00Z,33.78,-84.52,26.7,16.1,250,8,17,10.0,29.819881,1009.0,,,TRUE,,,,,,,CLR,,,,,,,,VFR,,,,,,,,,,,,METAR,263.0
KFTW 052153Z 02014G22KT 340V040 10SM CLR 26/08 A3007 RMK AO2 PK WND 36027/2107 SLP175 T02560078,KFTW,2020-05-05T21:53:00Z,32.83,-97.37,25.6,7.8,20,14,22,10.0,30.070866,1017.5,,,TRUE,,,,,,,CLR,,,,,,,,VFR,,,,,,,,,,,,METAR,214.0
KFST 052153Z AUTO 07011G18KT 10SM CLR 28/05 A3011 RMK AO2 SLP150 T02780050,KFST,2020-05-05T21:53:00Z,30.92,-102.92,27.8,5.0,70,11,18,10.0,30.109253,1015.0,,TRUE,TRUE,,,,,,,CLR,,,,,,,,VFR,,,,,,,,,,,,METAR,918.0
KFSM 052153Z 31008G16KT 10SM CLR 24/04 A3004 RMK AO2 SLP170 T02390044,KFSM,2020-05-05T21:53:00Z,35.33,-94.37,23.9,4.4,310,8,16,10.0,30.041338,1017.0,,,TRUE,,,,,,,CLR,,,,,,,,VFR,,,,,,,,,,,,METAR,140.0
KFRG 052153Z AUTO VRB04KT 10SM CLR 17/M08 A2985 RMK AO2 SLP109 T01671078,KFRG,2020-05-05T21:53:00Z,40.73,-73.42,16.7,-7.8,0,4,,10.0,29.84941,1010.9,,TRUE,TRUE,,,,,,,CLR,,,,,,,,VFR,,,,,,,,,,,,METAR,21.0
KFPR 052153Z 13015KT 10SM CLR 29/21 A2991 RMK AO2 SLP127 T02940211,KFPR,2020-05-05T21:53:00Z,27.5,-80.38,29.4,21.1,130,15,,10.0,29.911417,1012.7,,,TRUE,,,,,,,CLR,,,,,,,,VFR,,,,,,,,,,,,METAR,13.0
KFOK 052153Z 32010KT 10SM CLR 16/M09 A2986 RMK AO2 SLP113 T01561089,KFOK,2020-05-05T21:53:00Z,40.85,-72.62,15.6,-8.9,320,10,,10.0,29.861221,1011.3,,,TRUE,,,,,,,CLR,,,,,,,,VFR,,,,,,,,,,,,METAR,33.0
KFOE 052153Z 32025G34KT 10SM CLR 22/02 A3002 RMK AO2 PK WND 29034/2112 SLP160 T02220017,KFOE,2020-05-05T21:53:00Z,38.93,-95.65,22.2,1.7,320,25,34,10.0,30.02067,1016.0,,,TRUE,,,,,,,CLR,,,,,,,,VFR,,,,,,,,,,,,METAR,320.0
KFNT 052153Z 04012KT 10SM CLR 12/M05 A2996 RMK AO2 SLP148 T01171050,KFNT,2020-05-05T21:53:00Z,42.97,-83.75,11.7,-5.0,40,12,,10.0,29.958662,1014.8,,,TRUE,,,,,,,CLR,,,,,,,,VFR,,,,,,,,,,,,METAR,233.0
KFNB 052153Z AUTO 33024G36KT 10SM CLR 20/01 A3001 RMK AO2 PK WND 33040/2057 SLP162 T02000006,KFNB,2020-05-05T21:53:00Z,40.07,-95.58,20.0,0.6,330,24,36,10.0,30.008858,1016.2,,TRUE,TRUE,,,,,,,CLR,,,,,,,,VFR,,,,,,,,,,,,METAR,300.0
KFMY 052153Z 27011KT 10SM CLR 30/19 A2992 RMK AO2 SLP134 T03000194,KFMY,2020-05-05T21:53:00Z,26.58,-81.87,30.0,19.4,270,11,,10.0,29.920275,1013.4,,,TRUE,,,,,,,CLR,,,,,,,,VFR,,,,,,,,,,,,METAR,4.0
KFMN 052153Z 27008G21KT 10SM CLR 25/M17 A3018 RMK AO2 SLP181 T02501167,KFMN,2020-05-05T21:53:00Z,36.75,-108.23,25.0,-16.7,270,8,21,10.0,30.180119,1018.1,,,TRUE,,,,,,,CLR,,,,,,,,VFR,,,,,,,,,,,,METAR,1685.0
KFUL 052153Z 21007KT 10SM CLR 32/14 A2990 RMK AO2 SLP125 T03220144,KFUL,2020-05-05T21:53:00Z,33.87,-117.98,32.2,14.4,210,7,,10.0,29.899607,1012.5,,,TRUE,,,,,,,CLR,,,,,,,,VFR,,,,,,,,,,,,METAR,35.0
KFWN 052153Z AUTO VRB04KT 10SM CLR 17/M08 A2985 RMK AO2 SLP107 T01671078,KFWN,2020-05-05T21:53:00Z,41.2,-74.63,16.7,-7.8,0,4,,10.0,29.84941,1010.7,,TRUE,TRUE,,,,,,,CLR,,,,,,,,VFR,,,,,,,,,,,,METAR,133.0
MUCU 052153Z 17004KT 9000 SCT020CB 29/23 Q1012,MUCU,2020-05-05T21:53:00Z,19.97,-75.83,29.0,23.0,170,4,,5.59,29.88189,,,,,,,,,,,SCT,2000,,,,,,,VFR,,,,,,,,,,,,METAR,76.0
KGAG 052153Z AUTO 10SM CLR 24/00 A3016 RMK AO2 SLP196 T02390000,KGAG,2020-05-05T21:53:00Z,36.3,-99.77,23.9,0.0,,,,10.0,30.159449,1019.6,,TRUE,TRUE,,,,,,,CLR,,,,,,,,VFR,,,,,,,,,,,,METAR,668.0
TJIG 052153Z 10013KT 10SM SCT035 SCT070 28/24 A2992,TJIG,2020-05-05T21:53:00Z,18.45,-66.1,28.0,24.0,100,13,,10.0,29.920275,,,,,,,,,,,SCT,3500,SCT,7000,,,,,VFR,,,,,,,,,,,,METAR,3.0
KFYV 052153Z 33012G20KT 10SM CLR 21/04 A3006 RMK AO2 SLP170 T02110039,KFYV,2020-05-05T21:53:00Z,36.02,-94.17,21.1,3.9,330,12,20,10.0,30.059055,1017.0,,,TRUE,,,,,,,CLR,,,,,,,,VFR,,,,,,,,,,,,METAR,379.0
KFXE 052153Z 14011KT 10SM CLR 29/19 A2992 RMK AO2 SLP133 T02940194,KFXE,2020-05-05T21:53:00Z,26.2,-80.18,29.4,19.4,140,11,,10.0,29.920275,1013.3,,,TRUE,,,,,,,CLR,,,,,,,,VFR,,,,,,,,,,,,METAR,6.0
KGCC 052153Z AUTO 33021G34KT 10SM CLR 15/M07 A3022 RMK AO2 PK WND 32041/2108 SLP226 T01501067,KGCC,2020-05-05T21:53:00Z,44.33,-105.55,15.0,-6.7,330,21,34,10.0,30.221457,1022.6,,TRUE,TRUE,,,,,,,CLR,,,,,,,,VFR,,,,,,,,,,,,METAR,1320.0
KHAO 052153Z AUTO 35006KT 10SM OVC045 12/01 A2984 RMK AO2 SLP106 T01170006,KHAO,2020-05-05T21:53:00Z,39.37,-84.52,11.7,0.6,350,6,,10.0,29.840551,1010.6,,TRUE,TRUE,,,,,,,OVC,4500,,,,,,,VFR,,,,,,,,,,,,METAR,188.0
KHBR 052153Z AUTO 05008G14KT 10SM FEW110 26/M02 A3014 RMK AO2 SLP193 T02561017,KHBR,2020-05-05T21:53:00Z,34.98,-99.05,25.6,-1.7,50,8,14,10.0,30.138779,1019.3,,TRUE,TRUE,,,,,,,FEW,11000,,,,,,,VFR,,,,,,,,,,,,METAR,473.0
KHBG 052153Z AUTO 36004KT 10SM CLR 29/18 A2990 RMK AO2 SLP122 T02890183,KHBG,2020-05-05T21:53:00Z,31.27,-89.25,28.9,18.3,360,4,,10.0,29.899607,1012.2,,TRUE,TRUE,,,,,,,CLR,,,,,,,,VFR,,,,,,,,,,,,METAR,44.0
KHEI 052153Z AUTO 36013KT 10SM SCT065 BKN085 11/03 A3021 RMK AO2 LTG DSNT NW SLP248 T01110028,KHEI,2020-05-05T21:53:00Z,46.02,-102.65,11.1,2.8,360,13,,10.0,30.209646,1024.8,,TRUE,TRUE,,,,,,,SCT,6500,BKN,8500,,,,,VFR,,,,,,,,,,,,METAR,828.0
KBVO 052153Z AUTO VRB04G17KT 10SM CLR 24/05 A3008 RMK AO2 SLP177 T02440050,KBVO,2020-05-05T21:53:00Z,36.77,-96.02,24.4,5.0,0,4,17,10.0,30.079725,1017.7,,TRUE,TRUE,,,,,,,CLR,,,,,,,,VFR,,,,,,,,,,,,METAR,210.0
KBYI 052153Z AUTO 06006KT 10SM CLR 24/M05 A3014 RMK AO2 SLP186 T02391050,KBYI,2020-05-05T21:53:00Z,42.55,-113.77,23.9,-5.0,60,6,,10.0,30.138779,1018.6,,TRUE,TRUE,,,,,,,CLR,,,,,,,,VFR,,,,,,,,,,,,METAR,1264.0
KCPS 052153Z AUTO 35010G21KT 10SM SCT060 BKN075 BKN090 18/09 A2990 RMK AO2 SLP122 T01780094,KCPS,2020-05-05T21:53:00Z,38.57,-90.15,17.8,9.4,350,10,21,10.0,29.899607,1012.2,,TRUE,TRUE,,,,,,,SCT,6000,BKN,7500,BKN,9000,,,VFR,,,,,,,,,,,,METAR,126.0
KHGR 052153Z 16004KT 10SM OVC090 13/02 A2987 RMK AO2 SLP124 T01280022,KHGR,2020-05-05T21:53:00Z,39.7,-77.73,12.8,2.2,160,4,,10.0,29.870079,1012.4,,,TRUE,,,,,,,OVC,9000,,,,,,,VFR,,,,,,,,,,,,METAR,224.0
KHHR 052153Z 28009G16KT 10SM CLR 27/08 A2993 RMK AO2 SLP135 T02670078 $,KHHR,2020-05-05T21:53:00Z,33.92,-118.33,26.7,7.8,280,9,16,10.0,29.929134,1013.5,,,TRUE,TRUE,,,,,,CLR,,,,,,,,VFR,,,,,,,,,,,,METAR,18.0
KSGR 052153Z 00000KT 10SM CLR 34/21 A2989 RMK AO2 SLP120 T03390206,KSGR,2020-05-05T21:53:00Z,29.62,-95.65,33.9,20.6,0,0,,10.0,29.890747,1012.0,,,TRUE,,,,,,,CLR,,,,,,,,VFR,,,,,,,,,,,,METAR,2.0
KSFF 052153Z 00000KT 10SM SCT120 22/M01 A3010 RMK AO2 SLP188 T02221006,KSFF,2020-05-05T21:53:00Z,47.68,-117.32,22.2,-0.6,0,0,,10.0,30.100393,1018.8,,,TRUE,,,,,,,SCT,12000,,,,,,,VFR,,,,,,,,,,,,METAR,609.0
KGFL 052153Z AUTO 05012KT 10SM CLR 13/M03 A2986 RMK AO2 SLP115 T01281028,KGFL,2020-05-05T21:53:00Z,43.33,-73.62,12.8,-2.8,50,12,,10.0,29.861221,1011.5,,TRUE,TRUE,,,,,,,CLR,,,,,,,,VFR,,,,,,,,,,,,METAR,103.0
TISX 052153Z 12008KT 10SM FEW021 29/22 A2995 RMK AO2 SLP140 T02890222,TISX,2020-05-05T21:53:00Z,17.7,-64.8,28.9,22.2,120,8,,10.0,29.949802,1014.0,,,TRUE,,,,,,,FEW,2100,,,,,,,VFR,,,,,,,,,,,,METAR,19.0
KPNC 052153Z AUTO 34006KT 10SM CLR 24/01 A3009 RMK AO2 SLP182 T02440011,KPNC,2020-05-05T21:53:00Z,36.73,-97.1,24.4,1.1,340,6,,10.0,30.088583,1018.2,,TRUE,TRUE,,,,,,,CLR,,,,,,,,VFR,,,,,,,,,,,,METAR,308.0
KJLN 052153Z 30013G23KT 10SM CLR 22/05 A3005 RMK AO2 SLP169 T02170050,KJLN,2020-05-05T21:53:00Z,37.15,-94.5,21.7,5.0,300,13,23,10.0,30.050198,1016.9,,,TRUE,,,,,,,CLR,,,,,,,,VFR,,,,,,,,,,,,METAR,299.0
KLKV 052153Z AUTO 16015G20KT 10SM CLR 22/M03 A3011 RMK AO2 SLP187 T02171028,KLKV,2020-05-05T21:53:00Z,42.17,-120.4,21.7,-2.8,160,15,20,10.0,30.109253,1018.7,,TRUE,TRUE,,,,,,,CLR,,,,,,,,VFR,,,,,,,,,,,,METAR,1441.0
KLXT 052153Z AUTO 31021G36KT 10SM FEW090 21/01 A2999 RMK AO2 PK WND 33036/2145 SLP151 T02110011,KLXT,2020-05-05T21:53:00Z,38.97,-94.37,21.1,1.1,310,21,36,10.0,29.991142,1015.1,,TRUE,TRUE,,,,,,,FEW,9000,,,,,,,VFR,,,,,,,,,,,,METAR,306.0
KMCW 052153Z AUTO 05009KT 10SM FEW018 BKN025 OVC031 08/05 A3005 RMK AO2 RAE40 SLP177 P0001 T00780050,KMCW,2020-05-05T21:53:00Z,43.15,-93.33,7.8,5.0,50,9,,10.0,30.050198,1017.7,,TRUE,TRUE,,,,,,,FEW,1800,BKN,2500,OVC,3100,,,MVFR,,,,,,0.01,,,,,,METAR,369.0
KMIC 052153Z 05007KT 10SM BKN120 15/M07 A3003 RMK AO2 SLP169 T01501072,KMIC,2020-05-05T21:53:00Z,45.07,-93.35,15.0,-7.2,50,7,,10.0,30.029528,1016.9,,,TRUE,,,,,,,BKN,12000,,,,,,,VFR,,,,,,,,,,,,METAR,265.0
KSBM 052153Z AUTO 05010KT 10SM CLR 09/M02 A3003 RMK AO2 SLP173 T00941022,KSBM,2020-05-05T21:53:00Z,43.78,-87.85,9.4,-2.2,50,10,,10.0,30.029528,1017.3,,TRUE,TRUE,,,,,,,CLR,,,,,,,,VFR,,,,,,,,,,,,METAR,232.0
KHIO 052153Z VRB06KT 10SM FEW046 SCT065 SCT085 22/11 A3004 RMK AO2 SLP170 T02170111,KHIO,2020-05-05T21:53:00Z,45.55,-122.95,21.7,11.1,0,6,,10.0,30.041338,1017.0,,,TRUE,,,,,,,FEW,4600,SCT,6500,SCT,8500,,,VFR,,,,,,,,,,,,METAR,68.0
KHIB 052153Z AUTO 00000KT 10SM SCT070 BKN090 BKN120 14/M03 A3003 RMK AO2 SLP182 T01441028,KHIB,2020-05-05T21:53:00Z,47.38,-92.83,14.4,-2.8,0,0,,10.0,30.029528,1018.2,,TRUE,TRUE,,,,,,,SCT,7000,BKN,9000,BKN,12000,,,VFR,,,,,,,,,,,,METAR,412.0
KHJO 052153Z AUTO 32011KT 10SM CLR 31/01 A3004 RMK AO2 SLP171 T03060011,KHJO,2020-05-05T21:53:00Z,36.32,-119.62,30.6,1.1,320,11,,10.0,30.041338,1017.1,,TRUE,TRUE,,,,,,,CLR,,,,,,,,VFR,,,,,,,,,,,,METAR,74.0
KHKA 052153Z AUTO 29011G16KT 10SM CLR 23/12 A2991 RMK AO2 SLP126 T02280117,KHKA,2020-05-05T21:53:00Z,35.93,-89.83,22.8,11.7,290,11,16,10.0,29.911417,1012.6,,TRUE,TRUE,,,,,,,CLR,,,,,,,,VFR,,,,,,,,,,,,METAR,78.0
KHKS 052153Z 33006G15KT 10SM FEW070 28/18 A2993 RMK AO2 SLPNO T02780178,KHKS,2020-05-05T21:53:00Z,32.33,-90.22,27.8,17.8,330,6,15,10.0,29.929134,,,,TRUE,,,,,,,FEW,7000,,,,,,,VFR,,,,,,,,,,,,METAR,108.0
KHKY 052153Z 00000KT 10SM OVC027 17/12 A2980 RMK AO2 LTG DSNT SE SLP073 T01670117,KHKY,2020-05-05T21:53:00Z,35.75,-81.38,16.7,11.7,0,0,,10.0,29.799213,1007.3,,,TRUE,,,,,,,OVC,2700,,,,,,,MVFR,,,,,,,,,,,,METAR,354.0
KHLC 052153Z AUTO 28012KT 10SM CLR 23/01 A3012 RMK AO2 SLP195 T02280006,KHLC,2020-05-05T21:53:00Z,39.37,-99.83,22.8,0.6,280,12,,10.0,30.121063,1019.5,,TRUE,TRUE,,,,,,,CLR,,,,,,,,VFR,,,,,,,,,,,,METAR,669.0
KHLN 052153Z AUTO 00000KT 10SM CLR 20/M03 A3021 RMK AO2 SLP238 T02001033,KHLN,2020-05-05T21:53:00Z,46.6,-111.98,20.0,-3.3,0,0,,10.0,30.209646,1023.8,,TRUE,TRUE,,,,,,,CLR,,,,,,,,VFR,,,,,,,,,,,,METAR,1182.0
KHOT 052153Z AUTO 35005KT 10SM CLR 24/08 A3002 RMK AO2 SLP159 T02390083,KHOT,2020-05-05T21:53:00Z,34.48,-93.1,23.9,8.3,350,5,,10.0,30.02067,1015.9,,TRUE,TRUE,,,,,,,CLR,,,,,,,,VFR,,,,,,,,,,,,METAR,162.0
KHOU 052153Z 12010KT 10SM FEW035 SCT050 BKN090 BKN210 31/23 A2989 RMK AO2 SLP125 T03110228,KHOU,2020-05-05T21:53:00Z,29.63,-95.28,31.1,22.8,120,10,,10.0,29.890747,1012.5,,,TRUE,,,,,,,FEW,3500,SCT,5000,BKN,9000,BKN,21000,VFR,,,,,,,,,,,,METAR,36.0
KHQM 052153Z AUTO 27009KT 10SM SCT055 BKN075 18/10 A3005 RMK AO2 SLP179 T01830100,KHQM,2020-05-05T21:53:00Z,46.97,-123.93,18.3,10.0,270,9,,10.0,30.050198,1017.9,,TRUE,TRUE,,,,,,,SCT,5500,BKN,7500,,,,,VFR,,,,,,,,,,,,METAR,7.0
KHRI 052153Z AUTO 02006G15KT 10SM CLR 27/01 A3001 RMK AO2 SLP157 T02670011,KHRI,2020-05-05T21:53:00Z,45.83,-119.27,26.7,1.1,20,6,15,10.0,30.008858,1015.7,,TRUE,TRUE,,,,,,,CLR,,,,,,,,VFR,,,,,,,,,,,,METAR,195.0
KMTH 052153Z AUTO VRB06KT 10SM FEW031 29/20 A2993 RMK AO2 SLP133 T02940200,KMTH,2020-05-05T21:53:00Z,24.73,-81.05,29.4,20.0,0,6,,10.0,29.929134,1013.3,,TRUE,TRUE,,,,,,,FEW,3100,,,,,,,VFR,,,,,,,,,,,,METAR,2.0
KMSY 052153Z 30007KT 10SM FEW045 31/18 A2989 RMK AO2 SLP125 T03110183,KMSY,2020-05-05T21:53:00Z,30.0,-90.25,31.1,18.3,300,7,,10.0,29.890747,1012.5,,,TRUE,,,,,,,FEW,4500,,,,,,,VFR,,,,,,,,,,,,METAR,5.0
KMSP 052153Z VRB03KT 10SM SCT120 OVC250 14/M08 A3004 RMK AO2 SLP174 T01441078,KMSP,2020-05-05T21:53:00Z,44.88,-93.23,14.4,-7.8,0,3,,10.0,30.041338,1017.4,,,TRUE,,,,,,,SCT,12000,OVC,25000,,,,,VFR,,,,,,,,,,,,METAR,265.0
KMSO 052153Z 00000KT 10SM FEW120 21/M02 A3016 RMK AO2 SLP216 T02111017,KMSO,2020-05-05T21:53:00Z,46.92,-114.1,21.1,-1.7,0,0,,10.0,30.159449,1021.6,,,TRUE,,,,,,,FEW,12000,,,,,,,VFR,,,,,,,,,,,,METAR,975.0
KMSN 052153Z 11006KT 10SM OVC050 11/01 A2999 RMK AO2 SLP160 T01060011,KMSN,2020-05-05T21:53:00Z,43.13,-89.35,10.6,1.1,110,6,,10.0,29.991142,1016.0,,,TRUE,,,,,,,OVC,5000,,,,,,,VFR,,,,,,,,,,,,METAR,261.0
KMSL 052153Z AUTO 34011KT 10SM CLR 22/14 A2986 RMK AO2 SLP106 T02220139,KMSL,2020-05-05T21:53:00Z,34.75,-87.6,22.2,13.9,340,11,,10.0,29.861221,1010.6,,TRUE,TRUE,,,,,,,CLR,,,,,,,,VFR,,,,,,,,,,,,METAR,164.0
KMRB 052153Z 00000KT 10SM FEW039 OVC075 12/02 A2985 RMK AO2 SLP110 T01220017,KMRB,2020-05-05T21:53:00Z,39.4,-77.98,12.2,1.7,0,0,,10.0,29.84941,1011.0,,,TRUE,,,,,,,FEW,3900,OVC,7500,,,,,VFR,,,,,,,,,,,,METAR,164.0
KMCB 052153Z AUTO 29005KT 10SM BKN041 BKN050 28/19 A2991 RMK AO2 SLP123 T02830189,KMCB,2020-05-05T21:53:00Z,31.18,-90.47,28.3,18.9,290,5,,10.0,29.911417,1012.3,,TRUE,TRUE,,,,,,,BKN,4100,BKN,5000,,,,,VFR,,,,,,,,,,,,METAR,124.0
KMBS 052153Z AUTO 04014KT 10SM CLR 07/M06 A3002 RMK AO2 SLP172 T00721061,KMBS,2020-05-05T21:53:00Z,43.53,-84.08,7.2,-6.1,40,14,,10.0,30.02067,1017.2,,TRUE,TRUE,,,,,,,CLR,,,,,,,,VFR,,,,,,,,,,,,METAR,202.0
KMAI 052153Z AUTO 25011KT 10SM CLR 30/18 A2986 RMK AO2 SLP111 T03000178,KMAI,2020-05-05T21:53:00Z,30.83,-85.18,30.0,17.8,250,11,,10.0,29.861221,1011.1,,TRUE,TRUE,,,,,,,CLR,,,,,,,,VFR,,,,,,,,,,,,METAR,32.0
KLWD 052153Z AUTO 32023G34KT 10SM SCT030 BKN043 OVC060 13/07 A2995 RMK AO2 PK WND 30043/2118 SLP144 T01330072,KLWD,2020-05-05T21:53:00Z,40.63,-93.9,13.3,7.2,320,23,34,10.0,29.949802,1014.4,,TRUE,TRUE,,,,,,,SCT,3000,BKN,4300,OVC,6000,,,VFR,,,,,,,,,,,,METAR,346.0
KLVS 052153Z AUTO 19019G27KT 10SM CLR 20/M01 A3025 RMK AO2 PK WND 21031/2136 SLP159 T02001006,KLVS,2020-05-05T21:53:00Z,35.65,-105.13,20.0,-0.6,190,19,27,10.0,30.250984,1015.9,,TRUE,TRUE,,,,,,,CLR,,,,,,,,VFR,,,,,,,,,,,,METAR,2091.0
KNUI 052153Z AUTO 08003KT 10SM -RA OVC060 13/08 A2987 RMK AO2 RAB06 SLP115 P0001 T01330083,KNUI,2020-05-05T21:53:00Z,38.15,-76.43,13.3,8.3,80,3,,10.0,29.870079,1011.5,,TRUE,TRUE,,,,,,-RA,OVC,6000,,,,,,,VFR,,,,,,0.01,,,,,,METAR,7.0
KBIL 052153Z 35008G21KT 320V020 10SM FEW070 FEW250 18/M07 A3025 RMK AO2 PK WND 31026/2116 SLP240 T01781067,KBIL,2020-05-05T21:53:00Z,45.8,-108.55,17.8,-6.7,350,8,21,10.0,30.250984,1024.0,,,TRUE,,,,,,,FEW,7000,FEW,25000,,,,,VFR,,,,,,,,,,,,METAR,1091.0
KGNV 052153Z 23012KT 10SM CLR 28/18 A2993 RMK AO2 SLP133 T02830178,KGNV,2020-05-05T21:53:00Z,29.7,-82.28,28.3,17.8,230,12,,10.0,29.929134,1013.3,,,TRUE,,,,,,,CLR,,,,,,,,VFR,,,,,,,,,,,,METAR,45.0
KAFW 052153Z 02012G20KT 10SM FEW110 26/09 A3008 RMK AO2 SLP174 T02560089,KAFW,2020-05-05T21:53:00Z,32.97,-97.32,25.6,8.9,20,12,20,10.0,30.079725,1017.4,,,TRUE,,,,,,,FEW,11000,,,,,,,VFR,,,,,,,,,,,,METAR,233.0
KAEX 052153Z 35004KT 9SM OVC080 27/22 A2991 RMK AO2 SLP130 T02720217,KAEX,2020-05-05T21:53:00Z,31.33,-92.57,27.2,21.7,350,4,,9.0,29.911417,1013.0,,,TRUE,,,,,,,OVC,8000,,,,,,,VFR,,,,,,,,,,,,METAR,27.0
KADG 052153Z AUTO 07007KT 10SM OVC100 09/M05 A2993 RMK AO2 SLP141 T00941050,KADG,2020-05-05T21:53:00Z,41.87,-84.08,9.4,-5.0,70,7,,10.0,29.929134,1014.1,,TRUE,TRUE,,,,,,,OVC,10000,,,,,,,VFR,,,,,,,,,,,,METAR,241.0
KACK 052153Z AUTO 27009KT 10SM CLR 12/02 A2985 RMK AO2 SLP107 T01170017,KACK,2020-05-05T21:53:00Z,41.25,-70.07,11.7,1.7,270,9,,10.0,29.84941,1010.7,,TRUE,TRUE,,,,,,,CLR,,,,,,,,VFR,,,,,,,,,,,,METAR,16.0
KABY 052153Z 26009KT 10SM CLR 31/18 A2987 RMK AO2 SLP113 T03110183,KABY,2020-05-05T21:53:00Z,31.53,-84.2,31.1,18.3,260,9,,10.0,29.870079,1011.3,,,TRUE,,,,,,,CLR,,,,,,,,VFR,,,,,,,,,,,,METAR,58.0
KAAF 052153Z AUTO 26012KT 10SM CLR 27/21 A2992 RMK AO2 SLP130 T02720206,KAAF,2020-05-05T21:53:00Z,29.73,-85.03,27.2,20.6,260,12,,10.0,29.920275,1013.0,,TRUE,TRUE,,,,,,,CLR,,,,,,,,VFR,,,,,,,,,,,,METAR,5.0
KDHT 052153Z AUTO 13005KT 10SM CLR 23/M03 A3021 RMK AO2 SLP190 T02281028,KDHT,2020-05-05T21:53:00Z,36.02,-102.55,22.8,-2.8,130,5,,10.0,30.209646,1019.0,,TRUE,TRUE,,,,,,,CLR,,,,,,,,VFR,,,,,,,,,,,,METAR,1217.0
KDHN 052153Z 27013G19KT 10SM FEW060 31/15 A2990 RMK AO2 SLP119 T03110150,KDHN,2020-05-05T21:53:00Z,31.32,-85.45,31.1,15.0,270,13,19,10.0,29.899607,1011.9,,,TRUE,,,,,,,FEW,6000,,,,,,,VFR,,,,,,,,,,,,METAR,113.0
KDGW 052153Z AUTO 31020G33KT 10SM CLR 18/M07 A3020 RMK AO2 PK WND 30034/2130 SLP221 T01781072,KDGW,2020-05-05T21:53:00Z,42.8,-105.38,17.8,-7.2,310,20,33,10.0,30.200787,1022.1,,TRUE,TRUE,,,,,,,CLR,,,,,,,,VFR,,,,,,,,,,,,METAR,1499.0
KDFW 052153Z 01016G24KT 10SM FEW100 26/08 A3006 RMK AO2 PK WND 02027/2055 SLP171 T02560078,KDFW,2020-05-05T21:53:00Z,32.9,-97.02,25.6,7.8,10,16,24,10.0,30.059055,1017.1,,,TRUE,,,,,,,FEW,10000,,,,,,,VFR,,,,,,,,,,,,METAR,174.0
KDFI 052153Z AUTO 05008KT 10SM BKN075 OVC090 10/M04 A2992 RMK AO2 SLP135 T01001039,KDFI,2020-05-05T21:53:00Z,41.33,-84.43,10.0,-3.9,50,8,,10.0,29.920275,1013.5,,TRUE,TRUE,,,,,,,BKN,7500,OVC,9000,,,,,VFR,,,,,,,,,,,,METAR,219.0
KDEW 052153Z AUTO VRB03KT 10SM CLR 22/M01 A3011 RMK AO2 SLP195 T02171011,KDEW,2020-05-05T21:53:00Z,47.97,-117.43,21.7,-1.1,0,3,,10.0,30.109253,1019.5,,TRUE,TRUE,,,,,,,CLR,,,,,,,,VFR,,,,,,,,,,,,METAR,674.0
KDET 052153Z 06010KT 10SM OVC110 09/M03 A2994 RMK AO2 SLP143 T00941028,KDET,2020-05-05T21:53:00Z,42.4,-83.02,9.4,-2.8,60,10,,10.0,29.940945,1014.3,,,TRUE,,,,,,,OVC,11000,,,,,,,VFR,,,,,,,,,,,,METAR,190.0
KDEQ 052153Z AUTO 36005KT 10SM CLR 25/11 A3002 RMK AO1 SLP162 T02500106 $,KDEQ,2020-05-05T21:53:00Z,34.05,-94.4,25.0,10.6,360,5,,10.0,30.02067,1016.2,,TRUE,TRUE,TRUE,,,,,,CLR,,,,,,,,VFR,,,,,,,,,,,,METAR,106.0
KDEN 052153Z 06012G17KT 10SM FEW090 FEW140 BKN220 21/M06 A3017 RMK AO2 SLP184 T02061056,KDEN,2020-05-05T21:53:00Z,39.85,-104.65,20.6,-5.6,60,12,17,10.0,30.171259,1018.4,,,TRUE,,,,,,,FEW,9000,FEW,14000,BKN,22000,,,VFR,,,,,,,,,,,,METAR,1640.0
KDCU 052153Z AUTO 31013KT 10SM FEW026 21/15 A2985 RMK AO2 SLP103 T02110150,KDCU,2020-05-05T21:53:00Z,34.65,-86.95,21.1,15.0,310,13,,10.0,29.84941,1010.3,,TRUE,TRUE,,,,,,,FEW,2600,,,,,,,VFR,,,,,,,,,,,,METAR,176.0
KDBQ 052153Z 06012KT 9SM FEW017 FEW031 OVC050 09/07 A2998 RMK AO2 RAE22 SLP160 P0001 T00890067,KDBQ,2020-05-05T21:53:00Z,42.4,-90.7,8.9,6.7,60,12,,9.0,29.97933,1016.0,,,TRUE,,,,,,,FEW,1700,FEW,3100,OVC,5000,,,VFR,,,,,,0.01,,,,,,METAR,326.0
KDAN 052153Z AUTO 00000KT 10SM OVC031 14/09 A2985 RMK AO2 SLP099 T01440094,KDAN,2020-05-05T21:53:00Z,36.57,-79.33,14.4,9.4,0,0,,10.0,29.84941,1009.9,,TRUE,TRUE,,,,,,,OVC,3100,,,,,,,VFR,,,,,,,,,,,,METAR,175.0
KDAL 052153Z 01010G17KT 10SM FEW090 FEW120 27/08 A3006 RMK AO2 SLP172 ACC DSNT S T02670078,KDAL,2020-05-05T21:53:00Z,32.85,-96.85,26.7,7.8,10,10,17,10.0,30.059055,1017.2,,,TRUE,,,,,,,FEW,9000,FEW,12000,,,,,VFR,,,,,,,,,,,,METAR,158.0
KDAB 052153Z 11007KT 10SM FEW055 27/21 A2990 RMK AO2 SLP126 T02720206,KDAB,2020-05-05T21:53:00Z,29.18,-81.07,27.2,20.6,110,7,,10.0,29.899607,1012.6,,,TRUE,,,,,,,FEW,5500,,,,,,,VFR,,,,,,,,,,,,METAR,9.0
KCYS 052153Z AUTO 32015G29KT 10SM BKN110 16/M09 A3021 RMK AO2 PK WND 33035/2059 SLP202 T01611094,KCYS,2020-05-05T21:53:00Z,41.15,-104.8,16.1,-9.4,320,15,29,10.0,30.209646,1020.2,,TRUE,TRUE,,,,,,,BKN,11000,,,,,,,VFR,,,,,,,,,,,,METAR,1868.0
KCXO 052153Z 36007KT 320V030 10SM FEW028 BKN085 29/22 A2994 RMK AO2 SLP134 T02890222,KCXO,2020-05-05T21:53:00Z,30.35,-95.42,28.9,22.2,360,7,,10.0,29.940945,1013.4,,,TRUE,,,,,,,FEW,2800,BKN,8500,,,,,VFR,,,,,,,,,,,,METAR,75.0
KCUT 052153Z AUTO 29010G18KT 10SM FEW060 SCT070 SCT085 11/M05 A3021 RMK AO2 PK WND 27030/2113 SLP219 T01061050,KCUT,2020-05-05T21:53:00Z,43.73,-103.62,10.6,-5.0,290,10,18,10.0,30.209646,1021.9,,TRUE,TRUE,,,,,,,FEW,6000,SCT,7000,SCT,8500,,,VFR,,,,,,,,,,,,METAR,1725.0
KCUB 052153Z AUTO 26008KT 10SM CLR 31/16 A2975 RMK AO2 SLP070 T03110161,KCUB,2020-05-05T21:53:00Z,33.97,-81.0,31.1,16.1,260,8,,10.0,29.749016,1007.0,,TRUE,TRUE,,,,,,,CLR,,,,,,,,VFR,,,,,,,,,,,,METAR,56.0
KCSV 052153Z AUTO 28018G27KT 10SM SCT021 BKN028 18/13 A2985 RMK AO2 PK WND 29027/2148 SLP096 T01830128,KCSV,2020-05-05T21:53:00Z,35.95,-85.08,18.3,12.8,280,18,27,10.0,29.84941,1009.6,,TRUE,TRUE,,,,,,,SCT,2100,BKN,2800,,,,,MVFR,,,,,,,,,,,,METAR,570.0
KCSM 052153Z 02008G15KT 10SM CLR 24/01 A3015 RMK AO2 SLP196 T02390006,KCSM,2020-05-05T21:53:00Z,35.35,-99.2,23.9,0.6,20,8,15,10.0,30.15059,1019.6,,,TRUE,,,,,,,CLR,,,,,,,,VFR,,,,,,,,,,,,METAR,588.0
KCRS 052153Z AUTO 02011G22KT 10SM BKN095 26/12 A3005 RMK AO2 SLP169 T02560117,KCRS,2020-05-05T21:53:00Z,32.03,-96.4,25.6,11.7,20,11,22,10.0,30.050198,1016.9,,TRUE,TRUE,,,,,,,BKN,9500,,,,,,,VFR,,,,,,,,,,,,METAR,133.0
KCRQ 052153Z 27007KT 10SM CLR 24/14 A2993 RMK AO2 SLP134 T02390139,KCRQ,2020-05-05T21:53:00Z,33.13,-117.28,23.9,13.9,270,7,,10.0,29.929134,1013.4,,,TRUE,,,,,,,CLR,,,,,,,,VFR,,,,,,,,,,,,METAR,99.0
KCRG 052153Z 23012KT 10SM CLR 31/17 A2986 RMK AO2 SLP111 T03110172,KCRG,2020-05-05T21:53:00Z,30.33,-81.52,31.1,17.2,230,12,,10.0,29.861221,1011.1,,,TRUE,,,,,,,CLR,,,,,,,,VFR,,,,,,,,,,,,METAR,13.0
KCRE 052153Z 14007KT 10SM CLR 22/19 A2981 RMK AO1 SLP096 T02220189,KCRE,2020-05-05T21:53:00Z,33.82,-78.72,22.2,18.9,140,7,,10.0,29.811024,1009.6,,,TRUE,,,,,,,CLR,,,,,,,,VFR,,,,,,,,,,,,METAR,10.0
KCPR 052153Z 33018G27KT 10SM CLR 17/M05 A3022 RMK AO2 PK WND 34032/2133 SLP212 T01671050,KCPR,2020-05-05T21:53:00Z,42.9,-106.47,16.7,-5.0,330,18,27,10.0,30.221457,1021.2,,,TRUE,,,,,,,CLR,,,,,,,,VFR,,,,,,,,,,,,METAR,1621.0
KCOT 052153Z AUTO 06010KT 10SM FEW050 34/19 A2988 RMK AO2 SLP111 T03390194,KCOT,2020-05-05T21:53:00Z,28.45,-99.22,33.9,19.4,60,10,,10.0,29.878937,1011.1,,TRUE,TRUE,,,,,,,FEW,5000,,,,,,,VFR,,,,,,,,,,,,METAR,140.0
KCNY 052153Z AUTO 27010KT 210V300 10SM CLR 24/M12 A3017 RMK AO2 SLP181 T02441122,KCNY,2020-05-05T21:53:00Z,38.77,-109.75,24.4,-12.2,270,10,,10.0,30.171259,1018.1,,TRUE,TRUE,,,,,,,CLR,,,,,,,,VFR,,,,,,,,,,,,METAR,1390.0
KCNO 052153Z 25008KT 10SM CLR 36/08 A2993 RMK AO2 SLP128 T03610078,KCNO,2020-05-05T21:53:00Z,33.98,-117.62,36.1,7.8,250,8,,10.0,29.929134,1012.8,,,TRUE,,,,,,,CLR,,,,,,,,VFR,,,,,,,,,,,,METAR,207.0
KCNM 052153Z AUTO VRB06KT 10SM CLR 27/02 A3014 RMK AO2 SLP153 T02670022 $,KCNM,2020-05-05T21:53:00Z,32.33,-104.25,26.7,2.2,0,6,,10.0,30.138779,1015.3,,TRUE,TRUE,TRUE,,,,,,CLR,,,,,,,,VFR,,,,,,,,,,,,METAR,985.0
KRWL 052153Z AUTO 28022G25KT 10SM CLR 17/M11 A3026 RMK AO2 PK WND 28026/2153 SLP206 T01671106,KRWL,2020-05-05T21:53:00Z,41.78,-107.2,16.7,-10.6,280,22,25,10.0,30.259842,1020.6,,TRUE,TRUE,,,,,,,CLR,,,,,,,,VFR,,,,,,,,,,,,METAR,2077.0
KRWI 052153Z AUTO 04005KT 10SM FEW043 20/12 A2984 RMK AO2 SLP104 T02000122,KRWI,2020-05-05T21:53:00Z,35.85,-77.9,20.0,12.2,40,5,,10.0,29.840551,1010.4,,TRUE,TRUE,,,,,,,FEW,4300,,,,,,,VFR,,,,,,,,,,,,METAR,47.0
KRVS 052153Z VRB05KT 10SM CLR 26/03 A3007 RMK AO2 SLP188 T02560028,KRVS,2020-05-05T21:53:00Z,36.05,-95.98,25.6,2.8,0,5,,10.0,30.070866,1018.8,,,TRUE,,,,,,,CLR,,,,,,,,VFR,,,,,,,,,,,,METAR,200.0
KRUE 052153Z AUTO 27007KT 10SM CLR 24/11 A2999 RMK AO2 SLP148 T02390106,KRUE,2020-05-05T21:53:00Z,35.25,-93.1,23.9,10.6,270,7,,10.0,29.991142,1014.8,,TRUE,TRUE,,,,,,,CLR,,,,,,,,VFR,,,,,,,,,,,,METAR,115.0
KRTN 052153Z AUTO 17022G29KT 10SM CLR 21/M01 A3018 RMK AO2 PK WND 18031/2133 SLP151 T02111006,KRTN,2020-05-05T21:53:00Z,36.73,-104.5,21.1,-0.6,170,22,29,10.0,30.180119,1015.1,,TRUE,TRUE,,,,,,,CLR,,,,,,,,VFR,,,,,,,,,,,,METAR,1936.0
KRSW 052153Z AUTO 24011KT 10SM CLR 29/18 A2992 RMK AO2 SLP130 T02940183,KRSW,2020-05-05T21:53:00Z,26.53,-81.75,29.4,18.3,240,11,,10.0,29.920275,1013.0,,TRUE,TRUE,,,,,,,CLR,,,,,,,,VFR,,,,,,,,,,,,METAR,10.0
KRSL 052153Z AUTO 30012G21KT 10SM FEW100 23/01 A3010 RMK AO2 SLP188 T02330006,KRSL,2020-05-05T21:53:00Z,38.87,-98.82,23.3,0.6,300,12,21,10.0,30.100393,1018.8,,TRUE,TRUE,,,,,,,FEW,10000,,,,,,,VFR,,,,,,,,,,,,METAR,567.0
KRQE 052153Z AUTO 30007G17KT 10SM CLR 26/M09 A3023 RMK AO2 SLP148 T02611094,KRQE,2020-05-05T21:53:00Z,35.65,-109.07,26.1,-9.4,300,7,17,10.0,30.230314,1014.8,,TRUE,TRUE,,,,,,,CLR,,,,,,,,VFR,,,,,,,,,,,,METAR,2055.0
KRNT 052153Z 34006KT 10SM CLR 20/09 A3006 RMK AO2 SLP185 T02000089 $,KRNT,2020-05-05T21:53:00Z,47.5,-122.22,20.0,8.9,340,6,,10.0,30.059055,1018.5,,,TRUE,TRUE,,,,,,CLR,,,,,,,,VFR,,,,,,,,,,,,METAR,21.0
KRNM 052153Z 28011KT 10SM CLR 31/15 A2996 RMK AO2 SLP131 T03110150,KRNM,2020-05-05T21:53:00Z,33.03,-116.92,31.1,15.0,280,11,,10.0,29.958662,1013.1,,,TRUE,,,,,,,CLR,,,,,,,,VFR,,,,,,,,,,,,METAR,427.0
KRME 052153Z 28010KT 10SM CLR 09/M05 A2995 RMK AO2 SLP142 T00941050,KRME,2020-05-05T21:53:00Z,43.22,-75.4,9.4,-5.0,280,10,,10.0,29.949802,1014.2,,,TRUE,,,,,,,CLR,,,,,,,,VFR,,,,,,,,,,,,METAR,154.0
KRKP 052153Z AUTO 13013KT 5SM HZ CLR 31/24 A2989 RMK AO2 SLP122 T03110239,KRKP,2020-05-05T21:53:00Z,28.08,-97.05,31.1,23.9,130,13,,5.0,29.890747,1012.2,,TRUE,TRUE,,,,,,HZ,CLR,,,,,,,,MVFR,,,,,,,,,,,,METAR,6.0
KRIW 052153Z AUTO 04008KT 010V080 10SM CLR 18/M08 A3021 RMK AO2 SLP207 T01781078,KRIW,2020-05-05T21:53:00Z,43.07,-108.47,17.8,-7.8,40,8,,10.0,30.209646,1020.7,,TRUE,TRUE,,,,,,,CLR,,,,,,,,VFR,,,,,,,,,,,,METAR,1697.0
KRIL 052153Z AUTO VRB03KT 10SM CLR 22/M14 A3019 RMK AO2 SLP187 T02221139,KRIL,2020-05-05T21:53:00Z,39.53,-107.73,22.2,-13.9,0,3,,10.0,30.188976,1018.7,,TRUE,TRUE,,,,,,,CLR,,,,,,,,VFR,,,,,,,,,,,,METAR,1678.0
KRHI 052153Z AUTO VRB04KT 10SM FEW110 12/M08 A3002 RMK AO2 SLP177 T01221083,KRHI,2020-05-05T21:53:00Z,45.63,-89.48,12.2,-8.3,0,4,,10.0,30.02067,1017.7,,TRUE,TRUE,,,,,,,FEW,11000,,,,,,,VFR,,,,,,,,,,,,METAR,485.0
KRDD 052153Z 18007KT 10SM CLR 27/06 A3002 RMK AO2 SLP161 T02720061,KRDD,2020-05-05T21:53:00Z,40.52,-122.3,27.2,6.1,180,7,,10.0,30.02067,1016.1,,,TRUE,,,,,,,CLR,,,,,,,,VFR,,,,,,,,,,,,METAR,155.0
KRBG 052153Z AUTO 31008KT 10SM FEW080 SCT100 24/09 A3004 RMK AO2 SLP170 T02390089,KRBG,2020-05-05T21:53:00Z,43.23,-123.35,23.9,8.9,310,8,,10.0,30.041338,1017.0,,TRUE,TRUE,,,,,,,FEW,8000,SCT,10000,,,,,VFR,,,,,,,,,,,,METAR,154.0
KRBD 052153Z 03014G23KT 10SM CLR 26/09 A3005 RMK AO2 SLP168 T02610094,KRBD,2020-05-05T21:53:00Z,32.68,-96.87,26.1,9.4,30,14,23,10.0,30.050198,1016.8,,,TRUE,,,,,,,CLR,,,,,,,,VFR,,,,,,,,,,,,METAR,203.0
KRAL 052153Z 27011G20KT 10SM CLR 36/08 A2992 RMK AO2 SLP115 T03560078,KRAL,2020-05-05T21:53:00Z,33.95,-117.45,35.6,7.8,270,11,20,10.0,29.920275,1011.5,,,TRUE,,,,,,,CLR,,,,,,,,VFR,,,,,,,,,,,,METAR,252.0
KRAC 052153Z AUTO 01011KT 10SM BKN070 OVC080 06/00 A3003 RMK AO2 SLP173 T00610000,KRAC,2020-05-05T21:53:00Z,42.77,-87.82,6.1,0.0,10,11,,10.0,30.029528,1017.3,,TRUE,TRUE,,,,,,,BKN,7000,OVC,8000,,,,,VFR,,,,,,,,,,,,METAR,203.0
KPWA 052153Z 03012KT 10SM CLR 25/02 A3012 RMK AO2 SLP188 T02500017,KPWA,2020-05-05T21:53:00Z,35.53,-97.65,25.0,1.7,30,12,,10.0,30.121063,1018.8,,,TRUE,,,,,,,CLR,,,,,,,,VFR,,,,,,,,,,,,METAR,397.0
KPUW 052153Z AUTO 09007G14KT 10SM CLR 22/01 A3010 RMK AO2 SLP188 T02170011,KPUW,2020-05-05T21:53:00Z,46.75,-117.12,21.7,1.1,90,7,14,10.0,30.100393,1018.8,,TRUE,TRUE,,,,,,,CLR,,,,,,,,VFR,,,,,,,,,,,,METAR,773.0
KPUC 052153Z AUTO 27007KT 240V300 10SM CLR 22/M11 A3024 RMK AO2 SLP202 T02171106,KPUC,2020-05-05T21:53:00Z,39.62,-110.75,21.7,-10.6,270,7,,10.0,30.239174,1020.2,,TRUE,TRUE,,,,,,,CLR,,,,,,,,VFR,,,,,,,,,,,,METAR,2091.0
KPTK 052153Z 03011KT 10SM BKN130 OVC230 10/M08 A2994 RMK AO2 SLP142 T01001078,KPTK,2020-05-05T21:53:00Z,42.67,-83.42,10.0,-7.8,30,11,,10.0,29.940945,1014.2,,,TRUE,,,,,,,BKN,13000,OVC,23000,,,,,VFR,,,,,,,,,,,,METAR,299.0
KPSX 052153Z AUTO 16010KT 9SM CLR 31/24 A2989 RMK AO2 SLP122 T03060239,KPSX,2020-05-05T21:53:00Z,28.72,-96.25,30.6,23.9,160,10,,9.0,29.890747,1012.2,,TRUE,TRUE,,,,,,,CLR,,,,,,,,VFR,,,,,,,,,,,,METAR,5.0
KPSP 052153Z VRB06KT 10SM CLR 40/M03 A2986 RMK AO2 SLPNO T04001033,KPSP,2020-05-05T21:53:00Z,33.82,-116.5,40.0,-3.3,0,6,,10.0,29.861221,,,,TRUE,,,,,,,CLR,,,,,,,,VFR,,,,,,,,,,,,METAR,135.0
KUIL 052153Z AUTO 24010KT 10SM FEW048 17/09 A3005 RMK AO2 SLP176 T01670094,KUIL,2020-05-05T21:53:00Z,47.93,-124.55,16.7,9.4,240,10,,10.0,30.050198,1017.6,,TRUE,TRUE,,,,,,,FEW,4800,,,,,,,VFR,,,,,,,,,,,,METAR,54.0
KTYS 052153Z 21019G24KT 10SM FEW035 SCT050 SCT120 OVC250 25/18 A2973 RMK AO2 PK WND 22028/2054 SLP059 T02500183,KTYS,2020-05-05T21:53:00Z,35.82,-83.98,25.0,18.3,210,19,24,10.0,29.731298,1005.9,,,TRUE,,,,,,,FEW,3500,SCT,5000,SCT,12000,OVC,25000,VFR,,,,,,,,,,,,METAR,302.0
KTYR 052153Z 36009G19KT 10SM -RA FEW100 27/12 A3001 RMK AO2 RAB23 SLP154 P0000 T02720117,KTYR,2020-05-05T21:53:00Z,32.37,-95.4,27.2,11.7,360,9,19,10.0,30.008858,1015.4,,,TRUE,,,,,,-RA,FEW,10000,,,,,,,VFR,,,,,,0.005,,,,,,METAR,165.0
KTXK 052153Z 01011G16KT 10SM CLR 26/07 A3001 RMK AO2 SLP157 T02560072 $,KTXK,2020-05-05T21:53:00Z,33.45,-93.98,25.6,7.2,10,11,16,10.0,30.008858,1015.7,,,TRUE,TRUE,,,,,,CLR,,,,,,,,VFR,,,,,,,,,,,,METAR,111.0
KTWF 052153Z AUTO 07010KT 10SM CLR 23/M03 A3013 RMK AO2 SLP171 T02281033,KTWF,2020-05-05T21:53:00Z,42.48,-114.48,22.8,-3.3,70,10,,10.0,30.129921,1017.1,,TRUE,TRUE,,,,,,,CLR,,,,,,,,VFR,,,,,,,,,,,,METAR,1266.0
KTVR 052153Z AUTO 35008G17KT 310V010 10SM BKN050 26/19 A2993 RMK AO2 SLP140 T02610194,KTVR,2020-05-05T21:53:00Z,32.35,-91.03,26.1,19.4,350,8,17,10.0,29.929134,1014.0,,TRUE,TRUE,,,,,,,BKN,5000,,,,,,,VFR,,,,,,,,,,,,METAR,26.0
KTVL 052153Z AUTO 10SM CLR 19/M08 A3022 RMK AO2 SLP201 T01891078,KTVL,2020-05-05T21:53:00Z,38.9,-120.0,18.9,-7.8,,,,10.0,30.221457,1020.1,,TRUE,TRUE,,,,,,,CLR,,,,,,,,VFR,,,,,,,,,,,,METAR,1924.0
KTVC 052153Z 01008KT 10SM OVC250 09/M04 A3002 RMK AO2 SLP169 T00941039,KTVC,2020-05-05T21:53:00Z,44.73,-85.57,9.4,-3.9,10,8,,10.0,30.02067,1016.9,,,TRUE,,,,,,,OVC,25000,,,,,,,VFR,,,,,,,,,,,,METAR,190.0
KTUS 052153Z 36005KT 10SM CLR 38/M12 A2995 RMK AO2 SLP092 T03781117,KTUS,2020-05-05T21:53:00Z,32.13,-110.95,37.8,-11.7,360,5,,10.0,29.949802,1009.2,,,TRUE,,,,,,,CLR,,,,,,,,VFR,,,,,,,,,,,,METAR,776.0
KTUP 052153Z 35012G19KT 10SM SCT120 24/13 A2990 RMK AO2 SLP121 T02390128,KTUP,2020-05-05T21:53:00Z,34.27,-88.77,23.9,12.8,350,12,19,10.0,29.899607,1012.1,,,TRUE,,,,,,,SCT,12000,,,,,,,VFR,,,,,,,,,,,,METAR,105.0
KTUL 052153Z 33011G19KT 10SM SCT250 25/05 A3006 RMK AO2 SLP173 T02500050,KTUL,2020-05-05T21:53:00Z,36.2,-95.88,25.0,5.0,330,11,19,10.0,30.059055,1017.3,,,TRUE,,,,,,,SCT,25000,,,,,,,VFR,,,,,,,,,,,,METAR,207.0
KTTN 052153Z 00000KT 10SM CLR 14/M04 A2986 RMK AO2 SLP105 T01441039,KTTN,2020-05-05T21:53:00Z,40.28,-74.82,14.4,-3.9,0,0,,10.0,29.861221,1010.5,,,TRUE,,,,,,,CLR,,,,,,,,VFR,,,,,,,,,,,,METAR,59.0
KTTD 052153Z 33006KT 10SM CLR 23/08 A3003 RMK AO2 SLP168 T02330078,KTTD,2020-05-05T21:53:00Z,45.55,-122.42,23.3,7.8,330,6,,10.0,30.029528,1016.8,,,TRUE,,,,,,,CLR,,,,,,,,VFR,,,,,,,,,,,,METAR,14.0
KTRL 052153Z AUTO 03013G19KT 10SM CLR 26/10 A3006 RMK AO2 SLP172 T02610100,KTRL,2020-05-05T21:53:00Z,32.72,-96.27,26.1,10.0,30,13,19,10.0,30.059055,1017.2,,TRUE,TRUE,,,,,,,CLR,,,,,,,,VFR,,,,,,,,,,,,METAR,145.0
KTPA 052153Z 27010KT 10SM SCT040 BKN300 27/16 A2996 RMK AO2 SLP143 T02720161,KTPA,2020-05-05T21:53:00Z,27.97,-82.53,27.2,16.1,270,10,,10.0,29.958662,1014.3,,,TRUE,,,,,,,SCT,4000,BKN,30000,,,,,VFR,,,,,,,,,,,,METAR,11.0
KTOR 052153Z AUTO 32017G40KT 10SM CLR 19/M06 A3013 RMK AO2 PK WND 35040/2149 SLP188 T01941056,KTOR,2020-05-05T21:53:00Z,42.07,-104.15,19.4,-5.6,320,17,40,10.0,30.129921,1018.8,,TRUE,TRUE,,,,,,,CLR,,,,,,,,VFR,,,,,,,,,,,,METAR,1277.0
KTOP 052153Z 30018G30KT 10SM CLR 22/01 A3001 RMK AO2 PK WND 30032/2058 SLP159 T02220006,KTOP,2020-05-05T21:53:00Z,39.07,-95.63,22.2,0.6,300,18,30,10.0,30.008858,1015.9,,,TRUE,,,,,,,CLR,,,,,,,,VFR,,,,,,,,,,,,METAR,268.0
KTOI 052153Z AUTO 30007KT 10SM FEW050 29/16 A2989 RMK AO2 SLP117 T02890161,KTOI,2020-05-05T21:53:00Z,31.85,-86.02,28.9,16.1,300,7,,10.0,29.890747,1011.7,,TRUE,TRUE,,,,,,,FEW,5000,,,,,,,VFR,,,,,,,,,,,,METAR,118.0
KTMB 052153Z 14009KT 10SM CLR 30/21 A2992 RMK AO2 SLP132 T03000211,KTMB,2020-05-05T21:53:00Z,25.65,-80.43,30.0,21.1,140,9,,10.0,29.920275,1013.2,,,TRUE,,,,,,,CLR,,,,,,,,VFR,,,,,,,,,,,,METAR,2.0
KTLH 052153Z 27014KT 10SM FEW060 31/16 A2987 RMK AO2 SLP112 T03110161,KTLH,2020-05-05T21:53:00Z,30.4,-84.35,31.1,16.1,270,14,,10.0,29.870079,1011.2,,,TRUE,,,,,,,FEW,6000,,,,,,,VFR,,,,,,,,,,,,METAR,19.0
KTKI 052153Z 02012KT 10SM CLR 26/08 A3007 RMK AO2 SLP180 T02560078,KTKI,2020-05-05T21:53:00Z,33.18,-96.58,25.6,7.8,20,12,,10.0,30.070866,1018.0,,,TRUE,,,,,,,CLR,,,,,,,,VFR,,,,,,,,,,,,METAR,179.0
KTIW 052153Z 14005KT 10SM SCT095 18/06 A3006 RMK AO2 SLP180 T01780061,KTIW,2020-05-05T21:53:00Z,47.27,-122.58,17.8,6.1,140,5,,10.0,30.059055,1018.0,,,TRUE,,,,,,,SCT,9500,,,,,,,VFR,,,,,,,,,,,,METAR,89.0
KTHV 052153Z AUTO 00000KT 10SM OVC100 12/M01 A2987 RMK AO2 SLP119 T01221011,KTHV,2020-05-05T21:53:00Z,39.92,-76.88,12.2,-1.1,0,0,,10.0,29.870079,1011.9,,TRUE,TRUE,,,,,,,OVC,10000,,,,,,,VFR,,,,,,,,,,,,METAR,144.0
KTDZ 052153Z AUTO 06010KT 10SM OVC110 08/M01 A2992 RMK AO2 SLP136 T00831006,KTDZ,2020-05-05T21:53:00Z,41.57,-83.48,8.3,-0.6,60,10,,10.0,29.920275,1013.6,,TRUE,TRUE,,,,,,,OVC,11000,,,,,,,VFR,,,,,,,,,,,,METAR,189.0
KTCS 052153Z AUTO 21010G16KT 10SM CLR 29/02 A3012 RMK AO2 SLP118 T02940022,KTCS,2020-05-05T21:53:00Z,33.23,-107.27,29.4,2.2,210,10,16,10.0,30.121063,1011.8,,TRUE,TRUE,,,,,,,CLR,,,,,,,,VFR,,,,,,,,,,,,METAR,1469.0
KTCC 052153Z AUTO 15010KT 110V170 10SM CLR 25/M01 A3017 RMK AO2 SLP168 T02501011,KTCC,2020-05-05T21:53:00Z,35.18,-103.6,25.0,-1.1,150,10,,10.0,30.171259,1016.8,,TRUE,TRUE,,,,,,,CLR,,,,,,,,VFR,,,,,,,,,,,,METAR,1235.0
KSWO 052153Z 33007KT 10SM CLR 26/03 A3010 RMK AO2 SLP183 T02560033,KSWO,2020-05-05T21:53:00Z,36.17,-97.08,25.6,3.3,330,7,,10.0,30.100393,1018.3,,,TRUE,,,,,,,CLR,,,,,,,,VFR,,,,,,,,,,,,METAR,290.0
KHWO 052153Z 13012KT 10SM CLR 30/20 A2993 RMK AO2 SLP135 T03000200,KHWO,2020-05-05T21:53:00Z,26.0,-80.23,30.0,20.0,130,12,,10.0,29.929134,1013.5,,,TRUE,,,,,,,CLR,,,,,,,,VFR,,,,,,,,,,,,METAR,2.0
KHVR 052153Z AUTO 10006KT 10SM CLR 16/01 A3026 RMK AO2 SLP253 T01560006,KHVR,2020-05-05T21:53:00Z,48.55,-109.77,15.6,0.6,100,6,,10.0,30.259842,1025.3,,TRUE,TRUE,,,,,,,CLR,,,,,,,,VFR,,,,,,,,,,,,METAR,787.0
KHVN 052153Z 33011G18KT 10SM CLR 17/M07 A2984 RMK AO2 SLP104 T01671072,KHVN,2020-05-05T21:53:00Z,41.27,-72.87,16.7,-7.2,330,11,18,10.0,29.840551,1010.4,,,TRUE,,,,,,,CLR,,,,,,,,VFR,,,,,,,,,,,,METAR,4.0
KHUF 052153Z AUTO 10005KT 10SM OVC019 09/06 A2990 RMK AO2 SLP125 T00940061,KHUF,2020-05-05T21:53:00Z,39.45,-87.3,9.4,6.1,100,5,,10.0,29.899607,1012.5,,TRUE,TRUE,,,,,,,OVC,1900,,,,,,,MVFR,,,,,,,,,,,,METAR,179.0
KHTL 052153Z AUTO 07004KT 10SM CLR 11/M09 A2999 RMK AO2 SLP165 T01061089,KHTL,2020-05-05T21:53:00Z,44.35,-84.67,10.6,-8.9,70,4,,10.0,29.991142,1016.5,,TRUE,TRUE,,,,,,,CLR,,,,,,,,VFR,,,,,,,,,,,,METAR,351.0
KHSV 052153Z 30010KT 10SM SCT025 BKN250 23/16 A2985 RMK AO2 SLP101 T02330156,KHSV,2020-05-05T21:53:00Z,34.65,-86.78,23.3,15.6,300,10,,10.0,29.84941,1010.1,,,TRUE,,,,,,,SCT,2500,BKN,25000,,,,,VFR,,,,,,,,,,,,METAR,191.0
KHSI 052153Z AUTO 34022G28KT 10SM SCT100 21/00 A3011 RMK AO2 PK WND 29032/2124 SLP192 T02110000,KHSI,2020-05-05T21:53:00Z,40.6,-98.43,21.1,0.0,340,22,28,10.0,30.109253,1019.2,,TRUE,TRUE,,,,,,,SCT,10000,,,,,,,VFR,,,,,,,,,,,,METAR,591.0
KHRO 052153Z AUTO 33014G22KT 10SM CLR 21/02 A3002 RMK AO2 SLP156 T02060017,KHRO,2020-05-05T21:53:00Z,36.27,-93.15,20.6,1.7,330,14,22,10.0,30.02067,1015.6,,TRUE,TRUE,,,,,,,CLR,,,,,,,,VFR,,,,,,,,,,,,METAR,417.0
KGJT 052153Z 32010G18KT 10SM CLR 24/M14 A3018 RMK AO2 SLP175 T02391144,KGJT,2020-05-05T21:53:00Z,39.12,-108.52,23.9,-14.4,320,10,18,10.0,30.180119,1017.5,,,TRUE,,,,,,,CLR,,,,,,,,VFR,,,,,,,,,,,,METAR,1475.0
KGIF 052153Z AUTO 28008KT 10SM CLR 31/16 A2994 RMK AO2 SLP134 T03060156,KGIF,2020-05-05T21:53:00Z,28.07,-81.75,30.6,15.6,280,8,,10.0,29.940945,1013.4,,TRUE,TRUE,,,,,,,CLR,,,,,,,,VFR,,,,,,,,,,,,METAR,43.0
KGGG 052153Z AUTO 36009KT 10SM SCT042 OVC100 27/15 A2999 RMK AO2 SLP150 T02670150,KGGG,2020-05-05T21:53:00Z,32.38,-94.72,26.7,15.0,360,9,,10.0,29.991142,1015.0,,TRUE,TRUE,,,,,,,SCT,4200,OVC,10000,,,,,VFR,,,,,,,,,,,,METAR,107.0
KGFK 052153Z 36007KT 10SM -RA OVC060 10/05 A3014 RMK AO2 RAB06 SLP214 P0000 T01000050,KGFK,2020-05-05T21:53:00Z,47.95,-97.18,10.0,5.0,360,7,,10.0,30.138779,1021.4,,,TRUE,,,,,,-RA,OVC,6000,,,,,,,VFR,,,,,,0.005,,,,,,METAR,258.0
KGEZ 052153Z AUTO 02011G18KT 10SM OVC042 10/02 A2987 RMK AO2 SLP115 T01000022,KGEZ,2020-05-05T21:53:00Z,39.58,-85.8,10.0,2.2,20,11,18,10.0,29.870079,1011.5,,TRUE,TRUE,,,,,,,OVC,4200,,,,,,,VFR,,,,,,,,,,,,METAR,245.0
KGEY 052153Z AUTO 36017G25KT 10SM CLR 20/M06 A3020 RMK AO2 PK WND 33029/2110 SLP218 T02001056,KGEY,2020-05-05T21:53:00Z,44.52,-108.08,20.0,-5.6,360,17,25,10.0,30.200787,1021.8,,TRUE,TRUE,,,,,,,CLR,,,,,,,,VFR,,,,,,,,,,,,METAR,1191.0
KGEG 052153Z 13005KT 10SM SCT090 SCT120 SCT250 21/M01 A3011 RMK AO2 SLP191 VIRGA T02111006,KGEG,2020-05-05T21:53:00Z,47.62,-117.53,21.1,-0.6,130,5,,10.0,30.109253,1019.1,,,TRUE,,,,,,,SCT,9000,SCT,12000,SCT,25000,,,VFR,,,,,,,,,,,,METAR,735.0
KOQT 052153Z AUTO 27007G14KT 10SM FEW060 27/14 A2975 RMK AO2 SLP063 T02670139,KOQT,2020-05-05T21:53:00Z,36.02,-84.23,26.7,13.9,270,7,14,10.0,29.749016,1006.3,,TRUE,TRUE,,,,,,,FEW,6000,,,,,,,VFR,,,,,,,,,,,,METAR,277.0
KSDB 052153Z AUTO 33008KT 10SM CLR 25/05 A3017 RMK AO2 SLP167 T02500050,KSDB,2020-05-05T21:53:00Z,34.75,-118.72,25.0,5.0,330,8,,10.0,30.171259,1016.7,,TRUE,TRUE,,,,,,,CLR,,,,,,,,VFR,,,,,,,,,,,,METAR,1377.0
KMWT 052153Z AUTO VRB06KT 10SM CLR 24/09 A3001 RMK AO2 SLP153 T02390089 $,KMWT,2020-05-05T21:53:00Z,34.55,-93.58,23.9,8.9,0,6,,10.0,30.008858,1015.3,,TRUE,TRUE,TRUE,,,,,,CLR,,,,,,,,VFR,,,,,,,,,,,,METAR,214.0
KCQC 052153Z AUTO 20010G16KT 10SM CLR 19/M02 A3030 RMK AO2 SLP196 T01891017,KCQC,2020-05-05T21:53:00Z,35.0,-105.67,18.9,-1.7,200,10,16,10.0,30.301182,1019.6,,TRUE,TRUE,,,,,,,CLR,,,,,,,,VFR,,,,,,,,,,,,METAR,2160.0
KNIP 052153Z 24013KT 10SM FEW250 32/17 A2987 RMK AO2 SLP111 T03220167,KNIP,2020-05-05T21:53:00Z,30.22,-81.67,32.2,16.7,240,13,,10.0,29.870079,1011.1,,,TRUE,,,,,,,FEW,25000,,,,,,,VFR,,,,,,,,,,,,METAR,7.0
KGKY 052153Z 36016G25KT 10SM CLR 27/08 A3006 RMK AO2 SLP170 T02720083,KGKY,2020-05-05T21:53:00Z,32.67,-97.1,27.2,8.3,360,16,25,10.0,30.059055,1017.0,,,TRUE,,,,,,,CLR,,,,,,,,VFR,,,,,,,,,,,,METAR,192.0
KGLD 052153Z AUTO 31017G27KT 10SM CLR 23/M09 A3013 RMK AO2 PK WND 32029/2118 SLP185 T02331089,KGLD,2020-05-05T21:53:00Z,39.37,-101.7,23.3,-8.9,310,17,27,10.0,30.129921,1018.5,,TRUE,TRUE,,,,,,,CLR,,,,,,,,VFR,,,,,,,,,,,,METAR,1113.0
KGKJ 052153Z AUTO 01013KT 10SM CLR 11/M03 A2983 RMK AO2 SLP110 T01061028,KGKJ,2020-05-05T21:53:00Z,41.63,-80.22,10.6,-2.8,10,13,,10.0,29.828741,1011.0,,TRUE,TRUE,,,,,,,CLR,,,,,,,,VFR,,,,,,,,,,,,METAR,428.0
KGLH 052153Z AUTO 33011KT 10SM CLR 25/13 A2995 RMK AO2 SLP147 T02500128,KGLH,2020-05-05T21:53:00Z,33.5,-90.98,25.0,12.8,330,11,,10.0,29.949802,1014.7,,TRUE,TRUE,,,,,,,CLR,,,,,,,,VFR,,,,,,,,,,,,METAR,45.0
KGLR 052153Z AUTO 02008KT 10SM CLR 10/M11 A3001 RMK AO2 SLP173 T01001111,KGLR,2020-05-05T21:53:00Z,45.02,-84.68,10.0,-11.1,20,8,,10.0,30.008858,1017.3,,TRUE,TRUE,,,,,,,CLR,,,,,,,,VFR,,,,,,,,,,,,METAR,407.0
KGPT 052153Z 33005KT 10SM FEW055 32/17 A2986 RMK AO2 SLP112 T03170167,KGPT,2020-05-05T21:53:00Z,30.42,-89.08,31.7,16.7,330,5,,10.0,29.861221,1011.2,,,TRUE,,,,,,,FEW,5500,,,,,,,VFR,,,,,,,,,,,,METAR,14.0
KGOK 052153Z AUTO 03007KT 360V060 10SM CLR 23/02 A3011 RMK AO2 SLP191 T02330022,KGOK,2020-05-05T21:53:00Z,35.85,-97.4,23.3,2.2,30,7,,10.0,30.109253,1019.1,,TRUE,TRUE,,,,,,,CLR,,,,,,,,VFR,,,,,,,,,,,,METAR,324.0
KGRB 052153Z 06009KT 10SM CLR 11/M03 A3005 RMK AO2 SLP181 T01111033,KGRB,2020-05-05T21:53:00Z,44.48,-88.13,11.1,-3.3,60,9,,10.0,30.050198,1018.1,,,TRUE,,,,,,,CLR,,,,,,,,VFR,,,,,,,,,,,,METAR,208.0
KNHK 052152Z 00000KT 7SM -RA OVC060 12/09 A2989 RMK AO2 SLP121 P0000 T01220089 $,KNHK,2020-05-05T21:52:00Z,38.27,-76.4,12.2,8.9,0,0,,7.0,29.890747,1012.1,,,TRUE,TRUE,,,,,-RA,OVC,6000,,,,,,,VFR,,,,,,0.005,,,,,,METAR,12.0
MMAA 052152Z 26011KT 7SM SCT300 28/24 A2978 RMK 8/002 HZY,MMAA,2020-05-05T21:52:00Z,16.75,-99.75,28.0,24.0,260,11,,7.0,29.778543,,,,,,,,,,,SCT,30000,,,,,,,VFR,,,,,,,,,,,,METAR,5.0
KCWA 052152Z 00000KT 10SM SCT090 BKN200 13/M05 A3002,KCWA,2020-05-05T21:52:00Z,44.78,-89.67,13.0,-5.0,0,0,,10.0,30.02067,,,,,,,,,,,SCT,9000,BKN,20000,,,,,VFR,,,,,,,,,,,,METAR,389.0
KMDH 052152Z 34010G18KT 10SM FEW055 19/09 A2990 RMK AO2 SLP123 T01890089,KMDH,2020-05-05T21:52:00Z,37.78,-89.25,18.9,8.9,340,10,18,10.0,29.899607,1012.3,,,TRUE,,,,,,,FEW,5500,,,,,,,VFR,,,,,,,,,,,,METAR,130.0
KVTN 052152Z AUTO 32016G24KT 10SM OVC110 19/M02 A3013 RMK AO2 PK WND 32028/2117 SLP204 T01891022,KVTN,2020-05-05T21:52:00Z,42.87,-100.55,18.9,-2.2,320,16,24,10.0,30.129921,1020.4,,TRUE,TRUE,,,,,,,OVC,11000,,,,,,,VFR,,,,,,,,,,,,METAR,788.0
KORE 052152Z AUTO 32010KT 10SM FEW070 16/M04 A2984 RMK AO2 SLP107 T01561039,KORE,2020-05-05T21:52:00Z,42.57,-72.28,15.6,-3.9,320,10,,10.0,29.840551,1010.7,,TRUE,TRUE,,,,,,,FEW,7000,,,,,,,VFR,,,,,,,,,,,,METAR,164.0
KPPF 052152Z AUTO 33015G25KT 10SM CLR 23/06 A3007 RMK AO2 PK WND 33028/2115 SLP177 T02330056,KPPF,2020-05-05T21:52:00Z,37.33,-95.5,23.3,5.6,330,15,25,10.0,30.070866,1017.7,,TRUE,TRUE,,,,,,,CLR,,,,,,,,VFR,,,,,,,,,,,,SPECI,274.0
KP69 052152Z AUTO VRB03KT 27/01 A3001 RMK AO1 SLP154 T02670006,KP69,2020-05-05T21:52:00Z,46.15,-115.6,26.7,0.6,0,3,,,30.008858,1015.4,,TRUE,TRUE,,,,,,,,,,,,,,,,,,,,,,,,,,,METAR,480.0
KNRB 052152Z 24012KT 10SM CLR 31/17 A2985 RMK AO2 SLP109 T03110172,KNRB,2020-05-05T21:52:00Z,30.38,-81.42,31.1,17.2,240,12,,10.0,29.84941,1010.9,,,TRUE,,,,,,,CLR,,,,,,,,VFR,,,,,,,,,,,,METAR,5.0
KCZZ 052152Z AUTO 30013KT 32/08 A2997 RMK AO1 SLP118 T03170078,KCZZ,2020-05-05T21:52:00Z,32.63,-116.47,31.7,7.8,300,13,,,29.970472,1011.8,,TRUE,TRUE,,,,,,,,,,,,,,,,,,,,,,,,,,,METAR,807.0
KREO 052152Z AUTO 19007G24KT 27/M05 A3004 RMK AO1 SLP154 T02671050,KREO,2020-05-05T21:52:00Z,42.58,-117.87,26.7,-5.0,190,7,24,,30.041338,1015.4,,TRUE,TRUE,,,,,,,,,,,,,,,,,,,,,,,,,,,METAR,1235.0
KCDJ 052152Z AUTO 32010G24KT 18/06 A2996 RMK AO1 PK WND 32031/2100 SLP143 T01780061,KCDJ,2020-05-05T21:52:00Z,39.77,-93.48,17.8,6.1,320,10,24,,29.958662,1014.3,,TRUE,TRUE,,,,,,,,,,,,,,,,,,,,,,,,,,,SPECI,234.0
KBAN 052152Z AUTO 20015G21KT 10SM CLR 21/M16 A3023 RMK AO2 SLP171 T02061161 $,KBAN,2020-05-05T21:52:00Z,38.35,-119.52,20.6,-16.1,200,15,21,10.0,30.230314,1017.1,,TRUE,TRUE,TRUE,,,,,,CLR,,,,,,,,VFR,,,,,,,,,,,,METAR,2057.0
KNFW 052152Z 03016KT 10SM FEW100 27/07 A3008 RMK AO2 SLP170 T02670072 VISNO N $,KNFW,2020-05-05T21:52:00Z,32.78,-97.43,26.7,7.2,30,16,,10.0,30.079725,1017.0,,,TRUE,TRUE,,,,,,FEW,10000,,,,,,,VFR,,,,,,,,,,,,METAR,198.0
KNTD 052152Z 28008KT 8SM FEW280 24/12 A2995 RMK AO2 SLP144 T02390122 $,KNTD,2020-05-05T21:52:00Z,34.12,-119.12,23.9,12.2,280,8,,8.0,29.949802,1014.4,,,TRUE,TRUE,,,,,,FEW,28000,,,,,,,VFR,,,,,,,,,,,,METAR,4.0
KNZY 052152Z 32009KT 10SM CLR 26/14 A2993 RMK AO2 SLP134 T02560144,KNZY,2020-05-05T21:52:00Z,32.7,-117.22,25.6,14.4,320,9,,10.0,29.929134,1013.4,,,TRUE,,,,,,,CLR,,,,,,,,VFR,,,,,,,,,,,,METAR,8.0
KN60 052152Z AUTO 04007G16KT 010V070 14/M01 A3018 RMK AO1 SLP231 T01391011,KN60,2020-05-05T21:52:00Z,47.65,-101.43,13.9,-1.1,40,7,16,,30.180119,1023.1,,TRUE,TRUE,,,,,,,,,,,,,,,,,,,,,,,,,,,METAR,582.0
KABQ 052152Z 28007KT 10SM FEW100 26/M01 A3018 RMK AO2 SLP148 T02561011,KABQ,2020-05-05T21:52:00Z,35.05,-106.62,25.6,-1.1,280,7,,10.0,30.180119,1014.8,,,TRUE,,,,,,,FEW,10000,,,,,,,VFR,,,,,,,,,,,,METAR,1618.0
KABI 052152Z 05010G16KT 10SM CLR 26/05 A3012 RMK AO2 SLP177 T02610050,KABI,2020-05-05T21:52:00Z,32.42,-99.68,26.1,5.0,50,10,16,10.0,30.121063,1017.7,,,TRUE,,,,,,,CLR,,,,,,,,VFR,,,,,,,,,,,,METAR,548.0
KAFN 052152Z AUTO VRB06KT 10SM CLR 12/M04 A2983 RMK AO2 SLP111 T01221039,KAFN,2020-05-05T21:52:00Z,42.8,-72.0,12.2,-3.9,0,6,,10.0,29.828741,1011.1,,TRUE,TRUE,,,,,,,CLR,,,,,,,,VFR,,,,,,,,,,,,METAR,313.0
KALS 052152Z AUTO 00000KT 10SM BKN100 23/M10 A3019 RMK AO2 SLP156 T02281100,KALS,2020-05-05T21:52:00Z,37.43,-105.87,22.8,-10.0,0,0,,10.0,30.188976,1015.6,,TRUE,TRUE,,,,,,,BKN,10000,,,,,,,VFR,,,,,,,,,,,,METAR,2299.0
KAQW 052152Z AUTO 28005KT 10SM CLR 12/M04 A2986 RMK AO2 SLP115 T01221039,KAQW,2020-05-05T21:52:00Z,42.7,-73.17,12.2,-3.9,280,5,,10.0,29.861221,1011.5,,TRUE,TRUE,,,,,,,CLR,,,,,,,,VFR,,,,,,,,,,,,METAR,199.0
KATL 052152Z 23011G17KT 10SM FEW040 BKN200 BKN250 27/17 A2983 RMK AO2 SLP093 T02670167,KATL,2020-05-05T21:52:00Z,33.63,-84.45,26.7,16.7,230,11,17,10.0,29.828741,1009.3,,,TRUE,,,,,,,FEW,4000,BKN,20000,BKN,25000,,,VFR,,,,,,,,,,,,METAR,296.0
KBDR 052152Z 21010KT 10SM CLR 16/M02 A2984 RMK AO2 SLP106 T01561022,KBDR,2020-05-05T21:52:00Z,41.17,-73.13,15.6,-2.2,210,10,,10.0,29.840551,1010.6,,,TRUE,,,,,,,CLR,,,,,,,,VFR,,,,,,,,,,,,METAR,7.0
KBIS 052152Z 36014G23KT 10SM BKN049 BKN055 13/01 A3019 RMK AO2 SLP231 T01280011,KBIS,2020-05-05T21:52:00Z,46.77,-100.75,12.8,1.1,360,14,23,10.0,30.188976,1023.1,,,TRUE,,,,,,,BKN,4900,BKN,5500,,,,,VFR,,,,,,,,,,,,METAR,505.0
KBLF 052152Z AUTO 12003KT 10SM OVC018 12/11 A2978 RMK AO2 SLP069 T01170106,KBLF,2020-05-05T21:52:00Z,37.3,-81.2,11.7,10.6,120,3,,10.0,29.778543,1006.9,,TRUE,TRUE,,,,,,,OVC,1800,,,,,,,MVFR,,,,,,,,,,,,METAR,873.0
KBLH 052152Z AUTO 08005KT 10SM CLR 38/M07 A2984 RMK AO2 SLP098 T03831067,KBLH,2020-05-05T21:52:00Z,33.62,-114.72,38.3,-6.7,80,5,,10.0,29.840551,1009.8,,TRUE,TRUE,,,,,,,CLR,,,,,,,,VFR,,,,,,,,,,,,METAR,119.0
KBLU 052152Z AUTO 20008G15KT 10SM CLR 17/M04 A3024 RMK AO2 SLP176 T01721039,KBLU,2020-05-05T21:52:00Z,39.28,-120.7,17.2,-3.9,200,8,15,10.0,30.239174,1017.6,,TRUE,TRUE,,,,,,,CLR,,,,,,,,VFR,,,,,,,,,,,,METAR,1609.0
KCFV 052152Z AUTO 32016G25KT 10SM CLR 24/02 A3005 RMK AO2 PK WND 32027/2116 SLP172 T02390022,KCFV,2020-05-05T21:52:00Z,37.08,-95.57,23.9,2.2,320,16,25,10.0,30.050198,1017.2,,TRUE,TRUE,,,,,,,CLR,,,,,,,,VFR,,,,,,,,,,,,METAR,225.0
KCID 052152Z 09011KT 10SM -RA FEW015 BKN041 OVC060 08/07 A2995 RMK AO2 SLP148 P0001 T00830067,KCID,2020-05-05T21:52:00Z,41.88,-91.72,8.3,6.7,90,11,,10.0,29.949802,1014.8,,,TRUE,,,,,,-RA,FEW,1500,BKN,4100,OVC,6000,,,VFR,,,,,,0.01,,,,,,METAR,264.0
KCKV 052152Z AUTO 32015G24KT 10SM FEW033 BKN041 18/11 A2990 RMK AO2 SLP121 T01830111,KCKV,2020-05-05T21:52:00Z,36.62,-87.42,18.3,11.1,320,15,24,10.0,29.899607,1012.1,,TRUE,TRUE,,,,,,,FEW,3300,BKN,4100,,,,,VFR,,,,,,,,,,,,METAR,165.0
KCLT 052152Z 34004KT 8SM TSRA FEW023CB BKN100 BKN150 OVC250 18/14 A2979 RMK AO2 LTG DSNT SW-NW RAB50 TSB51 SLP084 OCNL LTGICCCCG W-NW TS W-NW MOV E CBMAM OHD MOV E P0000 T01780144,KCLT,2020-05-05T21:52:00Z,35.22,-80.95,17.8,14.4,340,4,,8.0,29.790354,1008.4,,,TRUE,,,,,,TSRA,FEW,2300,BKN,10000,BKN,15000,OVC,25000,VFR,,,,,,0.005,,,,,,METAR,220.0
KCNU 052152Z AUTO 31014G30KT 10SM CLR 23/04 A3006 RMK AO2 PK WND 30031/2142 SLP172 T02280044,KCNU,2020-05-05T21:52:00Z,37.67,-95.48,22.8,4.4,310,14,30,10.0,30.059055,1017.2,,TRUE,TRUE,,,,,,,CLR,,,,,,,,VFR,,,,,,,,,,,,METAR,297.0
KCQX 052152Z AUTO 17007KT 10SM OVC070 10/02 A2985 RMK AO2 SLP110 T01000017,KCQX,2020-05-05T21:52:00Z,41.68,-70.0,10.0,1.7,170,7,,10.0,29.84941,1011.0,,TRUE,TRUE,,,,,,,OVC,7000,,,,,,,VFR,,,,,,,,,,,,METAR,19.0
KCVG 052152Z 33005KT 10SM OVC030 10/03 A2983 RMK AO2 SLP101 T01000028,KCVG,2020-05-05T21:52:00Z,39.05,-84.67,10.0,2.8,330,5,,10.0,29.828741,1010.1,,,TRUE,,,,,,,OVC,3000,,,,,,,MVFR,,,,,,,,,,,,METAR,269.0
KDCA 052152Z 17006KT 10SM SCT044 OVC075 14/05 A2989 RMK AO2 SLP123 T01390050,KDCA,2020-05-05T21:52:00Z,38.85,-77.03,13.9,5.0,170,6,,10.0,29.890747,1012.3,,,TRUE,,,,,,,SCT,4400,OVC,7500,,,,,VFR,,,,,,,,,,,,METAR,18.0
KDDC 052152Z AUTO 30013G18KT 10SM CLR 24/M04 A3014 RMK AO2 SLP189 T02441044,KDDC,2020-05-05T21:52:00Z,37.77,-99.97,24.4,-4.4,300,13,18,10.0,30.138779,1018.9,,TRUE,TRUE,,,,,,,CLR,,,,,,,,VFR,,,,,,,,,,,,METAR,789.0
PATA 052152Z 24003KT 9SM CLR 11/M02 A3002 RMK AO2 SLP171 T01061022,PATA,2020-05-05T21:52:00Z,65.17,-152.1,10.6,-2.2,240,3,,9.0,30.02067,1017.1,,,TRUE,,,,,,,CLR,,,,,,,,VFR,,,,,,,,,,,,METAR,67.0
KEST 052152Z AUTO 01010KT 10SM SCT025 BKN034 OVC055 09/05 A3006 RMK AO2 SLP183 T00940050,KEST,2020-05-05T21:52:00Z,43.4,-94.75,9.4,5.0,10,10,,10.0,30.059055,1018.3,,TRUE,TRUE,,,,,,,SCT,2500,BKN,3400,OVC,5500,,,VFR,,,,,,,,,,,,METAR,401.0
KFIT 052152Z AUTO 01010KT 10SM SCT070 14/M03 A2983 RMK AO2 SLP103 T01441033,KFIT,2020-05-05T21:52:00Z,42.55,-71.75,14.4,-3.3,10,10,,10.0,29.828741,1010.3,,TRUE,TRUE,,,,,,,SCT,7000,,,,,,,VFR,,,,,,,,,,,,METAR,103.0
KHUT 052152Z 31011G20KT 10SM SCT095 24/01 A3010 RMK AO2 SLP177 T02390011,KHUT,2020-05-05T21:52:00Z,38.07,-97.87,23.9,1.1,310,11,20,10.0,30.100393,1017.7,,,TRUE,,,,,,,SCT,9500,,,,,,,VFR,,,,,,,,,,,,METAR,467.0
KHIE 052152Z AUTO 29007KT 10SM BKN030 OVC035 05/M02 A2989 RMK AO2 SLP132 T00501017,KHIE,2020-05-05T21:52:00Z,44.37,-71.55,5.0,-1.7,290,7,,10.0,29.890747,1013.2,,TRUE,TRUE,,,,,,,BKN,3000,OVC,3500,,,,,MVFR,,,,,,,,,,,,METAR,318.0
KHRL 052152Z 12014G24KT 10SM CLR 34/23 A2982 RMK AO2 SLP099 T03440233,KHRL,2020-05-05T21:52:00Z,26.23,-97.65,34.4,23.3,120,14,24,10.0,29.819881,1009.9,,,TRUE,,,,,,,CLR,,,,,,,,VFR,,,,,,,,,,,,METAR,10.0
KIAD 052152Z 20006KT 10SM BKN039 OVC070 13/04 A2988 RMK AO2 SLP117 T01280039,KIAD,2020-05-05T21:52:00Z,38.93,-77.45,12.8,3.9,200,6,,10.0,29.878937,1011.7,,,TRUE,,,,,,,BKN,3900,OVC,7000,,,,,VFR,,,,,,,,,,,,METAR,93.0
KIEN 052152Z AUTO 35013G22KT 10SM OVC100 16/M03 A3018 RMK AO2 SLP222 T01611028,KIEN,2020-05-05T21:52:00Z,43.03,-102.52,16.1,-2.8,350,13,22,10.0,30.180119,1022.2,,TRUE,TRUE,,,,,,,OVC,10000,,,,,,,VFR,,,,,,,,,,,,METAR,998.0
KIJD 052152Z AUTO 30010KT 10SM CLR 15/M03 A2983 RMK AO2 SLP102 T01501033,KIJD,2020-05-05T21:52:00Z,41.75,-72.18,15.0,-3.3,300,10,,10.0,29.828741,1010.2,,TRUE,TRUE,,,,,,,CLR,,,,,,,,VFR,,,,,,,,,,,,METAR,75.0
KLWC 052152Z AUTO 31023G35KT 10SM CLR 22/01 A3001 RMK AO2 PK WND 32038/2113 SLP157 T02220006,KLWC,2020-05-05T21:52:00Z,39.02,-95.22,22.2,0.6,310,23,35,10.0,30.008858,1015.7,,TRUE,TRUE,,,,,,,CLR,,,,,,,,VFR,,,,,,,,,,,,METAR,253.0
KMBG 052152Z AUTO 02014G26KT 10SM SCT042 BKN050 13/04 A3014 RMK AO2 PK WND 35027/2142 SLP213 T01330044,KMBG,2020-05-05T21:52:00Z,45.55,-100.42,13.3,4.4,20,14,26,10.0,30.138779,1021.3,,TRUE,TRUE,,,,,,,SCT,4200,BKN,5000,,,,,VFR,,,,,,,,,,,,METAR,510.0
KMEB 052152Z AUTO 13005KT 10SM CLR 26/18 A2978 RMK AO2 SLP081 T02560178,KMEB,2020-05-05T21:52:00Z,34.78,-79.37,25.6,17.8,130,5,,10.0,29.778543,1008.1,,TRUE,TRUE,,,,,,,CLR,,,,,,,,VFR,,,,,,,,,,,,METAR,67.0
KMFD 052152Z AUTO 01013KT 10SM OVC060 08/M01 A2984 RMK AO2 SLP111 T00781006,KMFD,2020-05-05T21:52:00Z,40.82,-82.52,7.8,-0.6,10,13,,10.0,29.840551,1011.1,,TRUE,TRUE,,,,,,,OVC,6000,,,,,,,VFR,,,,,,,,,,,,METAR,395.0
KMHK 052152Z 32008G27KT 10SM CLR 23/00 A3006 RMK AO2 PK WND 31029/2117 SLP175 T02330000,KMHK,2020-05-05T21:52:00Z,39.13,-96.68,23.3,0.0,320,8,27,10.0,30.059055,1017.5,,,TRUE,,,,,,,CLR,,,,,,,,VFR,,,,,,,,,,,,METAR,317.0
KMKE 052152Z 03012KT 10SM OVC090 06/M01 A3002 RMK AO2 SLP170 VIRGA SE-SW T00611011,KMKE,2020-05-05T21:52:00Z,42.95,-87.9,6.1,-1.1,30,12,,10.0,30.02067,1017.0,,,TRUE,,,,,,,OVC,9000,,,,,,,VFR,,,,,,,,,,,,METAR,206.0
PTPN 052152Z 06003KT 15SM BKN017TCU OVC130 28/25 A2988 RMK TCU ALQDS,PTPN,2020-05-05T21:52:00Z,6.97,158.22,28.0,25.0,60,3,,15.0,29.878937,,,,,,,,,,,BKN,1700,OVC,13000,,,,,MVFR,,,,,,,,,,,,SPECI,2.0
KOKC 052152Z 02011KT 10SM FEW150 BKN250 23/03 A3011 RMK AO2 SLP188 T02280028,KOKC,2020-05-05T21:52:00Z,35.38,-97.6,22.8,2.8,20,11,,10.0,30.109253,1018.8,,,TRUE,,,,,,,FEW,15000,BKN,25000,,,,,VFR,,,,,,,,,,,,METAR,390.0
KOKB 052152Z AUTO 25011KT 8SM CLR 25/17 A2993 RMK AO2 SLP134 T02500172,KOKB,2020-05-05T21:52:00Z,33.22,-117.35,25.0,17.2,250,11,,8.0,29.929134,1013.4,,TRUE,TRUE,,,,,,,CLR,,,,,,,,VFR,,,,,,,,,,,,METAR,8.0
KOMA 052152Z 34023G36KT 7SM BLDU FEW024 SCT035 14/06 A3005 RMK AO2 PK WND 34039/2100 SLP178 T01440061,KOMA,2020-05-05T21:52:00Z,41.32,-95.9,14.4,6.1,340,23,36,7.0,30.050198,1017.8,,,TRUE,,,,,,BLDU,FEW,2400,SCT,3500,,,,,VFR,,,,,,,,,,,,METAR,312.0
KMWH 052152Z VRB04KT 10SM CLR 25/M01 A3005 RMK AO2 SLP176 T02501006,KMWH,2020-05-05T21:52:00Z,47.2,-119.32,25.0,-0.6,0,4,,10.0,30.050198,1017.6,,,TRUE,,,,,,,CLR,,,,,,,,VFR,,,,,,,,,,,,METAR,362.0
KMLF 052152Z AUTO 01007KT 310V040 10SM CLR 26/M10 A3017 RMK AO2 SLP179 T02561100,KMLF,2020-05-05T21:52:00Z,38.42,-113.02,25.6,-10.0,10,7,,10.0,30.171259,1017.9,,TRUE,TRUE,,,,,,,CLR,,,,,,,,VFR,,,,,,,,,,,,METAR,1534.0
KPWK 052152Z 04012KT 10SM SCT049 OVC085 09/M03 A3000 RMK AO2 SLP161 T00891033,KPWK,2020-05-05T21:52:00Z,42.12,-87.9,8.9,-3.3,40,12,,10.0,30.0,1016.1,,,TRUE,,,,,,,SCT,4900,OVC,8500,,,,,VFR,,,,,,,,,,,,METAR,203.0
KPYM 052152Z AUTO 09006KT 10SM BKN070 12/01 A2982 RMK AO2 SLP098 T01170006,KPYM,2020-05-05T21:52:00Z,41.92,-70.73,11.7,0.6,90,6,,10.0,29.819881,1009.8,,TRUE,TRUE,,,,,,,BKN,7000,,,,,,,VFR,,,,,,,,,,,,METAR,43.0
KRAP 052152Z 33020G31KT 10SM FEW065 SCT090 SCT110 14/M05 A3017 RMK AO2 PK WND 32034/2053 SLP224 T01441050,KRAP,2020-05-05T21:52:00Z,44.05,-103.05,14.4,-5.0,330,20,31,10.0,30.171259,1022.4,,,TRUE,,,,,,,FEW,6500,SCT,9000,SCT,11000,,,VFR,,,,,,,,,,,,METAR,965.0
KSGF 052152Z 30018G26KT 10SM CLR 21/04 A3001 RMK AO2 PK WND 31029/2057 SLP156 T02060044,KSGF,2020-05-05T21:52:00Z,37.23,-93.38,20.6,4.4,300,18,26,10.0,30.008858,1015.6,,,TRUE,,,,,,,CLR,,,,,,,,VFR,,,,,,,,,,,,METAR,390.0
KSPI 052152Z AUTO 33007KT 10SM FEW010 OVC020 11/09 A2992 RMK AO2 SLP134 T01110089,KSPI,2020-05-05T21:52:00Z,39.85,-89.68,11.1,8.9,330,7,,10.0,29.920275,1013.4,,TRUE,TRUE,,,,,,,FEW,1000,OVC,2000,,,,,MVFR,,,,,,,,,,,,METAR,181.0
KSUX 052152Z AUTO 34015G23KT 10SM SCT030 BKN039 BKN048 13/07 A3010 RMK AO2 SLP195 T01280067,KSUX,2020-05-05T21:52:00Z,42.38,-96.38,12.8,6.7,340,15,23,10.0,30.100393,1019.5,,TRUE,TRUE,,,,,,,SCT,3000,BKN,3900,BKN,4800,,,VFR,,,,,,,,,,,,METAR,338.0
KSPS 052152Z 05010G18KT 10SM FEW100 26/03 A3011 RMK AO2 SLP185 T02560028,KSPS,2020-05-05T21:52:00Z,33.98,-98.5,25.6,2.8,50,10,18,10.0,30.109253,1018.5,,,TRUE,,,,,,,FEW,10000,,,,,,,VFR,,,,,,,,,,,,METAR,308.0
KTAN 052152Z AUTO VRB03KT 10SM SCT080 16/M03 A2981 RMK AO2 SLP094 T01561033,KTAN,2020-05-05T21:52:00Z,41.88,-71.02,15.6,-3.3,0,3,,10.0,29.811024,1009.4,,TRUE,TRUE,,,,,,,SCT,8000,,,,,,,VFR,,,,,,,,,,,,METAR,7.0
KTRM 052152Z AUTO VRB05KT 10SM CLR 41/M04 A2979 RMK AO2 SLP090 T04111039,KTRM,2020-05-05T21:52:00Z,33.63,-116.17,41.1,-3.9,0,5,,10.0,29.790354,1009.0,,TRUE,TRUE,,,,,,,CLR,,,,,,,,VFR,,,,,,,,,,,,METAR,-35.0
KTOL 052152Z 05011KT 10SM OVC110 10/M02 A2992 RMK AO2 SLP133 T01001017 $,KTOL,2020-05-05T21:52:00Z,41.58,-83.8,10.0,-1.7,50,11,,10.0,29.920275,1013.3,,,TRUE,TRUE,,,,,,OVC,11000,,,,,,,VFR,,,,,,,,,,,,METAR,210.0
KCQT 052152Z AUTO 26006KT 10SM CLR 30/09 A2992 RMK AO2 SLP129 T03000089,KCQT,2020-05-05T21:52:00Z,34.02,-118.28,30.0,8.9,260,6,,10.0,29.920275,1012.9,,TRUE,TRUE,,,,,,,CLR,,,,,,,,VFR,,,,,,,,,,,,METAR,56.0
KMYL 052151Z AUTO 19010G20KT 10SM CLR 19/M06 A3014 RMK AO2 SLP191 T01941061,KMYL,2020-05-05T21:51:00Z,44.9,-116.1,19.4,-6.1,190,10,20,10.0,30.138779,1019.1,,TRUE,TRUE,,,,,,,CLR,,,,,,,,VFR,,,,,,,,,,,,METAR,1533.0
MMTO 052151Z 27004KT 6SM BKN015CB BKN080 20/01 A3027 RMK 8/360 HZY,MMTO,2020-05-05T21:51:00Z,19.35,-99.57,20.0,1.0,270,4,,6.0,30.268702,,,,,,,,,,,BKN,1500,BKN,8000,,,,,MVFR,,,,,,,,,,,,METAR,2576.0
KTPL 052151Z AUTO 02010G18KT 10SM FEW075 BKN100 26/13 A3003 RMK AO2 SLP160 T02560133,KTPL,2020-05-05T21:51:00Z,31.13,-97.4,25.6,13.3,20,10,18,10.0,30.029528,1016.0,,TRUE,TRUE,,,,,,,FEW,7500,BKN,10000,,,,,VFR,,,,,,,,,,,,METAR,208.0
KOXC 052151Z 32009KT 270V360 10SM CLR 14/M07 A2985 RMK AO2 SLP121 T01391067,KOXC,2020-05-05T21:51:00Z,41.47,-73.13,13.9,-6.7,320,9,,10.0,29.84941,1012.1,,,TRUE,,,,,,,CLR,,,,,,,,VFR,,,,,,,,,,,,METAR,222.0
KOCF 052151Z 25010KT 10SM CLR 28/18 A2993 RMK AO2 SLP136 T02830183 $,KOCF,2020-05-05T21:51:00Z,29.17,-82.22,28.3,18.3,250,10,,10.0,29.929134,1013.6,,,TRUE,TRUE,,,,,,CLR,,,,,,,,VFR,,,,,,,,,,,,SPECI,27.0
KMPV 052151Z AUTO 33008KT 10SM OVC047 07/M03 A2993 RMK AO2 SLP146 T00721033,KMPV,2020-05-05T21:51:00Z,44.2,-72.57,7.2,-3.3,330,8,,10.0,29.929134,1014.6,,TRUE,TRUE,,,,,,,OVC,4700,,,,,,,VFR,,,,,,,,,,,,METAR,343.0
PAMD 052151Z AUTO 07011KT 10SM CLR 08/04 A3001 RMK AO2 SLP151 T00830044,PAMD,2020-05-05T21:51:00Z,59.43,-146.3,8.3,4.4,70,11,,10.0,30.008858,1015.1,,TRUE,TRUE,,,,,,,CLR,,,,,,,,VFR,,,,,,,,,,,,SPECI,14.0
KATT 052151Z AUTO 01006G16KT 10SM OVC036 25/12 A3003 RMK AO2 SLP156 T02500122,KATT,2020-05-05T21:51:00Z,30.32,-97.77,25.0,12.2,10,6,16,10.0,30.029528,1015.6,,TRUE,TRUE,,,,,,,OVC,3600,,,,,,,VFR,,,,,,,,,,,,METAR,201.0
KGDP 052151Z AUTO 07022G30KT 9SM CLR 20/01 A3023 RMK AO2 PK WND 08031/2136 SLP159 T02000006 $,KGDP,2020-05-05T21:51:00Z,31.83,-104.82,20.0,0.6,70,22,30,9.0,30.230314,1015.9,,TRUE,TRUE,TRUE,,,,,,CLR,,,,,,,,VFR,,,,,,,,,,,,METAR,1692.0
KP58 052151Z AUTO 02012KT 03/M02 A3002 RMK AO1 SLP173 T00331022,KP58,2020-05-05T21:51:00Z,44.02,-82.8,3.3,-2.2,20,12,,,30.02067,1017.3,,TRUE,TRUE,,,,,,,,,,,,,,,,,,,,,,,,,,,METAR,179.0
KNYC 052151Z AUTO 10SM CLR 17/M09 A2987 RMK AO2 SLP106 T01671094 $,KNYC,2020-05-05T21:51:00Z,40.78,-73.97,16.7,-9.4,,,,10.0,29.870079,1010.6,,TRUE,TRUE,TRUE,,,,,,CLR,,,,,,,,VFR,,,,,,,,,,,,METAR,11.0
KLGU 052151Z AUTO 34004KT CLR 22/M04 A3023 RMK AO2 SLP210 T02171044 $,KLGU,2020-05-05T21:51:00Z,41.78,-111.85,21.7,-4.4,340,4,,,30.230314,1021.0,,TRUE,TRUE,TRUE,,,,,,CLR,,,,,,,,,,,,,,,,,,,,METAR,1355.0
KAHN 052151Z 25007KT 10SM SCT047 SCT075 29/18 A2978 RMK AO2 SLP078 T02890178,KAHN,2020-05-05T21:51:00Z,33.95,-83.33,28.9,17.8,250,7,,10.0,29.778543,1007.8,,,TRUE,,,,,,,SCT,4700,SCT,7500,,,,,VFR,,,,,,,,,,,,SPECI,244.0
KACT 052151Z 36011KT 10SM OVC095 27/12 A3004 RMK AO2 SLP164 T02670122,KACT,2020-05-05T21:51:00Z,31.62,-97.23,26.7,12.2,360,11,,10.0,30.041338,1016.4,,,TRUE,,,,,,,OVC,9500,,,,,,,VFR,,,,,,,,,,,,METAR,151.0
KABE 052151Z 33003KT 10SM CLR 18/M06 A2986 RMK AO2 SLP110 T01781056,KABE,2020-05-05T21:51:00Z,40.65,-75.45,17.8,-5.6,330,3,,10.0,29.861221,1011.0,,,TRUE,,,,,,,CLR,,,,,,,,VFR,,,,,,,,,,,,METAR,114.0
KYNG 052151Z 01014KT 10SM BKN110 OVC130 12/M01 A2983 RMK AO2 SLP106 T01221006,KYNG,2020-05-05T21:51:00Z,41.25,-80.67,12.2,-0.6,10,14,,10.0,29.828741,1010.6,,,TRUE,,,,,,,BKN,11000,OVC,13000,,,,,VFR,,,,,,,,,,,,METAR,360.0
KVNY 052151Z 18010KT 10SM CLR 36/06 A2991 RMK AO2 SLP119 T03560056,KVNY,2020-05-05T21:51:00Z,34.22,-118.48,35.6,5.6,180,10,,10.0,29.911417,1011.9,,,TRUE,,,,,,,CLR,,,,,,,,VFR,,,,,,,,,,,,METAR,245.0
KVCT 052151Z 12005KT 10SM SCT047 BKN060 33/21 A2988 RMK AO2 SLP116 T03330211,KVCT,2020-05-05T21:51:00Z,28.87,-96.93,33.3,21.1,120,5,,10.0,29.878937,1011.6,,,TRUE,,,,,,,SCT,4700,BKN,6000,,,,,VFR,,,,,,,,,,,,METAR,31.0
KTEB 052151Z 30006KT 10SM CLR 17/M07 A2983 RMK AO2 SLP101 T01721067,KTEB,2020-05-05T21:51:00Z,40.87,-74.05,17.2,-6.7,300,6,,10.0,29.828741,1010.1,,,TRUE,,,,,,,CLR,,,,,,,,VFR,,,,,,,,,,,,METAR,7.0
KSTL 052151Z 02008KT 10SM SCT042 BKN080 19/10 A2990 RMK AO2 SLP124 T01890100 $,KSTL,2020-05-05T21:51:00Z,38.75,-90.37,18.9,10.0,20,8,,10.0,29.899607,1012.4,,,TRUE,TRUE,,,,,,SCT,4200,BKN,8000,,,,,VFR,,,,,,,,,,,,SPECI,171.0
KSMX 052151Z 30022G29KT 9SM SCT200 21/08 A3001 RMK AO2 PK WND 30029/2146 SLP164 T02110078,KSMX,2020-05-05T21:51:00Z,34.9,-120.45,21.1,7.8,300,22,29,9.0,30.008858,1016.4,,,TRUE,,,,,,,SCT,20000,,,,,,,VFR,,,,,,,,,,,,METAR,74.0
KSMO 052151Z 23009KT 10SM CLR 24/09 A2994 RMK AO2 SLP136 T02440094,KSMO,2020-05-05T21:51:00Z,34.02,-118.45,24.4,9.4,230,9,,10.0,29.940945,1013.6,,,TRUE,,,,,,,CLR,,,,,,,,VFR,,,,,,,,,,,,METAR,57.0
KSLK 052151Z AUTO VRB06KT 10SM SCT048 07/M04 A2988 RMK AO2 SLP133 T00721044,KSLK,2020-05-05T21:51:00Z,44.4,-74.2,7.2,-4.4,0,6,,10.0,29.878937,1013.3,,TRUE,TRUE,,,,,,,SCT,4800,,,,,,,VFR,,,,,,,,,,,,METAR,498.0
KSNT 052151Z AUTO 17007KT 17/M09 A3024 RMK AO1 SLP194 T01721094,KSNT,2020-05-05T21:51:00Z,44.17,-114.93,17.2,-9.4,170,7,,,30.239174,1019.4,,TRUE,TRUE,,,,,,,,,,,,,,,,,,,,,,,,,,,METAR,1980.0
KALB 052151Z 30011G16KT 10SM FEW050 BKN230 14/M04 A2987 RMK AO2 SLP116 T01441044,KALB,2020-05-05T21:51:00Z,42.75,-73.8,14.4,-4.4,300,11,16,10.0,29.870079,1011.6,,,TRUE,,,,,,,FEW,5000,BKN,23000,,,,,VFR,,,,,,,,,,,,METAR,92.0
KAVX 052151Z AUTO 30007KT 10SM CLR 28/07 A3002 RMK AO2 SLP132 T02780072,KAVX,2020-05-05T21:51:00Z,33.4,-118.42,27.8,7.2,300,7,,10.0,30.02067,1013.2,,TRUE,TRUE,,,,,,,CLR,,,,,,,,VFR,,,,,,,,,,,,METAR,482.0
KBAZ 052151Z 03015G24KT 10SM -RA BKN035 BKN047 28/17 A2997 RMK AO2 SLP139 P0000 T02780172,KBAZ,2020-05-05T21:51:00Z,29.72,-98.05,27.8,17.2,30,15,24,10.0,29.970472,1013.9,,,TRUE,,,,,,-RA,BKN,3500,BKN,4700,,,,,VFR,,,,,,0.005,,,,,,METAR,195.0
KBDL 052151Z 31011KT 10SM FEW060 FEW110 FEW210 15/M04 A2985 RMK AO2 SLP107 T01501044,KBDL,2020-05-05T21:51:00Z,41.93,-72.68,15.0,-4.4,310,11,,10.0,29.84941,1010.7,,,TRUE,,,,,,,FEW,6000,FEW,11000,FEW,21000,,,VFR,,,,,,,,,,,,METAR,60.0
KBED 052151Z 35009KT 10SM SCT045 14/M02 A2981 RMK AO2 SLP109 T01441022,KBED,2020-05-05T21:51:00Z,42.47,-71.3,14.4,-2.2,350,9,,10.0,29.811024,1010.9,,,TRUE,,,,,,,SCT,4500,,,,,,,VFR,,,,,,,,,,,,METAR,50.0
KBGD 052151Z AUTO 03010KT 10SM CLR 25/M04 A3018 RMK AO2 SLP188 T02501039,KBGD,2020-05-05T21:51:00Z,35.7,-101.4,25.0,-3.9,30,10,,10.0,30.180119,1018.8,,TRUE,TRUE,,,,,,,CLR,,,,,,,,VFR,,,,,,,,,,,,METAR,927.0
KBHK 052151Z AUTO 24004KT 10SM -RA FEW034 BKN044 OVC100 10/09 A3024 RMK AO2 RAB19 SLP254 P0001 T01000089,KBHK,2020-05-05T21:51:00Z,46.35,-104.25,10.0,8.9,240,4,,10.0,30.239174,1025.4,,TRUE,TRUE,,,,,,-RA,FEW,3400,BKN,4400,OVC,10000,,,VFR,,,,,,0.01,,,,,,METAR,902.0
KBKW 052151Z AUTO 16007KT 10SM OVC017 12/09 A2977 RMK AO2 SLP072 T01220089,KBKW,2020-05-05T21:51:00Z,37.8,-81.12,12.2,8.9,160,7,,10.0,29.769686,1007.2,,TRUE,TRUE,,,,,,,OVC,1700,,,,,,,MVFR,,,,,,,,,,,,METAR,764.0
KCAK 052151Z 07009KT 10SM SCT065 OVC090 13/M04 A2982 RMK AO2 SLP102 T01281044,KCAK,2020-05-05T21:51:00Z,40.92,-81.45,12.8,-4.4,70,9,,10.0,29.819881,1010.2,,,TRUE,,,,,,,SCT,6500,OVC,9000,,,,,VFR,,,,,,,,,,,,METAR,377.0
KCLE 052151Z 03019G28KT 10SM OVC110 07/M03 A2989 RMK AO2 PK WND 03028/2144 SLP126 T00671033,KCLE,2020-05-05T21:51:00Z,41.42,-81.85,6.7,-3.3,30,19,28,10.0,29.890747,1012.6,,,TRUE,,,,,,,OVC,11000,,,,,,,VFR,,,,,,,,,,,,METAR,233.0
KCMH 052151Z 04012KT 10SM OVC040 09/00 A2981 RMK AO2 SLP098 T00940000,KCMH,2020-05-05T21:51:00Z,40.0,-82.88,9.4,0.0,40,12,,10.0,29.811024,1009.8,,,TRUE,,,,,,,OVC,4000,,,,,,,VFR,,,,,,,,,,,,METAR,247.0
KCRP 052151Z 11012KT 10SM FEW020 SCT025 SCT031 BKN250 31/24 A2988 RMK AO2 SLP118 T03110244,KCRP,2020-05-05T21:51:00Z,27.77,-97.5,31.1,24.4,110,12,,10.0,29.878937,1011.8,,,TRUE,,,,,,,FEW,2000,SCT,2500,SCT,3100,BKN,25000,VFR,,,,,,,,,,,,METAR,14.0
KCON 052151Z AUTO 34012G22KT 10SM CLR 11/M03 A2986 RMK AO2 SLP113 T01111028,KCON,2020-05-05T21:51:00Z,43.2,-71.5,11.1,-2.8,340,12,22,10.0,29.861221,1011.3,,TRUE,TRUE,,,,,,,CLR,,,,,,,,VFR,,,,,,,,,,,,METAR,103.0
KCSG 052151Z 28008G17KT 10SM SCT055 29/16 A2985 RMK AO2 SLP104 T02890161,KCSG,2020-05-05T21:51:00Z,32.52,-84.95,28.9,16.1,280,8,17,10.0,29.84941,1010.4,,,TRUE,,,,,,,SCT,5500,,,,,,,VFR,,,,,,,,,,,,SPECI,135.0
KDAW 052151Z AUTO 30011G20KT 10SM CLR 11/M02 A2983 RMK AO2 SLP099 T01111022,KDAW,2020-05-05T21:51:00Z,43.28,-70.92,11.1,-2.2,300,11,20,10.0,29.828741,1009.9,,TRUE,TRUE,,,,,,,CLR,,,,,,,,VFR,,,,,,,,,,,,METAR,100.0
KLGA 052151Z 33004KT 10SM FEW180 SCT250 17/M09 A2984 RMK AO2 SLP105 T01721094,KLGA,2020-05-05T21:51:00Z,40.78,-73.88,17.2,-9.4,330,4,,10.0,29.840551,1010.5,,,TRUE,,,,,,,FEW,18000,SCT,25000,,,,,VFR,,,,,,,,,,,,METAR,11.0
KJFK 052151Z 23012KT 10SM SCT170 BKN250 16/M01 A2986 RMK AO2 SLP110 T01561006,KJFK,2020-05-05T21:51:00Z,40.63,-73.77,15.6,-0.6,230,12,,10.0,29.861221,1011.0,,,TRUE,,,,,,,SCT,17000,BKN,25000,,,,,VFR,,,,,,,,,,,,METAR,9.0
KJCT 052151Z AUTO 07016G21KT 10SM BKN060 28/08 A3006 RMK AO2 SLP143 T02830083,KJCT,2020-05-05T21:51:00Z,30.5,-99.77,28.3,8.3,70,16,21,10.0,30.059055,1014.3,,TRUE,TRUE,,,,,,,BKN,6000,,,,,,,VFR,,,,,,,,,,,,METAR,522.0
KILG 052151Z 01006KT 10SM OVC110 14/00 A2989 RMK AO2 SLP120 T01440000,KILG,2020-05-05T21:51:00Z,39.67,-75.6,14.4,0.0,10,6,,10.0,29.890747,1012.0,,,TRUE,,,,,,,OVC,11000,,,,,,,VFR,,,,,,,,,,,,METAR,28.0
KIGM 052151Z AUTO 32007KT 10SM CLR 33/M11 A3005 RMK AO2 SLP111 T03331106,KIGM,2020-05-05T21:51:00Z,35.25,-113.93,33.3,-10.6,320,7,,10.0,30.050198,1011.1,,TRUE,TRUE,,,,,,,CLR,,,,,,,,VFR,,,,,,,,,,,,METAR,1032.0
KHSE 052151Z AUTO 05009G15KT 10SM CLR 17/13 A2983 RMK AO2 SLP102 T01720133,KHSE,2020-05-05T21:51:00Z,35.23,-75.62,17.2,13.3,50,9,15,10.0,29.828741,1010.2,,TRUE,TRUE,,,,,,,CLR,,,,,,,,VFR,,,,,,,,,,,,SPECI,3.0
KHDO 052151Z AUTO 02018G25KT 10SM FEW050 31/17 A2995 RMK AO2 SLP125 T03110172,KHDO,2020-05-05T21:51:00Z,29.37,-99.17,31.1,17.2,20,18,25,10.0,29.949802,1012.5,,TRUE,TRUE,,,,,,,FEW,5000,,,,,,,VFR,,,,,,,,,,,,METAR,282.0
KEWR 052151Z 34004KT 10SM FEW170 SCT250 17/M09 A2985 RMK AO2 SLP106 T01721089 $,KEWR,2020-05-05T21:51:00Z,40.68,-74.17,17.2,-8.9,340,4,,10.0,29.84941,1010.6,,,TRUE,TRUE,,,,,,FEW,17000,SCT,25000,,,,,VFR,,,,,,,,,,,,METAR,7.0
KERI 052151Z AUTO 05014G21KT 10SM CLR 08/M04 A2991 RMK AO2 SLP132 T00831039,KERI,2020-05-05T21:51:00Z,42.08,-80.18,8.3,-3.9,50,14,21,10.0,29.911417,1013.2,,TRUE,TRUE,,,,,,,CLR,,,,,,,,VFR,,,,,,,,,,,,METAR,222.0
KELP 052151Z 12013G21KT 10SM CLR 28/02 A3011 RMK AO2 SLP122 T02830017,KELP,2020-05-05T21:51:00Z,31.82,-106.38,28.3,1.7,120,13,21,10.0,30.109253,1012.2,,,TRUE,,,,,,,CLR,,,,,,,,VFR,,,,,,,,,,,,METAR,1197.0
KORD 052151Z 04010KT 10SM FEW020 BKN055 OVC070 08/00 A2998 RMK AO2 SLP154 T00830000,KORD,2020-05-05T21:51:00Z,41.98,-87.93,8.3,0.0,40,10,,10.0,29.97933,1015.4,,,TRUE,,,,,,,FEW,2000,BKN,5500,OVC,7000,,,VFR,,,,,,,,,,,,METAR,200.0
KPIT 052151Z 10005KT 10SM BKN080 BKN200 11/M01 A2981 RMK AO2 SLP106 T01061011 $,KPIT,2020-05-05T21:51:00Z,40.47,-80.2,10.6,-1.1,100,5,,10.0,29.811024,1010.6,,,TRUE,TRUE,,,,,,BKN,8000,BKN,20000,,,,,VFR,,,,,,,,,,,,METAR,339.0
KPHX 052151Z 32007KT 10SM CLR 38/M02 A2984 RMK AO2 SLP084 T03781017,KPHX,2020-05-05T21:51:00Z,33.43,-112.02,37.8,-1.7,320,7,,10.0,29.840551,1008.4,,,TRUE,,,,,,,CLR,,,,,,,,VFR,,,,,,,,,,,,METAR,336.0
KOXR 052151Z 27012KT 10SM CLR 21/12 A2995 RMK AO2 SLP140 T02110122,KOXR,2020-05-05T21:51:00Z,34.2,-119.2,21.1,12.2,270,12,,10.0,29.949802,1014.0,,,TRUE,,,,,,,CLR,,,,,,,,VFR,,,,,,,,,,,,METAR,20.0
KORF 052151Z 04003KT 10SM OVC043 14/06 A2989 RMK AO2 SLP121 T01390061,KORF,2020-05-05T21:51:00Z,36.9,-76.2,13.9,6.1,40,3,,10.0,29.890747,1012.1,,,TRUE,,,,,,,OVC,4300,,,,,,,VFR,,,,,,,,,,,,SPECI,14.0
KPVD 052151Z 30010KT 270V350 10SM SCT080 SCT250 16/M02 A2981 RMK AO2 SLP096 T01611022,KPVD,2020-05-05T21:51:00Z,41.72,-71.43,16.1,-2.2,300,10,,10.0,29.811024,1009.6,,,TRUE,,,,,,,SCT,8000,SCT,25000,,,,,VFR,,,,,,,,,,,,METAR,16.0
KPWM 052151Z 31020G26KT 10SM SCT080 11/M02 A2983 RMK AO2 PK WND 32026/2150 SLP101 T01111017,KPWM,2020-05-05T21:51:00Z,43.65,-70.3,11.1,-1.7,310,20,26,10.0,29.828741,1010.1,,,TRUE,,,,,,,SCT,8000,,,,,,,VFR,,,,,,,,,,,,METAR,15.0
KRDU 052151Z 13004KT 10SM SCT035 OVC050 21/13 A2982 RMK AO2 SLP094 T02110128,KRDU,2020-05-05T21:51:00Z,35.9,-78.78,21.1,12.8,130,4,,10.0,29.819881,1009.4,,,TRUE,,,,,,,SCT,3500,OVC,5000,,,,,VFR,,,,,,,,,,,,SPECI,130.0
KROW 052151Z VRB05KT 10SM CLR 27/01 A3017 RMK AO2 SLP155 T02670006,KROW,2020-05-05T21:51:00Z,33.3,-104.5,26.7,0.6,0,5,,10.0,30.171259,1015.5,,,TRUE,,,,,,,CLR,,,,,,,,VFR,,,,,,,,,,,,METAR,1112.0
KSAD 052151Z AUTO 09007KT 10SM CLR 37/M03 A2996 RMK AO2 SLP092 T03671033,KSAD,2020-05-05T21:51:00Z,32.85,-109.63,36.7,-3.3,90,7,,10.0,29.958662,1009.2,,TRUE,TRUE,,,,,,,CLR,,,,,,,,VFR,,,,,,,,,,,,METAR,962.0
KSAN 052151Z 32008KT 10SM CLR 26/14 A2995 RMK AO2 SLP140 T02610144,KSAN,2020-05-05T21:51:00Z,32.73,-117.18,26.1,14.4,320,8,,10.0,29.949802,1014.0,,,TRUE,,,,,,,CLR,,,,,,,,VFR,,,,,,,,,,,,METAR,12.0
KSAT 052151Z 03014G23KT 10SM SCT055 SCT250 29/18 A2996 RMK AO2 SLP125 T02940178,KSAT,2020-05-05T21:51:00Z,29.53,-98.47,29.4,17.8,30,14,23,10.0,29.958662,1012.5,,,TRUE,,,,,,,SCT,5500,SCT,25000,,,,,VFR,,,,,,,,,,,,METAR,243.0
KSJT 052151Z 04014KT 10SM CLR 29/06 A3008 RMK AO2 PK WND 02029/2052 SLP163 T02890056,KSJT,2020-05-05T21:51:00Z,31.37,-100.5,28.9,5.6,40,14,,10.0,30.079725,1016.3,,,TRUE,,,,,,,CLR,,,,,,,,VFR,,,,,,,,,,,,METAR,576.0
K6R6 052151Z AUTO 05012G19KT 32/07 A3004 RMK AO1 SLP135 T03220072,K6R6,2020-05-05T21:51:00Z,30.05,-102.22,32.2,7.2,50,12,19,,30.041338,1013.5,,TRUE,TRUE,,,,,,,,,,,,,,,,,,,,,,,,,,,METAR,701.0
KP59 052151Z AUTO 12007KT 07/M02 A3008 RMK AO1 SLP196 T00671017,KP59,2020-05-05T21:51:00Z,47.47,-87.88,6.7,-1.7,120,7,,,30.079725,1019.6,,TRUE,TRUE,,,,,,,,,,,,,,,,,,,,,,,,,,,METAR,190.0
KXWA 052151Z AUTO 33008KT 10SM CLR 16/00 A3021 RMK AO2 SLP085 T01560000 TSNO,KXWA,2020-05-05T21:51:00Z,48.27,-103.75,15.6,0.0,330,8,,10.0,30.209646,1008.5,,TRUE,TRUE,,,TRUE,,,,CLR,,,,,,,,VFR,,,,,,,,,,,,METAR,717.0
OODQ 052150Z AUTO 22018KT //// R22///// BKN004 27/26 Q1009 NOSIG RMK RH99? 0,OODQ,2020-05-05T21:50:00Z,19.52,57.65,27.0,26.0,220,18,,,29.793306,,,TRUE,,,TRUE,,,,,BKN,400,,,,,,,,,,,,,,,,,,,METAR,0.0
OOSA 052150Z 21005KT 180V240 9999 BKN025 29/25 Q1010 NOSIG,OOSA,2020-05-05T21:50:00Z,17.07,54.1,29.0,25.0,210,5,,6.21,29.822834,,,,,,TRUE,,,,,BKN,2500,,,,,,,MVFR,,,,,,,,,,,,METAR,20.0
OOMS 052150Z VRB02KT CAVOK 32/23 Q1007 WS R08L NOSIG,OOMS,2020-05-05T21:50:00Z,23.57,58.27,32.0,23.0,0,2,,6.21,29.734253,,,,,,TRUE,,,,,CAVOK,,,,,,,,VFR,,,,,,,,,,,,METAR,8.0
KOLV 052150Z 33011KT 10SM FEW035 FEW210 22/12 A2992,KOLV,2020-05-05T21:50:00Z,34.98,-89.78,22.0,12.0,330,11,,10.0,29.920275,,,,,,,,,,,FEW,3500,FEW,21000,,,,,VFR,,,,,,,,,,,,METAR,122.0
LGMT 052150Z VRB03KT CAVOK 15/13 Q1015,LGMT,2020-05-05T21:50:00Z,39.05,26.6,15.0,13.0,0,3,,6.21,29.970472,,,,,,,,,,,CAVOK,,,,,,,,VFR,,,,,,,,,,,,METAR,17.0
MSSM 052150Z 20004KT 9999 SCT030 32/26 Q//// A////,MSSM,2020-05-05T21:50:00Z,13.43,-88.12,32.0,26.0,200,4,,6.21,,,,,,,,,,,,SCT,3000,,,,,,,VFR,,,,,,,,,,,,METAR,80.0
MSSA 052150Z 33003KT 9999 SCT033 FEW037CB 34/19 Q1010 A2983,MSSA,2020-05-05T21:50:00Z,13.97,-89.57,34.0,19.0,330,3,,6.21,29.822834,,,,,,,,,,,SCT,3300,FEW,3700,,,,,VFR,,,,,,,,,,,,METAR,725.0
LXGB 052150Z AUTO 26019KT 9999 // NCD 19/13 Q1017,LXGB,2020-05-05T21:50:00Z,36.13,-5.33,19.0,13.0,260,19,,6.21,30.029528,,,TRUE,,,,,,,,CLR,,,,,,,,VFR,,,,,,,,,,,,SPECI,5.0
KTZR 052150Z 03011KT 10SM OVC040 10/02 A2982,KTZR,2020-05-05T21:50:00Z,39.9,-83.13,10.0,2.0,30,11,,10.0,29.819881,,,,,,,,,,,OVC,4000,,,,,,,VFR,,,,,,,,,,,,METAR,276.0
OOSH 052150Z AUTO 21001KT //// ////// 31/15 Q1006 RMK 1003,OOSH,2020-05-05T21:50:00Z,24.38,56.62,31.0,15.0,210,1,,,29.704725,,,TRUE,,,,,,,,,,,,,,,,,,,,,,,,,,,,METAR,35.0
LIPO 052150Z 29009KT CAVOK 19/13 Q1012,LIPO,2020-05-05T21:50:00Z,45.42,10.33,19.0,13.0,290,9,,6.21,29.88189,,,,,,,,,,,CAVOK,,,,,,,,VFR,,,,,,,,,,,,METAR,109.0
LICR 052150Z 36008KT CAVOK 16/11 Q1008,LICR,2020-05-05T21:50:00Z,38.07,15.65,16.0,11.0,360,8,,6.21,29.763779,,,,,,,,,,,CAVOK,,,,,,,,VFR,,,,,,,,,,,,METAR,21.0
EGQL 052150Z 04001KT CAVOK 03/01 Q1026 BLU,EGQL,2020-05-05T21:50:00Z,56.38,-2.87,3.0,1.0,40,1,,6.21,30.295275,,,,,,,,,,,CAVOK,,,,,,,,VFR,,,,,,,,,,,,METAR,12.0
EGOV 052150Z AUTO 07008KT 9999 NCD 09/03 Q1023,EGOV,2020-05-05T21:50:00Z,53.25,-4.53,9.0,3.0,70,8,,6.21,30.206694,,,TRUE,,,,,,,,CLR,,,,,,,,VFR,,,,,,,,,,,,SPECI,11.0
EGDR 052150Z AUTO 10015KT 7000 // OVC004/// 10/10 Q1020,EGDR,2020-05-05T21:50:00Z,50.08,-5.25,10.0,10.0,100,15,,4.35,30.11811,,,TRUE,,,,,,,,OVC,400,,,,,,,LIFR,,,,,,,,,,,,METAR,82.0
EGOM 052150Z AUTO 06006KT 9999 NCD 03/01 Q1025,EGOM,2020-05-05T21:50:00Z,55.05,-2.55,3.0,1.0,60,6,,6.21,30.265747,,,TRUE,,,,,,,,CLR,,,,,,,,VFR,,,,,,,,,,,,METAR,325.0
EGOP 052150Z AUTO 12005KT 9999 // OVC060/// 13/04 Q1021,EGOP,2020-05-05T21:50:00Z,51.72,-4.32,13.0,4.0,120,5,,6.21,30.147638,,,TRUE,,,,,,,,OVC,6000,,,,,,,VFR,,,,,,,,,,,,METAR,6.0
EGVP 052150Z AUTO 07009KT 9999 NCD 08/01 Q1023,EGVP,2020-05-05T21:50:00Z,51.13,-1.57,8.0,1.0,70,9,,6.21,30.206694,,,TRUE,,,,,,,,CLR,,,,,,,,VFR,,,,,,,,,,,,METAR,91.0
EGXU 052150Z AUTO 11005KT 9999 NCD 06/02 Q1027,EGXU,2020-05-05T21:50:00Z,54.05,-1.25,6.0,2.0,110,5,,6.21,30.324802,,,TRUE,,,,,,,,CLR,,,,,,,,VFR,,,,,,,,,,,,METAR,16.0
EGXE 052150Z AUTO 12004KT 9999 NCD 06/02 Q1026,EGXE,2020-05-05T21:50:00Z,54.28,-1.52,6.0,2.0,120,4,,6.21,30.295275,,,TRUE,,,,,,,,CLR,,,,,,,,VFR,,,,,,,,,,,,METAR,40.0
EGYP 052150Z 22016KT 9999 SCT012 BKN020 04/03 Q1014,EGYP,2020-05-05T21:50:00Z,-51.82,-58.45,4.0,3.0,220,16,,6.21,29.940945,,,,,,,,,,,SCT,1200,BKN,2000,,,,,MVFR,,,,,,,,,,,,METAR,74.0
EGYM 052150Z AUTO 04003KT 9999 NCD 03/01 Q1026,EGYM,2020-05-05T21:50:00Z,52.63,0.57,3.0,1.0,40,3,,6.21,30.295275,,,TRUE,,,,,,,,CLR,,,,,,,,VFR,,,,,,,,,,,,METAR,23.0
EGYD 052150Z AUTO 07006KT 9999 // NCD 05/02 Q1026,EGYD,2020-05-05T21:50:00Z,53.03,-0.5,5.0,2.0,70,6,,6.21,30.295275,,,TRUE,,,,,,,,CLR,,,,,,,,VFR,,,,,,,,,,,,METAR,67.0
EGXW 052150Z AUTO 07007KT 9999 NCD 05/02 Q1026,EGXW,2020-05-05T21:50:00Z,53.18,-0.52,5.0,2.0,70,7,,6.21,30.295275,,,TRUE,,,,,,,,CLR,,,,,,,,VFR,,,,,,,,,,,,METAR,70.0
EGXT 052150Z AUTO 08006KT 9999 NCD 06/02 Q1025,EGXT,2020-05-05T21:50:00Z,52.62,-0.47,6.0,2.0,80,6,,6.21,30.265747,,,TRUE,,,,,,,,CLR,,,,,,,,VFR,,,,,,,,,,,,METAR,84.0
LTAN 052150Z 30004KT 260V340 9999 SCT040 10/06 Q1014 NOSIG,LTAN,2020-05-05T21:50:00Z,37.97,32.53,10.0,6.0,300,4,,6.21,29.940945,,,,,,TRUE,,,,,SCT,4000,,,,,,,VFR,,,,,,,,,,,,METAR,1006.0
PTRO 052150Z 03007KT 14SM SCT016 BKN120 BKN300 27/25 A29782,PTRO,2020-05-05T21:50:00Z,7.37,134.55,27.0,25.0,30,7,,14.0,,,,,,,,,,,,SCT,1600,BKN,12000,BKN,30000,,,VFR,,,,,,,,,,,,METAR,54.0
EGWU 052150Z AUTO 09008KT 9999 // NCD 08/03 Q1024,EGWU,2020-05-05T21:50:00Z,51.55,-0.42,8.0,3.0,90,8,,6.21,30.236221,,,TRUE,,,,,,,,CLR,,,,,,,,VFR,,,,,,,,,,,,METAR,40.0
LTBY 052150Z 24006KT CAVOK 09/07 Q1016,LTBY,2020-05-05T21:50:00Z,39.82,30.52,9.0,7.0,240,6,,6.21,30.0,,,,,,,,,,,CAVOK,,,,,,,,VFR,,,,,,,,,,,,METAR,789.0
LTCD 052150Z 29006KT 9999 FEW033CB SCT040 BKN090 10/08 Q1010 NOSIG,LTCD,2020-05-05T21:50:00Z,39.72,39.5,10.0,8.0,290,6,,6.21,29.822834,,,,,,TRUE,,,,,FEW,3300,SCT,4000,BKN,9000,,,VFR,,,,,,,,,,,,METAR,1215.0
LTCA 052150Z 25006KT 9999 SCT035 BKN100 14/06 Q1006 NOSIG,LTCA,2020-05-05T21:50:00Z,38.6,39.27,14.0,6.0,250,6,,6.21,29.704725,,,,,,TRUE,,,,,SCT,3500,BKN,10000,,,,,VFR,,,,,,,,,,,,METAR,882.0
LTCI 052150Z 16018KT 9999 FEW020CB SCT030 BKN070 14/03 Q1010 TEMPO -TSRA,LTCI,2020-05-05T21:50:00Z,38.45,43.32,14.0,3.0,160,18,,6.21,29.822834,,,,,,,,,,,FEW,2000,SCT,3000,BKN,7000,,,VFR,,,,,,,,,,,,SPECI,1661.0
LTCF 052150Z 05012KT 9999 BKN035 BKN070 07/05 Q1013,LTCF,2020-05-05T21:50:00Z,40.57,43.12,7.0,5.0,50,12,,6.21,29.911417,,,,,,,,,,,BKN,3500,BKN,7000,,,,,VFR,,,,,,,,,,,,METAR,1795.0
LTFH 052150Z 02003KT 330V060 9999 FEW012 SCT030 BKN100 14/11 Q1012 NOSIG,LTFH,2020-05-05T21:50:00Z,41.27,36.55,14.0,11.0,20,3,,6.21,29.88189,,,,,,TRUE,,,,,FEW,1200,SCT,3000,BKN,10000,,,VFR,,,,,,,,,,,,METAR,5.0
LTDA 052150Z 23009KT 9999 SCT035 BKN180 17/11 Q1006 NOSIG,LTDA,2020-05-05T21:50:00Z,36.37,36.28,17.0,11.0,230,9,,6.21,29.704725,,,,,,TRUE,,,,,SCT,3500,BKN,18000,,,,,VFR,,,,,,,,,,,,METAR,82.0
EETU 052150Z AUTO 36005KT 9999 NCD 09/03 Q1011,EETU,2020-05-05T21:50:00Z,58.32,26.68,9.0,3.0,360,5,,6.21,29.852362,,,TRUE,,,,,,,,CLR,,,,,,,,VFR,,,,,,,,,,,,METAR,67.0
EEKE 052150Z AUTO 35008KT 9999NDV NCD 07/05 Q1014,EEKE,2020-05-05T21:50:00Z,58.23,22.52,7.0,5.0,350,8,,,29.940945,,,TRUE,,,,,,,,CLR,,,,,,,,,,,,,,,,,,,,METAR,4.0
KOQU 052150Z 35011KT 10SM SCT060 SCT250 16/M02 A2981,KOQU,2020-05-05T21:50:00Z,41.6,-71.42,16.0,-2.0,350,11,,10.0,29.811024,,,,,,,,,,,SCT,6000,SCT,25000,,,,,VFR,,,,,,,,,,,,METAR,6.0
EGDM 052150Z AUTO 08009KT 9999 NCD 06/00 Q1022,EGDM,2020-05-05T21:50:00Z,51.17,-1.75,6.0,0.0,80,9,,6.21,30.177166,,,TRUE,,,,,,,,CLR,,,,,,,,VFR,,,,,,,,,,,,METAR,124.0
KHXD 052150Z 20010KT 10SM CLR 26/21 A2983,KHXD,2020-05-05T21:50:00Z,32.22,-80.7,26.0,21.0,200,10,,10.0,29.828741,,,,,,,,,,,CLR,,,,,,,,VFR,,,,,,,,,,,,METAR,6.0
KEVB 052150Z 13008KT 10SM FEW060 27/20 A2993,KEVB,2020-05-05T21:50:00Z,29.05,-80.95,27.0,20.0,130,8,,10.0,29.929134,,,,,,,,,,,FEW,6000,,,,,,,VFR,,,,,,,,,,,,METAR,3.0
EGQK 052150Z AUTO 14002KT 9999 NCD 06/03 Q1025,EGQK,2020-05-05T21:50:00Z,57.65,-3.57,6.0,3.0,140,2,,6.21,30.265747,,,TRUE,,,,,,,,CLR,,,,,,,,VFR,,,,,,,,,,,,METAR,7.0
EGXS 052150Z AUTO 09010KT 9999 // BKN030/// 08/02 Q1026,EGXS,2020-05-05T21:50:00Z,53.48,0.15,8.0,2.0,90,10,,6.21,30.295275,,,TRUE,,,,,,,,BKN,3000,,,,,,,MVFR,,,,,,,,,,,,METAR,3.0
EGXP 052150Z AUTO 08007KT 9999 // NCD 05/02 Q1026,EGXP,2020-05-05T21:50:00Z,53.3,-0.55,5.0,2.0,80,7,,6.21,30.295275,,,TRUE,,,,,,,,CLR,,,,,,,,VFR,,,,,,,,,,,,METAR,61.0
LGSM 052150Z VRB02KT CAVOK 15/11 Q1014,LGSM,2020-05-05T21:50:00Z,37.68,26.92,15.0,11.0,0,2,,6.21,29.940945,,,,,,,,,,,CAVOK,,,,,,,,VFR,,,,,,,,,,,,METAR,6.0
LGLM 052150Z 00000KT CAVOK 13/11 Q1014,LGLM,2020-05-05T21:50:00Z,39.92,25.23,13.0,11.0,0,0,,6.21,29.940945,,,,,,,,,,,CAVOK,,,,,,,,VFR,,,,,,,,,,,,METAR,5.0
LTBQ 052150Z 00000KT 6000 NSC 08/08 Q1014 NOSIG,LTBQ,2020-05-05T21:50:00Z,40.72,30.07,8.0,8.0,0,0,,3.73,29.940945,,,,,,TRUE,,,,,CLR,,,,,,,,MVFR,,,,,,,,,,,,METAR,50.0
LTBF 052150Z 00000KT CAVOK 11/10 Q1015 NOSIG,LTBF,2020-05-05T21:50:00Z,39.62,27.92,11.0,10.0,0,0,,6.21,29.970472,,,,,,TRUE,,,,,CAVOK,,,,,,,,VFR,,,,,,,,,,,,METAR,102.0
KDPG 052150Z 26003KT 50SM FEW130 FEW210 SCT300 25/M10 A3021 RMK ACSL DSNT E SLP200 T02471097,KDPG,2020-05-05T21:50:00Z,40.2,-112.92,24.7,-9.7,260,3,,50.0,30.209646,1020.0,,,,,,,,,,FEW,13000,FEW,21000,SCT,30000,,,VFR,,,,,,,,,,,,METAR,1326.0
LTAY 052150Z 28006KT 9999 SCT035 BKN100 11/09 Q1016,LTAY,2020-05-05T21:50:00Z,37.77,29.68,11.0,9.0,280,6,,6.21,30.0,,,,,,,,,,,SCT,3500,BKN,10000,,,,,VFR,,,,,,,,,,,,METAR,849.0
LTCN 052150Z 28015KT 9999 SCT035 BKN100 15/08 Q1006 NOSIG,LTCN,2020-05-05T21:50:00Z,37.53,36.95,15.0,8.0,280,15,,6.21,29.704725,,,,,,TRUE,,,,,SCT,3500,BKN,10000,,,,,VFR,,,,,,,,,,,,METAR,526.0
KVQQ 052150Z 24017KT 10SM CLR 32/17 A2987,KVQQ,2020-05-05T21:50:00Z,30.22,-81.88,32.0,17.0,240,17,,10.0,29.870079,,,,,,,,,,,CLR,,,,,,,,VFR,,,,,,,,,,,,METAR,25.0
TJBQ 052150Z 09011KT 10SM SCT015 SCT043 A2995,TJBQ,2020-05-05T21:50:00Z,18.5,-67.13,,,90,11,,10.0,29.949802,,,,,,,,,,,SCT,1500,SCT,4300,,,,,VFR,,,,,,,,,,,,METAR,72.0
KNQA 052150Z 33008KT 10SM CLR 22/13 A2993,KNQA,2020-05-05T21:50:00Z,35.35,-89.87,22.0,13.0,330,8,,10.0,29.929134,,,,,,,,,,,CLR,,,,,,,,VFR,,,,,,,,,,,,METAR,86.0
KLAL 052150Z 26008KT 10SM FEW050 29/16 A2994,KLAL,2020-05-05T21:50:00Z,27.97,-82.02,29.0,16.0,260,8,,10.0,29.940945,,,,,,,,,,,FEW,5000,,,,,,,VFR,,,,,,,,,,,,METAR,43.0
KGPM 052150Z 35010G22KT 10SM SKC 25/08 A3008,KGPM,2020-05-05T21:50:00Z,32.7,-97.05,25.0,8.0,350,10,22,10.0,30.079725,,,,,,,,,,,SKC,,,,,,,,VFR,,,,,,,,,,,,METAR,180.0
VNKT 052150Z 00000KT 8000 FEW008 SCT030 BKN100 14/14 Q1014 NOSIG,VNKT,2020-05-05T21:50:00Z,27.68,85.37,14.0,14.0,0,0,,4.97,29.940945,,,,,,TRUE,,,,,FEW,800,SCT,3000,BKN,10000,,,MVFR,,,,,,,,,,,,METAR,1337.0
PKMR 052150Z 09010KT 15SM FEW014TCU SCT050 BKN300 28/25 A2985 RMK SHRAB29E36 TCU NW-N SLP110 T02790253,PKMR,2020-05-05T21:50:00Z,7.08,171.38,27.9,25.3,90,10,,15.0,29.84941,1011.0,,,,,,,,,,FEW,1400,SCT,5000,BKN,30000,,,VFR,,,,,,,,,,,,SPECI,4.0
KHQZ 052150Z 33014G22KT 10SM CLR 25/08 A3006,KHQZ,2020-05-05T21:50:00Z,32.75,-96.53,25.0,8.0,330,14,22,10.0,30.059055,,,,,,,,,,,CLR,,,,,,,,VFR,,,,,,,,,,,,METAR,136.0
KESN 052150Z 00000KT 10SM OVC120 15/03 A2992,KESN,2020-05-05T21:50:00Z,38.8,-76.07,15.0,3.0,0,0,,10.0,29.920275,,,,,,,,,,,OVC,12000,,,,,,,VFR,,,,,,,,,,,,METAR,22.0
KGYI 052150Z 01011G17KT 10SM SKC 25/06 A3011,KGYI,2020-05-05T21:50:00Z,33.72,-96.67,25.0,6.0,10,11,17,10.0,30.109253,,,,,,,,,,,SKC,,,,,,,,VFR,,,,,,,,,,,,METAR,228.0
KHOB 052150Z 11008KT 10SM SKC 26/M02 A3018,KHOB,2020-05-05T21:50:00Z,32.67,-103.22,26.0,-2.0,110,8,,10.0,30.180119,,,,,,,,,,,SKC,,,,,,,,VFR,,,,,,,,,,,,METAR,1115.0
MMAS 052150Z 03012KT 10SM SCT035TCU SCT230 30/04 A3010 RMK 8/202 TCU ARND DSNT PCPN W-SW,MMAS,2020-05-05T21:50:00Z,21.7,-102.32,30.0,4.0,30,12,,10.0,30.100393,,,,,,,,,,,SCT,3500,SCT,23000,,,,,VFR,,,,,,,,,,,,METAR,1863.0
MMPA 052150Z 08008KT 5SM SCT250 34/25 A2977 RMK 8/008 HZY,MMPA,2020-05-05T21:50:00Z,20.6,-97.47,34.0,25.0,80,8,,5.0,29.769686,,,,,,,,,,,SCT,25000,,,,,,,MVFR,,,,,,,,,,,,METAR,153.0
PGRO 052150Z 09011KT 7SM SCT015 28/22 A2990,PGRO,2020-05-05T21:50:00Z,14.18,145.25,28.0,22.0,90,11,,7.0,29.899607,,,,,,,,,,,SCT,1500,,,,,,,VFR,,,,,,,,,,,,METAR,185.0
ENOL 052150Z 25025KT 7000 SHRA FEW008 SCT012 BKN020 06/05 Q1013,ENOL,2020-05-05T21:50:00Z,63.7,9.58,6.0,5.0,250,25,,4.35,29.911417,,,,,,,,,,SHRA,FEW,800,SCT,1200,BKN,2000,,,MVFR,,,,,,,,,,,,METAR,7.0
ENBO 052150Z 24019KT 9999 VCSH FEW008 FEW015TCU BKN030 03/01 Q1002 TEMPO 25030G40KT 4000 SHRA BKN014CB,ENBO,2020-05-05T21:50:00Z,67.27,14.37,3.0,1.0,240,19,,6.21,29.586615,,,,,,,,,,VCSH,FEW,800,FEW,1500,BKN,3000,,,MVFR,,,,,,,,,,,,METAR,13.0
ENSB 052150Z 12019KT 9999 FEW018 BKN140 M02/M06 Q0997 RMK WIND 1400FT 11023KT,ENSB,2020-05-05T21:50:00Z,78.25,15.47,-2.0,-6.0,120,19,,6.21,29.438976,,,,,,,,,,,FEW,1800,BKN,14000,,,,,VFR,,-2.3,,,,,,,,,,METAR,29.0
NSTU 052150Z 11013KT 12SM FEW018 SCT040 31/26 A2987 RMK SLP117 T03130263,NSTU,2020-05-05T21:50:00Z,-14.33,-170.72,31.3,26.3,110,13,,12.0,29.870079,1011.7,,,,,,,,,,FEW,1800,SCT,4000,,,,,VFR,,,,,,,,,,,,SPECI,3.0
KLBE 052150Z 01008KT 10SM BKN050 09/02 A2983,KLBE,2020-05-05T21:50:00Z,40.27,-79.4,9.0,2.0,10,8,,10.0,29.828741,,,,,,,,,,,BKN,5000,,,,,,,VFR,,,,,,,,,,,,METAR,361.0
KIFP 052150Z 32011KT 10SM SKC 36/M08 A2988,KIFP,2020-05-05T21:50:00Z,35.15,-114.57,36.0,-8.0,320,11,,10.0,29.878937,,,,,,,,,,,SKC,,,,,,,,VFR,,,,,,,,,,,,METAR,212.0
LGBL 052150Z 25004KT CAVOK 10/08 Q1013,LGBL,2020-05-05T21:50:00Z,39.22,22.8,10.0,8.0,250,4,,6.21,29.911417,,,,,,,,,,,CAVOK,,,,,,,,VFR,,,,,,,,,,,,METAR,26.0
KRYY 052150Z 26016G22KT 10SM BKN041 26/18 A2985 RMK AO2 SLP830 T02610183 $,KRYY,2020-05-05T21:50:00Z,34.02,-84.6,26.1,18.3,260,16,22,10.0,29.84941,983.0,,,TRUE,TRUE,,,,,,BKN,4100,,,,,,,VFR,,,,,,,,,,,,METAR,317.0
ENGC 052150Z 28021KT 9999 BKN030 08/05 Q1021 W07/S5,ENGC,2020-05-05T21:50:00Z,61.02,2.02,8.0,5.0,280,21,,6.21,30.147638,,,,,,,,,,,BKN,3000,,,,,,,MVFR,,,,,,,,,,,,METAR,10.0
KIWA 052150Z 30007KT 10SM SKC 36/M01 A2989,KIWA,2020-05-05T21:50:00Z,33.3,-111.65,36.0,-1.0,300,7,,10.0,29.890747,,,,,,,,,,,SKC,,,,,,,,VFR,,,,,,,,,,,,METAR,412.0
KFIN 052150Z VRB05KT 10SM SCT050 30/18 A2990,KFIN,2020-05-05T21:50:00Z,29.47,-81.2,30.0,18.0,0,5,,10.0,29.899607,,,,,,,,,,,SCT,5000,,,,,,,VFR,,,,,,,,,,,,METAR,10.0
LIRZ 052150Z AUTO 02003KT 9999 FEW200/// 13/10 Q1015,LIRZ,2020-05-05T21:50:00Z,43.1,12.5,13.0,10.0,20,3,,6.21,29.970472,,,TRUE,,,,,,,,FEW,20000,,,,,,,VFR,,,,,,,,,,,,METAR,205.0
KDAG 052150Z AUTO 02005KT 10SM CLR 34/M06 A2998 RMK AO2 SLP128 T03441061,KDAG,2020-05-05T21:50:00Z,34.85,-116.78,34.4,-6.1,20,5,,10.0,29.97933,1012.8,,TRUE,TRUE,,,,,,,CLR,,,,,,,,VFR,,,,,,,,,,,,METAR,587.0
KEFD 052150Z 14005KT 10SM SCT040 BKN055 BKN250 30/23 A2989,KEFD,2020-05-05T21:50:00Z,29.6,-95.17,30.0,23.0,140,5,,10.0,29.890747,,,,,,,,,,,SCT,4000,BKN,5500,BKN,25000,,,VFR,,,,,,,,,,,,METAR,10.0
PTSA 052150Z 13012KT 7SM -SHRA BKN014TCU BKN130 OVC300 26/25 A2985 RMK TCU E-S,PTSA,2020-05-05T21:50:00Z,5.35,162.95,26.0,25.0,130,12,,7.0,29.84941,,,,,,,,,,-SHRA,BKN,1400,BKN,13000,OVC,30000,,,MVFR,,,,,,,,,,,,METAR,3.0
PTTP 052150Z 15003KT 15SM BKN017TCU BKN120 OVC300 26/25 A2991 RMK SHRAE36 TCU ALQDS SLP127 T02600254,PTTP,2020-05-05T21:50:00Z,6.97,158.22,26.0,25.4,150,3,,15.0,29.911417,1012.7,,,,,,,,,,BKN,1700,BKN,12000,OVC,30000,,,MVFR,,,,,,,,,,,,SPECI,2.0
MSSS 052150Z 16009KT 4000 HZ NSC 27/24 Q1012 A2990,MSSS,2020-05-05T21:50:00Z,13.7,-89.12,27.0,24.0,160,9,,2.49,29.88189,,,,,,,,,,HZ,CLR,,,,,,,,IFR,,,,,,,,,,,,METAR,616.0
MSLP 052150Z 25008KT 8000 VCSH SCT020 31/25 Q1008 A2977 NOSIG,MSLP,2020-05-05T21:50:00Z,13.43,-89.05,31.0,25.0,250,8,,4.97,29.763779,,,,,,TRUE,,,,VCSH,SCT,2000,,,,,,,MVFR,,,,,,,,,,,,METAR,25.0
EGXV 052150Z AUTO 00000KT 9999 NCD 03/02 Q1026,EGXV,2020-05-05T21:50:00Z,53.87,-0.45,3.0,2.0,0,0,,6.21,30.295275,,,TRUE,,,,,,,,CLR,,,,,,,,VFR,,,,,,,,,,,,METAR,6.0
EGXC 052150Z 04004KT 9999 FEW030 07/02 Q1026 RMK BLU,EGXC,2020-05-05T21:50:00Z,53.1,-0.17,7.0,2.0,40,4,,6.21,30.295275,,,,,,,,,,,FEW,3000,,,,,,,VFR,,,,,,,,,,,,METAR,7.0
EGXZ 052150Z AUTO 10007KT 9999 NCD 02/01 Q1027,EGXZ,2020-05-05T21:50:00Z,54.2,-1.38,2.0,1.0,100,7,,6.21,30.324802,,,TRUE,,,,,,,,CLR,,,,,,,,VFR,,,,,,,,,,,,METAR,28.0
KJQF 052150Z 00000KT 7SM OVC022 20/16 A2982,KJQF,2020-05-05T21:50:00Z,35.38,-80.72,20.0,16.0,0,0,,7.0,29.819881,,,,,,,,,,,OVC,2200,,,,,,,MVFR,,,,,,,,,,,,METAR,210.0
ENOA 052150Z 24019KT 9999 BKN034 08/05 Q1022 W///S4,ENOA,2020-05-05T21:50:00Z,60.5,2.83,8.0,5.0,240,19,,6.21,30.177166,,,,,,,,,,,BKN,3400,,,,,,,VFR,,,,,,,,,,,,METAR,5.0
EGJB 052150Z 08011KT 9999 FEW028 10/09 Q1020,EGJB,2020-05-05T21:50:00Z,49.42,-2.6,10.0,9.0,80,11,,6.21,30.11811,,,,,,,,,,,FEW,2800,,,,,,,VFR,,,,,,,,,,,,METAR,102.0
EGNS 052150Z 07012KT CAVOK 10/05 Q1024,EGNS,2020-05-05T21:50:00Z,54.08,-4.63,10.0,5.0,70,12,,6.21,30.236221,,,,,,,,,,,CAVOK,,,,,,,,VFR,,,,,,,,,,,,METAR,17.0
BGSF 052150Z AUTO 08009KT 060V120 9999NDV NCD 01/M09 Q1014,BGSF,2020-05-05T21:50:00Z,67.0,-50.72,1.0,-9.0,80,9,,,29.940945,,,TRUE,,,,,,,,CLR,,,,,,,,,,,,,,,,,,,,SPECI,53.0
BGGH 052150Z 34012KT 9999 BKN120 01/M04 Q1011,BGGH,2020-05-05T21:50:00Z,64.2,-51.68,1.0,-4.0,340,12,,6.21,29.852362,,,,,,,,,,,BKN,12000,,,,,,,VFR,,,,,,,,,,,,METAR,70.0
BGBW 052150Z AUTO 31004KT 9999NDV -SHRA FEW038/// BKN048/// 07/02 Q1009,BGBW,2020-05-05T21:50:00Z,61.17,-45.42,7.0,2.0,310,4,,,29.793306,,,TRUE,,,,,,,-SHRA,FEW,3800,BKN,4800,,,,,,,,,,,,,,,,,SPECI,26.0
BGJN 052150Z AUTO 36007KT 9999NDV FEW029/// M02/M09 Q1016,BGJN,2020-05-05T21:50:00Z,69.25,-51.07,-2.0,-9.0,360,7,,,30.0,,,TRUE,,,,,,,,FEW,2900,,,,,,,,,,,,,,,,,,,SPECI,25.0
BGKK 052150Z AUTO VRB02KT 9999NDV FEW150/// BKN170/// 02/M07 Q1015,BGKK,2020-05-05T21:50:00Z,65.57,-37.13,2.0,-7.0,0,2,,,29.970472,,,TRUE,,,,,,,,FEW,15000,BKN,17000,,,,,,,,,,,,,,,,,SPECI,34.0
KSBD 052150Z 22006KT 7SM SKC 37/M01 A2993,KSBD,2020-05-05T21:50:00Z,34.08,-117.25,37.0,-1.0,220,6,,7.0,29.929134,,,,,,,,,,,SKC,,,,,,,,VFR,,,,,,,,,,,,METAR,353.0
OAKB 052150Z 30007KT 9999 FEW080 12/01 Q1020 RMK A3014 BLU BLU,OAKB,2020-05-05T21:50:00Z,34.55,69.22,12.0,1.0,300,7,,6.21,30.11811,,,,,,,,,,,FEW,8000,,,,,,,VFR,,,,,,,,,,,,SPECI,1791.0
MUHG 052150Z 03015KT 9999 SCT040 31/19 Q1011,MUHG,2020-05-05T21:50:00Z,20.77,-76.32,31.0,19.0,30,15,,6.21,29.852362,,,,,,,,,,,SCT,4000,,,,,,,VFR,,,,,,,,,,,,METAR,106.0
MUSC 052150Z 07014KT 9000 FEW020 31/20 Q1012,MUSC,2020-05-05T21:50:00Z,22.5,-79.95,31.0,20.0,70,14,,5.59,29.88189,,,,,,,,,,,FEW,2000,,,,,,,VFR,,,,,,,,,,,,METAR,103.0
MUVR 052150Z 04013KT 9000 FEW025 31/19 Q1013,MUVR,2020-05-05T21:50:00Z,23.03,-81.43,31.0,19.0,40,13,,5.59,29.911417,,,,,,,,,,,FEW,2500,,,,,,,VFR,,,,,,,,,,,,METAR,65.0
ETNG 052150Z 00000KT CAVOK 06/02 Q1022,ETNG,2020-05-05T21:50:00Z,50.97,6.03,6.0,2.0,0,0,,6.21,30.177166,,,,,,,,,,,CAVOK,,,,,,,,VFR,,,,,,,,,,,,METAR,98.0
KOMN 052150Z 13008KT 10SM SCT050 28/21 A2990,KOMN,2020-05-05T21:50:00Z,29.3,-81.12,28.0,21.0,130,8,,10.0,29.899607,,,,,,,,,,,SCT,5000,,,,,,,VFR,,,,,,,,,,,,METAR,9.0
KCIC 052150Z 17015G22KT 10SM SCT160 BKN200 29/M02 A3004,KCIC,2020-05-05T21:50:00Z,39.78,-121.83,29.0,-2.0,170,15,22,10.0,30.041338,,,,,,,,,,,SCT,16000,BKN,20000,,,,,VFR,,,,,,,,,,,,METAR,73.0
LGRX 052150Z 00000KT CAVOK 13/10 Q1018,LGRX,2020-05-05T21:50:00Z,38.17,21.42,13.0,10.0,0,0,,6.21,30.059055,,,,,,,,,,,CAVOK,,,,,,,,VFR,,,,,,,,,,,,METAR,15.0
LGPZ 052150Z 24004KT 9999 FEW020 13/10 Q1018 RMK SCT200 BLU,LGPZ,2020-05-05T21:50:00Z,38.92,20.77,13.0,10.0,240,4,,6.21,30.059055,,,,,,,,,,,FEW,2000,,,,,,,VFR,,,,,,,,,,,,METAR,4.0
EGQM 052150Z AUTO 20002KT 9999 NCD 05/03 Q1026,EGQM,2020-05-05T21:50:00Z,55.42,-1.6,5.0,3.0,200,2,,6.21,30.295275,,,TRUE,,,,,,,,CLR,,,,,,,,VFR,,,,,,,,,,,,METAR,23.0
EGQS 052150Z 11003KT 9999 FEW045 08/04 Q1025 NOSIG RMK BLU BLU,EGQS,2020-05-05T21:50:00Z,57.72,-3.32,8.0,4.0,110,3,,6.21,30.265747,,,,,,TRUE,,,,,FEW,4500,,,,,,,VFR,,,,,,,,,,,,METAR,13.0
KCWF 052150Z VRB06KT 10SM SCT070 32/21 A2989,KCWF,2020-05-05T21:50:00Z,30.22,-93.15,32.0,21.0,0,6,,10.0,29.890747,,,,,,,,,,,SCT,7000,,,,,,,VFR,,,,,,,,,,,,METAR,4.0
LICB 052150Z AUTO 05005KT //// NCD 13/11 Q1018,LICB,2020-05-05T21:50:00Z,37.0,14.62,13.0,11.0,50,5,,,30.059055,,,TRUE,,,,,,,,CLR,,,,,,,,,,,,,,,,,,,,METAR,220.0
ENVD 052150Z 21008KT 9999 FEW025 BKN040 04/M02 Q1001,ENVD,2020-05-05T21:50:00Z,70.07,29.85,4.0,-2.0,210,8,,6.21,29.557087,,,,,,,,,,,FEW,2500,BKN,4000,,,,,VFR,,,,,,,,,,,,METAR,39.0
MMRX 052149Z 14014KT 6SM FEW025 FEW300 34/20 A2982 RMK 8/102 HZY,MMRX,2020-05-05T21:49:00Z,26.02,-98.22,34.0,20.0,140,14,,6.0,29.819881,,,,,,,,,,,FEW,2500,FEW,30000,,,,,VFR,,,,,,,,,,,,METAR,39.0
MMMD 052149Z 04006KT 7SM BKN025TCU BKN300 38/17 A2979 RMK 8/208,MMMD,2020-05-05T21:49:00Z,20.95,-89.65,38.0,17.0,40,6,,7.0,29.790354,,,,,,,,,,,BKN,2500,BKN,30000,,,,,MVFR,,,,,,,,,,,,METAR,10.0
MMGM 052149Z 23010KT 10SM SKC 33/16 A2976,MMGM,2020-05-05T21:49:00Z,27.95,-110.92,33.0,16.0,230,10,,10.0,29.760826,,,,,,,,,,,SKC,,,,,,,,VFR,,,,,,,,,,,,METAR,20.0
KJDN 052148Z AUTO 33014G20KT 14/01 A3027 RMK AO1 SLP263 T01440006,KJDN,2020-05-05T21:48:00Z,47.33,-106.95,14.4,0.6,330,14,20,,30.268702,1026.3,,TRUE,TRUE,,,,,,,,,,,,,,,,,,,,,,,,,,,METAR,801.0
KALN 052148Z 32011KT 10SM SCT030 SCT055 16/11 A2991,KALN,2020-05-05T21:48:00Z,38.88,-90.03,16.0,11.0,320,11,,10.0,29.911417,,,,,,,,,,,SCT,3000,SCT,5500,,,,,VFR,,,,,,,,,,,,METAR,166.0
KASG 052148Z 29012G19KT 10SM CLR 20/04 A3007,KASG,2020-05-05T21:48:00Z,36.17,-94.12,20.0,4.0,290,12,19,10.0,30.070866,,,,,,,,,,,CLR,,,,,,,,VFR,,,,,,,,,,,,METAR,412.0
KPOC 052147Z 26012G15KT 10SM CLR 33/08 A2995,KPOC,2020-05-05T21:47:00Z,34.1,-117.77,33.0,8.0,260,12,15,10.0,29.949802,,,,,,,,,,,CLR,,,,,,,,VFR,,,,,,,,,,,,METAR,308.0
KSQL 052147Z 28014G20KT 10SM SKC 23/11 A3014,KSQL,2020-05-05T21:47:00Z,37.52,-122.25,23.0,11.0,280,14,20,10.0,30.138779,,,,,,,,,,,SKC,,,,,,,,VFR,,,,,,,,,,,,METAR,1.0
KFDK 052147Z 00000KT 10SM OVC090 14/03 A2988,KFDK,2020-05-05T21:47:00Z,39.42,-77.37,14.0,3.0,0,0,,10.0,29.878937,,,,,,,,,,,OVC,9000,,,,,,,VFR,,,,,,,,,,,,METAR,92.0
MMTC 052147Z 00000KT 10SM SCT025CB SCT200 38/04 A2990 RMK 8/303 CU,MMTC,2020-05-05T21:47:00Z,25.57,-103.4,38.0,4.0,0,0,,10.0,29.899607,,,,,,,,,,,SCT,2500,SCT,20000,,,,,VFR,,,,,,,,,,,,METAR,1124.0
KPAO 052147Z 34017KT 10SM SKC 21/14 A3013,KPAO,2020-05-05T21:47:00Z,37.47,-122.12,21.0,14.0,340,17,,10.0,30.129921,,,,,,,,,,,SKC,,,,,,,,VFR,,,,,,,,,,,,METAR,2.0
KHUM 052147Z 24005KT 7SM SCT050 29/20 A2990,KHUM,2020-05-05T21:47:00Z,29.57,-90.67,29.0,20.0,240,5,,7.0,29.899607,,,,,,,,,,,SCT,5000,,,,,,,VFR,,,,,,,,,,,,METAR,3.0
KGEU 052147Z 00000KT 10SM SKC 38/M01 A2987,KGEU,2020-05-05T21:47:00Z,33.53,-112.3,38.0,-1.0,0,0,,10.0,29.870079,,,,,,,,,,,SKC,,,,,,,,VFR,,,,,,,,,,,,METAR,325.0
KBCT 052147Z 17011KT 10SM CLR 30/20 A2993,KBCT,2020-05-05T21:47:00Z,26.38,-80.1,30.0,20.0,170,11,,10.0,29.929134,,,,,,,,,,,CLR,,,,,,,,VFR,,,,,,,,,,,,METAR,4.0
KAEG 052147Z VRB06KT 10SM SCT080 24/01 A3021,KAEG,2020-05-05T21:47:00Z,35.13,-106.8,24.0,1.0,0,6,,10.0,30.209646,,,,,,,,,,,SCT,8000,,,,,,,VFR,,,,,,,,,,,,METAR,1779.0
KCHD 052147Z 18006KT 10SM SKC 38/M03 A2987,KCHD,2020-05-05T21:47:00Z,33.27,-111.82,38.0,-3.0,180,6,,10.0,29.870079,,,,,,,,,,,SKC,,,,,,,,VFR,,,,,,,,,,,,METAR,379.0
KSUA 052147Z 12012KT 7SM SCT030 29/20 A2993,KSUA,2020-05-05T21:47:00Z,27.18,-80.22,29.0,20.0,120,12,,7.0,29.929134,,,,,,,,,,,SCT,3000,,,,,,,VFR,,,,,,,,,,,,METAR,6.0
KFWS 052147Z 03012G17KT 10SM CLR 26/08 A3009,KFWS,2020-05-05T21:47:00Z,32.57,-97.3,26.0,8.0,30,12,17,10.0,30.088583,,,,,,,,,,,CLR,,,,,,,,VFR,,,,,,,,,,,,METAR,208.0
MMTM 052147Z 09007KT 7SM SCT015 BKN200 30/25 A2978 RMK 8/108 HZY,MMTM,2020-05-05T21:47:00Z,22.27,-97.87,30.0,25.0,90,7,,7.0,29.778543,,,,,,,,,,,SCT,1500,BKN,20000,,,,,VFR,,,,,,,,,,,,METAR,24.0
MMPS 052147Z 21008KT 12SM BKN220 29/24 A2981 RMK 8/001 HZY,MMPS,2020-05-05T21:47:00Z,15.87,-97.07,29.0,24.0,210,8,,12.0,29.811024,,,,,,,,,,,BKN,22000,,,,,,,VFR,,,,,,,,,,,,METAR,88.0
KSEE 052147Z 27013KT 10SM SKC 32/13 A2992,KSEE,2020-05-05T21:47:00Z,32.82,-116.97,32.0,13.0,270,13,,10.0,29.920275,,,,,,,,,,,SKC,,,,,,,,VFR,,,,,,,,,,,,METAR,117.0
KADS 052147Z 36016G20KT 10SM SKC 26/06 A3008,KADS,2020-05-05T21:47:00Z,32.97,-96.82,26.0,6.0,360,16,20,10.0,30.079725,,,,,,,,,,,SKC,,,,,,,,VFR,,,,,,,,,,,,METAR,196.0
KMWN 052147Z 32025G30KT 0000 FZFG VV002 M08/M08 RMK VRY LGT ICG SUN DMLY VSBL,KMWN,2020-05-05T21:47:00Z,44.27,-71.3,-8.0,-8.0,320,25,30,0.0,,,,,,,,,,,FZFG,OVX,0,,,,,,,LIFR,,,,,,,,,,,200,METAR,1910.0
KTIX 052147Z 12010KT 7SM SCT055 31/22 A2992,KTIX,2020-05-05T21:47:00Z,28.5,-80.8,31.0,22.0,120,10,,7.0,29.920275,,,,,,,,,,,SCT,5500,,,,,,,VFR,,,,,,,,,,,,METAR,11.0
KGYH 052147Z 05010KT 10SM BKN040 BKN055 23/18 A2977,KGYH,2020-05-05T21:47:00Z,34.75,-82.38,23.0,18.0,50,10,,10.0,29.769686,,,,,,,,,,,BKN,4000,BKN,5500,,,,,VFR,,,,,,,,,,,,METAR,292.0
KRHV 052147Z 32012KT 10SM SKC 24/09 A3012,KRHV,2020-05-05T21:47:00Z,37.32,-121.82,24.0,9.0,320,12,,10.0,30.121063,,,,,,,,,,,SKC,,,,,,,,VFR,,,,,,,,,,,,METAR,41.0
KTOA 052147Z 27016KT 10SM SKC 26/10 A2993,KTOA,2020-05-05T21:47:00Z,33.78,-118.32,26.0,10.0,270,16,,10.0,29.929134,,,,,,,,,,,SKC,,,,,,,,VFR,,,,,,,,,,,,METAR,31.0
KGYR 052147Z 00000KT 10SM SKC 38/M01 A2986,KGYR,2020-05-05T21:47:00Z,33.42,-112.37,38.0,-1.0,0,0,,10.0,29.861221,,,,,,,,,,,SKC,,,,,,,,VFR,,,,,,,,,,,,METAR,295.0
MMCM 052146Z 14012KT 7SM SCT020 31/24 A2983 RMK 8/200,MMCM,2020-05-05T21:46:00Z,18.5,-88.33,31.0,24.0,140,12,,7.0,29.828741,,,,,,,,,,,SCT,2000,,,,,,,VFR,,,,,,,,,,,,METAR,12.0
MMZO 052146Z 24010KT 10SM FEW020 28/23 A2979 RMK 8/100 HZ,MMZO,2020-05-05T21:46:00Z,19.13,-104.57,28.0,23.0,240,10,,10.0,29.790354,,,,,,,,,,,FEW,2000,,,,,,,VFR,,,,,,,,,,,,METAR,8.0
MMZC 052146Z 36015KT 10SM SCT030 BKN200 26/04 A3017 RMK 8/201,MMZC,2020-05-05T21:46:00Z,22.9,-102.68,26.0,4.0,360,15,,10.0,30.171259,,,,,,,,,,,SCT,3000,BKN,20000,,,,,VFR,,,,,,,,,,,,METAR,2177.0
MMSP 052146Z 06011KT 15SM SCT030 BKN210 28/02 A3011 RMK 8/108 ISOL AC,MMSP,2020-05-05T21:46:00Z,22.25,-100.93,28.0,2.0,60,11,,15.0,30.109253,,,,,,,,,,,SCT,3000,BKN,21000,,,,,VFR,,,,,,,,,,,,METAR,1903.0
KMWA 052146Z 33009KT 20SM SCT034 17/11 A2992,KMWA,2020-05-05T21:46:00Z,37.77,-89.02,17.0,11.0,330,9,,20.0,29.920275,,,,,,,,,,,SCT,3400,,,,,,,VFR,,,,,,,,,,,,METAR,144.0
KOUN 052146Z 36009KT 10SM CLR 24/04 A3009,KOUN,2020-05-05T21:46:00Z,35.25,-97.47,24.0,4.0,360,9,,10.0,30.088583,,,,,,,,,,,CLR,,,,,,,,VFR,,,,,,,,,,,,METAR,357.0
MMPB 052146Z 21011KT 8SM SCT020CB BKN220 23/09 A3016 RMK 8/303 HZY,MMPB,2020-05-05T21:46:00Z,19.17,-98.37,23.0,9.0,210,11,,8.0,30.159449,,,,,,,,,,,SCT,2000,BKN,22000,,,,,VFR,,,,,,,,,,,,METAR,2244.0
MMCE 052145Z 02011KT 7SM SKC 32/26 A2974,MMCE,2020-05-05T21:45:00Z,18.65,-91.8,32.0,26.0,20,11,,7.0,29.740158,,,,,,,,,,,SKC,,,,,,,,VFR,,,,,,,,,,,,METAR,2.0
MMMA 052145Z 12010G20KT 7SM BKN023 33/24 A2985 RMK 8/100 HZY,MMMA,2020-05-05T21:45:00Z,25.77,-97.52,33.0,24.0,120,10,20,7.0,29.84941,,,,,,,,,,,BKN,2300,,,,,,,MVFR,,,,,,,,,,,,METAR,8.0
MMCV 052145Z 36006KT 5SM FEW020TCU BKN070 36/16 A2977 RMK 8/230 HZY,MMCV,2020-05-05T21:45:00Z,23.72,-98.97,36.0,16.0,360,6,,5.0,29.769686,,,,,,,,,,,FEW,2000,BKN,7000,,,,,MVFR,,,,,,,,,,,,METAR,238.0
MMTG 052145Z 30009KT 5SM TS +RA OVC030CB 27/22 A2987 RMK 60105 8/9// TS N HZY,MMTG,2020-05-05T21:45:00Z,16.57,-93.03,27.0,22.0,300,9,,5.0,29.870079,,,,,,,,,,TS +RA,OVC,3000,,,,,,,MVFR,,,,,,,,,,,,METAR,528.0
MMMX 052145Z 30007KT 10SM FEW020 BKN200 27/M04 A3017 NOSIG RMK 8/203 HZY AC,MMMX,2020-05-05T21:45:00Z,19.42,-99.08,27.0,-4.0,300,7,,10.0,30.171259,,,,,,TRUE,,,,,FEW,2000,BKN,20000,,,,,VFR,,,,,,,,,,,,METAR,2238.0
KMWC 052145Z 02007KT 10SM OVC090 07/M04 A3003,KMWC,2020-05-05T21:45:00Z,43.12,-88.03,7.0,-4.0,20,7,,10.0,30.029528,,,,,,,,,,,OVC,9000,,,,,,,VFR,,,,,,,,,,,,METAR,227.0
KJVL 052145Z 02011KT 10SM BKN038 OVC055 11/02 A2999,KJVL,2020-05-05T21:45:00Z,42.62,-89.05,11.0,2.0,20,11,,10.0,29.991142,,,,,,,,,,,BKN,3800,OVC,5500,,,,,VFR,,,,,,,,,,,,METAR,246.0
KEMT 052145Z 21009G15KT 10SM CLR 33/09 A2991,KEMT,2020-05-05T21:45:00Z,34.07,-118.02,33.0,9.0,210,9,15,10.0,29.911417,,,,,,,,,,,CLR,,,,,,,,VFR,,,,,,,,,,,,METAR,90.0
KCGF 052145Z 04013G19KT 20SM SCT070 OVC100 07/M03 A2987,KCGF,2020-05-05T21:45:00Z,41.57,-81.47,7.0,-3.0,40,13,19,20.0,29.870079,,,,,,,,,,,SCT,7000,OVC,10000,,,,,VFR,,,,,,,,,,,,METAR,268.0
KBAK 052145Z 00000KT 10SM OVC034 08/04 A2988,KBAK,2020-05-05T21:45:00Z,39.27,-85.9,8.0,4.0,0,0,,10.0,29.878937,,,,,,,,,,,OVC,3400,,,,,,,VFR,,,,,,,,,,,,METAR,200.0
PHJH 052145Z 05015G22KT 10SM FEW050 28/17 A3006,PHJH,2020-05-05T21:45:00Z,20.97,-156.67,28.0,17.0,50,15,22,10.0,30.059055,,,,,,,,,,,FEW,5000,,,,,,,VFR,,,,,,,,,,,,METAR,78.0
KSWF 052145Z 30005KT 10SM SKC 16/M08 A2984,KSWF,2020-05-05T21:45:00Z,41.5,-74.08,16.0,-8.0,300,5,,10.0,29.840551,,,,,,,,,,,SKC,,,,,,,,VFR,,,,,,,,,,,,METAR,150.0
KRYN 052145Z 00000KT 10SM CLR 37/M11 A2994,KRYN,2020-05-05T21:45:00Z,32.15,-111.17,37.0,-11.0,0,0,,10.0,29.940945,,,,,,,,,,,CLR,,,,,,,,VFR,,,,,,,,,,,,METAR,737.0
KUES 052145Z 05006KT 10SM SCT065 BKN075 07/M06 A3002,KUES,2020-05-05T21:45:00Z,43.05,-88.25,7.0,-6.0,50,6,,10.0,30.02067,,,,,,,,,,,SCT,6500,BKN,7500,,,,,VFR,,,,,,,,,,,,METAR,278.0
KVCV 052145Z 33004KT 10SM SKC A3005,KVCV,2020-05-05T21:45:00Z,34.58,-117.38,,,330,4,,10.0,30.050198,,,,,,,,,,,SKC,,,,,,,,VFR,,,,,,,,,,,,METAR,876.0
KGYY 052145Z 36007KT 10SM SCT026 OVC035 08/00 A2998,KGYY,2020-05-05T21:45:00Z,41.62,-87.42,8.0,0.0,360,7,,10.0,29.97933,,,,,,,,,,,SCT,2600,OVC,3500,,,,,VFR,,,,,,,,,,,,METAR,180.0
KBBG 052145Z 31015G22KT 10SM SCT200 20/02 A3003,KBBG,2020-05-05T21:45:00Z,36.53,-93.2,20.0,2.0,310,15,22,10.0,30.029528,,,,,,,,,,,SCT,20000,,,,,,,VFR,,,,,,,,,,,,METAR,397.0
KSAW 052145Z 04011KT 10SM SKC 08/M07 A3005,KSAW,2020-05-05T21:45:00Z,46.35,-87.4,8.0,-7.0,40,11,,10.0,30.050198,,,,,,,,,,,SKC,,,,,,,,VFR,,,,,,,,,,,,METAR,372.0
KATW 052145Z 06005KT 10SM SCT100 11/M08 A3002,KATW,2020-05-05T21:45:00Z,44.27,-88.52,11.0,-8.0,60,5,,10.0,30.02067,,,,,,,,,,,SCT,10000,,,,,,,VFR,,,,,,,,,,,,METAR,280.0
KANE 052145Z 05007KT 10SM SCT110 OVC250 16/M07 A3003,KANE,2020-05-05T21:45:00Z,45.15,-93.22,16.0,-7.0,50,7,,10.0,30.029528,,,,,,,,,,,SCT,11000,OVC,25000,,,,,VFR,,,,,,,,,,,,METAR,278.0
KWDG 052145Z 01010KT 10SM SCT150 23/02 A3012,KWDG,2020-05-05T21:45:00Z,36.37,-97.77,23.0,2.0,10,10,,10.0,30.121063,,,,,,,,,,,SCT,15000,,,,,,,VFR,,,,,,,,,,,,METAR,356.0
KBJC 052145Z 03012KT 30SM FEW070 FEW170 22/M06 A3018,KBJC,2020-05-05T21:45:00Z,39.9,-105.1,22.0,-6.0,30,12,,30.0,30.180119,,,,,,,,,,,FEW,7000,FEW,17000,,,,,VFR,,,,,,,,,,,,METAR,1724.0
MMPR 052144Z 22011KT 15SM SKC 27/22 A2979 RMK TCU-E,MMPR,2020-05-05T21:44:00Z,20.67,-105.25,27.0,22.0,220,11,,15.0,29.790354,,,,,,,,,,,SKC,,,,,,,,VFR,,,,,,,,,,,,SPECI,6.0
MMMM 052144Z 30003KT 7SM BKN030CB BKN090 OVC200 26/10 A3011 RMK 8/963 HZY,MMMM,2020-05-05T21:44:00Z,19.85,-101.02,26.0,10.0,300,3,,7.0,30.109253,,,,,,,,,,,BKN,3000,BKN,9000,OVC,20000,,,MVFR,,,,,,,,,,,,METAR,1833.0
MMGL 052144Z 32010KT 8SM SCT030TCU BKN300 31/01 A3001 RMK 8/208 CB SW/AC,MMGL,2020-05-05T21:44:00Z,20.52,-103.32,31.0,1.0,320,10,,8.0,30.008858,,,,,,,,,,,SCT,3000,BKN,30000,,,,,VFR,,,,,,,,,,,,METAR,1528.0
MMCP 052143Z 35015KT 7SM SCT040 BKN300 32/24 A2976 RMK 8/402,MMCP,2020-05-05T21:43:00Z,19.82,-90.5,32.0,24.0,350,15,,7.0,29.760826,,,,,,,,,,,SCT,4000,BKN,30000,,,,,VFR,,,,,,,,,,,,METAR,5.0
MMCS 052142Z 08015KT 10SM SKC 28/02 A3013,MMCS,2020-05-05T21:42:00Z,31.62,-106.42,28.0,2.0,80,15,,10.0,30.129921,,,,,,,,,,,SKC,,,,,,,,VFR,,,,,,,,,,,,METAR,1171.0
MMDO 052142Z 08017KT 10SM BKN025CB 30/00 A3011 RMK 8/300,MMDO,2020-05-05T21:42:00Z,24.12,-104.52,30.0,0.0,80,17,,10.0,30.109253,,,,,,,,,,,BKN,2500,,,,,,,MVFR,,,,,,,,,,,,METAR,1857.0
MMCL 052142Z 27010KT 10SM SKC 36/15 A2976 RMK DSNT AS NE HZY,MMCL,2020-05-05T21:42:00Z,24.77,-107.47,36.0,15.0,270,10,,10.0,29.760826,,,,,,,,,,,SKC,,,,,,,,VFR,,,,,,,,,,,,METAR,39.0
MMTJ 052142Z 27014KT 10SM SKC 28/15 A2996 RMK HZY,MMTJ,2020-05-05T21:42:00Z,32.53,-116.97,28.0,15.0,270,14,,10.0,29.958662,,,,,,,,,,,SKC,,,,,,,,VFR,,,,,,,,,,,,METAR,152.0
MMVR 052142Z 09012KT 5SM SCT090 32/25 A2975 RMK 8/030 HZY,MMVR,2020-05-05T21:42:00Z,19.15,-96.18,32.0,25.0,90,12,,5.0,29.749016,,,,,,,,,,,SCT,9000,,,,,,,MVFR,,,,,,,,,,,,METAR,16.0
MMOX 052142Z 08010KT 5SM BKN025CB OVC080 27/05 A3006 RMK 8/96/ HZY/PCPN /-RAE20,MMOX,2020-05-05T21:42:00Z,17.0,-96.72,27.0,5.0,80,10,,5.0,30.059055,,,,,,,,,,,BKN,2500,OVC,8000,,,,,MVFR,,,,,,,,,,,,METAR,1528.0
MMPN 052141Z 25006KT 3SM FU HZ BKN280 27/08 A3006 RMK 8/001 AC,MMPN,2020-05-05T21:41:00Z,19.38,-102.02,27.0,8.0,250,6,,3.0,30.059055,,,,,,,,,,FU HZ,BKN,28000,,,,,,,MVFR,,,,,,,,,,,,METAR,1593.0
MMEP 052141Z 36010KT 12SM SKC 32/15 A2995 RMK HZY TCY NE,MMEP,2020-05-05T21:41:00Z,21.42,-104.85,32.0,15.0,360,10,,12.0,29.949802,,,,,,,,,,,SKC,,,,,,,,VFR,,,,,,,,,,,,METAR,922.0
MMMZ 052141Z 27010KT 15SM FEW250 28/18 A2979 RMK 8/003 DSNT CB NE,MMMZ,2020-05-05T21:41:00Z,23.17,-106.27,28.0,18.0,270,10,,15.0,29.790354,,,,,,,,,,,FEW,25000,,,,,,,VFR,,,,,,,,,,,,METAR,10.0
MMSL 052141Z 20004KT 9SM SKC 32/11 A2986,MMSL,2020-05-05T21:41:00Z,22.95,-109.93,32.0,11.0,200,4,,9.0,29.861221,,,,,,,,,,,SKC,,,,,,,,VFR,,,,,,,,,,,,METAR,140.0
MMMY 052141Z 04010G22KT 7SM SCT035 BKN070 35/18 A2983 RMK 8/560 HZY CB N,MMMY,2020-05-05T21:41:00Z,25.77,-100.08,35.0,18.0,40,10,22,7.0,29.828741,,,,,,,,,,,SCT,3500,BKN,7000,,,,,VFR,,,,,,,,,,,,METAR,387.0
MMZH 052141Z 23007KT 7SM SKC 30/22 A2981 RMK HZY,MMZH,2020-05-05T21:41:00Z,17.6,-101.47,30.0,22.0,230,7,,7.0,29.811024,,,,,,,,,,,SKC,,,,,,,,VFR,,,,,,,,,,,,METAR,6.0
MMCZ 052140Z 11009KT 8SM SCT015 32/23 A2987 RMK 8/100 SC,MMCZ,2020-05-05T21:40:00Z,20.52,-86.92,32.0,23.0,110,9,,8.0,29.870079,,,,,,,,,,,SCT,1500,,,,,,,VFR,,,,,,,,,,,,METAR,5.0
MMPG 052140Z 33006KT 8SM SCT030 31/14 A2995 RMK 8/500 HZY,MMPG,2020-05-05T21:40:00Z,28.65,-100.52,31.0,14.0,330,6,,8.0,29.949802,,,,,,,,,,,SCT,3000,,,,,,,VFR,,,,,,,,,,,,METAR,250.0
MMNL 052140Z 04014KT 10SM BKN015 36/22 A2985 RMK 8/500,MMNL,2020-05-05T21:40:00Z,27.42,-99.57,36.0,22.0,40,14,,10.0,29.84941,,,,,,,,,,,BKN,1500,,,,,,,MVFR,,,,,,,,,,,,METAR,148.0
MMAN 052140Z 06006KT 8SM SCT030 BKN070 BKN200 32/16 A2989 RMK 8/569 CB N / S,MMAN,2020-05-05T21:40:00Z,25.87,-100.23,32.0,16.0,60,6,,8.0,29.890747,,,,,,,,,,,SCT,3000,BKN,7000,BKN,20000,,,VFR,,,,,,,,,,,,METAR,448.0
MMLO 052140Z 01010KT 10SM SCT030 SCT080 BKN220 26/10 A3014 RMK 8/463,MMLO,2020-05-05T21:40:00Z,21.0,-101.47,26.0,10.0,10,10,,10.0,30.138779,,,,,,,,,,,SCT,3000,SCT,8000,BKN,22000,,,VFR,,,,,,,,,,,,METAR,1819.0
MMVA 052140Z 04005KT 5SM SCT030 36/20 A2975 RMK 8/800 HZY,MMVA,2020-05-05T21:40:00Z,18.0,-92.82,36.0,20.0,40,5,,5.0,29.749016,,,,,,,,,,,SCT,3000,,,,,,,MVFR,,,,,,,,,,,,METAR,13.0
MMHO 052140Z 08003KT 10SM SKC 42/M01 A2980 RMK HZY,MMHO,2020-05-05T21:40:00Z,29.08,-111.05,42.0,-1.0,80,3,,10.0,29.799213,,,,,,,,,,,SKC,,,,,,,,VFR,,,,,,,,,,,,METAR,184.0
MMCN 052140Z 21008KT 10SM SKC 37/06 A2977 RMK HZY,MMCN,2020-05-05T21:40:00Z,27.4,-109.83,37.0,6.0,210,8,,10.0,29.769686,,,,,,,,,,,SKC,,,,,,,,VFR,,,,,,,,,,,,METAR,43.0
MMLP 052140Z 36010KT 10SM SKC 33/05 A2982,MMLP,2020-05-05T21:40:00Z,24.07,-110.37,33.0,5.0,360,10,,10.0,29.819881,,,,,,,,,,,SKC,,,,,,,,VFR,,,,,,,,,,,,METAR,21.0
MMLM 052140Z 25013KT 10SM SKC 32/13 A2981 RMK HZY,MMLM,2020-05-05T21:40:00Z,25.67,-109.07,32.0,13.0,250,13,,10.0,29.811024,,,,,,,,,,,SKC,,,,,,,,VFR,,,,,,,,,,,,METAR,4.0
MMML 052140Z 34008KT 10SM SKC 38/M09 A2984,MMML,2020-05-05T21:40:00Z,32.62,-115.23,38.0,-9.0,340,8,,10.0,29.840551,,,,,,,,,,,SKC,,,,,,,,VFR,,,,,,,,,,,,METAR,22.0
MMSD 052140Z 15010KT 10SM SKC 31/11 A2983,MMSD,2020-05-05T21:40:00Z,23.13,-109.7,31.0,11.0,150,10,,10.0,29.828741,,,,,,,,,,,SKC,,,,,,,,VFR,,,,,,,,,,,,METAR,109.0
MMIO 052140Z 36020G30KT 10SM SCT040TCU BKN200 30/08 A3007 RMK 8/208,MMIO,2020-05-05T21:40:00Z,25.55,-100.93,30.0,8.0,360,20,30,10.0,30.070866,,,,,,,,,,,SCT,4000,BKN,20000,,,,,VFR,,,,,,,,,,,,METAR,1790.0
RJNY 052132Z 04008KT 360V060 9999 -SHRA FEW015 SCT025 BKN045 19/15 Q1012 RMK 1CU015 3CU025 6SC045 A2989,RJNY,2020-05-05T21:32:00Z,34.82,138.3,19.0,15.0,40,8,,6.21,29.88189,,,,,,,,,,-SHRA,FEW,1500,SCT,2500,BKN,4500,,,VFR,,,,,,,,,,,,METAR,10.0
WALL 052130Z 29002KT 9000 FEW017CB SCT018 27/26Q1009 RMK CB TO SW,WALL,2020-05-05T21:30:00Z,-1.27,116.9,,,290,2,,5.59,29.793306,,,,,,,,,,,FEW,1700,SCT,1800,,,,,VFR,,,,,,,,,,,,METAR,3.0
K1V6 052130Z AUTO 08006KT 10SM CLR 24/M01 A3013 RMK AO2,K1V6,2020-05-05T21:30:00Z,38.43,-105.1,24.0,-1.0,80,6,,10.0,30.129921,,,TRUE,TRUE,,,,,,,CLR,,,,,,,,VFR,,,,,,,,,,,,METAR,1658.0
SBFN 052130Z 11011KT 070V130 6000 -RA BKN016 BKN070 26/25 Q1012,SBFN,2020-05-05T21:30:00Z,-3.85,-32.42,26.0,25.0,110,11,,3.73,29.88189,,,,,,,,,,-RA,BKN,1600,BKN,7000,,,,,MVFR,,,,,,,,,,,,SPECI,56.0
DTTJ 052130Z 14010KT CAVOK 24/15 Q1015 NOSIG,DTTJ,2020-05-05T21:30:00Z,33.87,10.77,24.0,15.0,140,10,,6.21,29.970472,,,,,,TRUE,,,,,CAVOK,,,,,,,,VFR,,,,,,,,,,,,METAR,4.0
SPZO 052130Z 11007KT 080V170 9999 VCSH SCT043 BKN080 11/04 Q1028 NOSIG RMK BIRD HAZARD RWY 28,SPZO,2020-05-05T21:30:00Z,-13.55,-71.97,11.0,4.0,110,7,,6.21,30.35433,,,,,,TRUE,,,,VCSH,SCT,4300,BKN,8000,,,,,VFR,,,,,,,,,,,,METAR,3249.0
EIWF 052130Z 12009KT 9999 BKN028 10/08 Q1021,EIWF,2020-05-05T21:30:00Z,52.18,-7.08,10.0,8.0,120,9,,6.21,30.147638,,,,,,,,,,,BKN,2800,,,,,,,MVFR,,,,,,,,,,,,METAR,36.0
WAOO 052130Z AUTO VRB02KT 6000 NCD 26/26 Q1008,WAOO,2020-05-05T21:30:00Z,-3.45,114.77,26.0,26.0,0,2,,3.73,29.763779,,,TRUE,,,,,,,,CLR,,,,,,,,MVFR,,,,,,,,,,,,METAR,20.0
